"","X","zip","county","county_fip","state_fip","CBSA.Code","Metropolitan.Division.Code","CSA.Code","CBSA.Title","Metropolitan.Micropolitan.Statistical.Area","Metropolitan.Division.Title","CSA.Title","County.County.Equivalent","State.Name","Central.Outlying.County"
"1",1,55811,27137,137,27,20260,NA,NA,"Duluth, MN-WI","Metropolitan Statistical Area",NA,NA,"St. Louis County","Minnesota","Central"
"2",2,55732,27137,137,27,20260,NA,NA,"Duluth, MN-WI","Metropolitan Statistical Area",NA,NA,"St. Louis County","Minnesota","Central"
"3",3,55765,27137,137,27,20260,NA,NA,"Duluth, MN-WI","Metropolitan Statistical Area",NA,NA,"St. Louis County","Minnesota","Central"
"4",4,55345,27053,53,27,33460,NA,378,"Minneapolis-St. Paul-Bloomington, MN-WI","Metropolitan Statistical Area",NA,"Minneapolis-St. Paul, MN-WI","Hennepin County","Minnesota","Central"
"5",5,55374,27171,171,27,33460,NA,378,"Minneapolis-St. Paul-Bloomington, MN-WI","Metropolitan Statistical Area",NA,"Minneapolis-St. Paul, MN-WI","Wright County","Minnesota","Central"
"6",6,55374,27053,53,27,33460,NA,378,"Minneapolis-St. Paul-Bloomington, MN-WI","Metropolitan Statistical Area",NA,"Minneapolis-St. Paul, MN-WI","Hennepin County","Minnesota","Central"
"7",7,55115,27163,163,27,33460,NA,378,"Minneapolis-St. Paul-Bloomington, MN-WI","Metropolitan Statistical Area",NA,"Minneapolis-St. Paul, MN-WI","Washington County","Minnesota","Central"
"8",8,55055,27163,163,27,33460,NA,378,"Minneapolis-St. Paul-Bloomington, MN-WI","Metropolitan Statistical Area",NA,"Minneapolis-St. Paul, MN-WI","Washington County","Minnesota","Central"
"9",9,55047,27163,163,27,33460,NA,378,"Minneapolis-St. Paul-Bloomington, MN-WI","Metropolitan Statistical Area",NA,"Minneapolis-St. Paul, MN-WI","Washington County","Minnesota","Central"
"10",10,55448,27003,3,27,33460,NA,378,"Minneapolis-St. Paul-Bloomington, MN-WI","Metropolitan Statistical Area",NA,"Minneapolis-St. Paul, MN-WI","Anoka County","Minnesota","Central"
"11",11,55322,27019,19,27,33460,NA,378,"Minneapolis-St. Paul-Bloomington, MN-WI","Metropolitan Statistical Area",NA,"Minneapolis-St. Paul, MN-WI","Carver County","Minnesota","Central"
"12",12,55330,27141,141,27,33460,NA,378,"Minneapolis-St. Paul-Bloomington, MN-WI","Metropolitan Statistical Area",NA,"Minneapolis-St. Paul, MN-WI","Sherburne County","Minnesota","Central"
"13",13,55330,27171,171,27,33460,NA,378,"Minneapolis-St. Paul-Bloomington, MN-WI","Metropolitan Statistical Area",NA,"Minneapolis-St. Paul, MN-WI","Wright County","Minnesota","Central"
"14",14,55330,27003,3,27,33460,NA,378,"Minneapolis-St. Paul-Bloomington, MN-WI","Metropolitan Statistical Area",NA,"Minneapolis-St. Paul, MN-WI","Anoka County","Minnesota","Central"
"15",15,55985,27049,49,27,39860,NA,378,"Red Wing, MN","Micropolitan Statistical Area",NA,"Minneapolis-St. Paul, MN-WI","Goodhue County","Minnesota","Central"
"16",16,55985,27039,39,27,40340,NA,462,"Rochester, MN","Metropolitan Statistical Area",NA,"Rochester-Austin, MN","Dodge County","Minnesota","Outlying"
"17",17,55985,27147,147,27,36940,NA,378,"Owatonna, MN","Micropolitan Statistical Area",NA,"Minneapolis-St. Paul, MN-WI","Steele County","Minnesota","Central"
"18",18,56048,27013,13,27,31860,NA,359,"Mankato, MN","Metropolitan Statistical Area",NA,"Mankato-New Ulm, MN","Blue Earth County","Minnesota","Central"
"19",19,56048,27161,161,27,NA,NA,NA,NA,NA,NA,NA,NA,NA,NA
"20",20,56377,27145,145,27,41060,NA,378,"St. Cloud, MN","Metropolitan Statistical Area",NA,"Minneapolis-St. Paul, MN-WI","Stearns County","Minnesota","Central"
"21",21,56377,27009,9,27,41060,NA,378,"St. Cloud, MN","Metropolitan Statistical Area",NA,"Minneapolis-St. Paul, MN-WI","Benton County","Minnesota","Central"
"22",22,56368,27145,145,27,41060,NA,378,"St. Cloud, MN","Metropolitan Statistical Area",NA,"Minneapolis-St. Paul, MN-WI","Stearns County","Minnesota","Central"
"23",23,56319,27153,153,27,NA,NA,NA,NA,NA,NA,NA,NA,NA,NA
"24",24,56319,27041,41,27,10820,NA,NA,"Alexandria, MN","Micropolitan Statistical Area",NA,NA,"Douglas County","Minnesota","Central"
"25",25,56449,27035,35,27,14660,NA,NA,"Brainerd, MN","Micropolitan Statistical Area",NA,NA,"Crow Wing County","Minnesota","Central"
"26",26,56449,27097,97,27,NA,NA,NA,NA,NA,NA,NA,NA,NA,NA
"27",27,56327,27041,41,27,10820,NA,NA,"Alexandria, MN","Micropolitan Statistical Area",NA,NA,"Douglas County","Minnesota","Central"
"28",28,56327,27121,121,27,NA,NA,NA,NA,NA,NA,NA,NA,NA,NA
"29",29,56183,27101,101,27,NA,NA,NA,NA,NA,NA,NA,NA,NA,NA
"30",30,56183,27033,33,27,NA,NA,NA,NA,NA,NA,NA,NA,NA,NA
"31",31,56150,27063,63,27,NA,NA,NA,NA,NA,NA,NA,NA,NA,NA
"32",32,56529,27027,27,27,22020,NA,244,"Fargo, ND-MN","Metropolitan Statistical Area",NA,"Fargo-Wahpeton, ND-MN","Clay County","Minnesota","Central"
"33",33,56482,27153,153,27,NA,NA,NA,NA,NA,NA,NA,NA,NA,NA
"34",34,56482,27159,159,27,NA,NA,NA,NA,NA,NA,NA,NA,NA,NA
"35",35,56482,27111,111,27,22260,NA,NA,"Fergus Falls, MN","Micropolitan Statistical Area",NA,NA,"Otter Tail County","Minnesota","Central"
"36",36,56587,27111,111,27,22260,NA,NA,"Fergus Falls, MN","Micropolitan Statistical Area",NA,NA,"Otter Tail County","Minnesota","Central"
"37",37,55479,27053,53,27,33460,NA,378,"Minneapolis-St. Paul-Bloomington, MN-WI","Metropolitan Statistical Area",NA,"Minneapolis-St. Paul, MN-WI","Hennepin County","Minnesota","Central"
"38",38,56296,27155,155,27,NA,NA,NA,NA,NA,NA,NA,NA,NA,NA
"39",39,56139,27117,117,27,NA,NA,NA,NA,NA,NA,NA,NA,NA,NA
"40",40,56052,27079,79,27,33460,NA,378,"Minneapolis-St. Paul-Bloomington, MN-WI","Metropolitan Statistical Area",NA,"Minneapolis-St. Paul, MN-WI","Le Sueur County","Minnesota","Outlying"
"41",41,56052,27131,131,27,22060,NA,378,"Faribault-Northfield, MN","Micropolitan Statistical Area",NA,"Minneapolis-St. Paul, MN-WI","Rice County","Minnesota","Central"
"42",42,56255,27127,127,27,NA,NA,NA,NA,NA,NA,NA,NA,NA,NA
"43",43,56637,27061,61,27,24330,NA,NA,"Grand Rapids, MN","Micropolitan Statistical Area",NA,NA,"Itasca County","Minnesota","Central"
"44",44,56035,27147,147,27,36940,NA,378,"Owatonna, MN","Micropolitan Statistical Area",NA,"Minneapolis-St. Paul, MN-WI","Steele County","Minnesota","Central"
"45",45,56035,27047,47,27,10660,NA,NA,"Albert Lea, MN","Micropolitan Statistical Area",NA,NA,"Freeborn County","Minnesota","Central"
"46",46,55417,27053,53,27,33460,NA,378,"Minneapolis-St. Paul-Bloomington, MN-WI","Metropolitan Statistical Area",NA,"Minneapolis-St. Paul, MN-WI","Hennepin County","Minnesota","Central"
"47",47,55803,27137,137,27,20260,NA,NA,"Duluth, MN-WI","Metropolitan Statistical Area",NA,NA,"St. Louis County","Minnesota","Central"
"48",48,55372,27037,37,27,33460,NA,378,"Minneapolis-St. Paul-Bloomington, MN-WI","Metropolitan Statistical Area",NA,"Minneapolis-St. Paul, MN-WI","Dakota County","Minnesota","Central"
"49",49,55372,27139,139,27,33460,NA,378,"Minneapolis-St. Paul-Bloomington, MN-WI","Metropolitan Statistical Area",NA,"Minneapolis-St. Paul, MN-WI","Scott County","Minnesota","Central"
"50",50,55056,27025,25,27,33460,NA,378,"Minneapolis-St. Paul-Bloomington, MN-WI","Metropolitan Statistical Area",NA,"Minneapolis-St. Paul, MN-WI","Chisago County","Minnesota","Outlying"
"51",51,55056,27059,59,27,33460,NA,378,"Minneapolis-St. Paul-Bloomington, MN-WI","Metropolitan Statistical Area",NA,"Minneapolis-St. Paul, MN-WI","Isanti County","Minnesota","Outlying"
"52",52,55127,27123,123,27,33460,NA,378,"Minneapolis-St. Paul-Bloomington, MN-WI","Metropolitan Statistical Area",NA,"Minneapolis-St. Paul, MN-WI","Ramsey County","Minnesota","Central"
"53",53,55315,27019,19,27,33460,NA,378,"Minneapolis-St. Paul-Bloomington, MN-WI","Metropolitan Statistical Area",NA,"Minneapolis-St. Paul, MN-WI","Carver County","Minnesota","Central"
"54",54,56314,27145,145,27,41060,NA,378,"St. Cloud, MN","Metropolitan Statistical Area",NA,"Minneapolis-St. Paul, MN-WI","Stearns County","Minnesota","Central"
"55",55,56314,27097,97,27,NA,NA,NA,NA,NA,NA,NA,NA,NA,NA
"56",56,56178,27083,83,27,32140,NA,NA,"Marshall, MN","Micropolitan Statistical Area",NA,NA,"Lyon County","Minnesota","Central"
"57",57,56178,27081,81,27,NA,NA,NA,NA,NA,NA,NA,NA,NA,NA
"58",58,56121,27091,91,27,21860,NA,NA,"Fairmont, MN","Micropolitan Statistical Area",NA,NA,"Martin County","Minnesota","Central"
"59",59,56137,27105,105,27,49380,NA,NA,"Worthington, MN","Micropolitan Statistical Area",NA,NA,"Nobles County","Minnesota","Central"
"60",60,56137,27033,33,27,NA,NA,NA,NA,NA,NA,NA,NA,NA,NA
"61",61,56137,27063,63,27,NA,NA,NA,NA,NA,NA,NA,NA,NA,NA
"62",62,56225,27011,11,27,NA,NA,NA,NA,NA,NA,NA,NA,NA,NA
"63",63,56544,27005,5,27,NA,NA,NA,NA,NA,NA,NA,NA,NA,NA
"64",64,56544,27111,111,27,22260,NA,NA,"Fergus Falls, MN","Micropolitan Statistical Area",NA,NA,"Otter Tail County","Minnesota","Central"
"65",65,56570,27005,5,27,NA,NA,NA,NA,NA,NA,NA,NA,NA,NA
"66",66,56621,27119,119,27,24220,NA,NA,"Grand Forks, ND-MN","Metropolitan Statistical Area",NA,NA,"Polk County","Minnesota","Central"
"67",67,56621,27087,87,27,NA,NA,NA,NA,NA,NA,NA,NA,NA,NA
"68",68,56621,27029,29,27,NA,NA,NA,NA,NA,NA,NA,NA,NA,NA
"69",69,55370,27085,85,27,26780,NA,378,"Hutchinson, MN","Micropolitan Statistical Area",NA,"Minneapolis-St. Paul, MN-WI","McLeod County","Minnesota","Central"
"70",70,56036,27047,47,27,10660,NA,NA,"Albert Lea, MN","Micropolitan Statistical Area",NA,NA,"Freeborn County","Minnesota","Central"
"71",71,56343,27149,149,27,NA,NA,NA,NA,NA,NA,NA,NA,NA,NA
"72",72,56343,27041,41,27,10820,NA,NA,"Alexandria, MN","Micropolitan Statistical Area",NA,NA,"Douglas County","Minnesota","Central"
"73",73,56343,27121,121,27,NA,NA,NA,NA,NA,NA,NA,NA,NA,NA
"74",74,56128,27101,101,27,NA,NA,NA,NA,NA,NA,NA,NA,NA,NA
"75",75,56128,27117,117,27,NA,NA,NA,NA,NA,NA,NA,NA,NA,NA
"76",76,56128,27105,105,27,49380,NA,NA,"Worthington, MN","Micropolitan Statistical Area",NA,NA,"Nobles County","Minnesota","Central"
"77",77,56128,27133,133,27,NA,NA,NA,NA,NA,NA,NA,NA,NA,NA
"78",78,56276,27011,11,27,NA,NA,NA,NA,NA,NA,NA,NA,NA,NA
"79",79,56276,27073,73,27,NA,NA,NA,NA,NA,NA,NA,NA,NA,NA
"80",80,56054,27143,143,27,NA,NA,NA,NA,NA,NA,NA,NA,NA,NA
"81",81,56054,27103,103,27,31860,NA,359,"Mankato, MN","Metropolitan Statistical Area",NA,"Mankato-New Ulm, MN","Nicollet County","Minnesota","Central"
"82",82,56755,27069,69,27,NA,NA,NA,NA,NA,NA,NA,NA,NA,NA
"83",83,56654,27071,71,27,NA,NA,NA,NA,NA,NA,NA,NA,NA,NA
"84",84,55713,27137,137,27,20260,NA,NA,"Duluth, MN-WI","Metropolitan Statistical Area",NA,NA,"St. Louis County","Minnesota","Central"
"85",85,55487,27053,53,27,33460,NA,378,"Minneapolis-St. Paul-Bloomington, MN-WI","Metropolitan Statistical Area",NA,"Minneapolis-St. Paul, MN-WI","Hennepin County","Minnesota","Central"
"86",86,56333,27009,9,27,41060,NA,378,"St. Cloud, MN","Metropolitan Statistical Area",NA,"Minneapolis-St. Paul, MN-WI","Benton County","Minnesota","Central"
"87",87,55008,27059,59,27,33460,NA,378,"Minneapolis-St. Paul-Bloomington, MN-WI","Metropolitan Statistical Area",NA,"Minneapolis-St. Paul, MN-WI","Isanti County","Minnesota","Outlying"
"88",88,55008,27025,25,27,33460,NA,378,"Minneapolis-St. Paul-Bloomington, MN-WI","Metropolitan Statistical Area",NA,"Minneapolis-St. Paul, MN-WI","Chisago County","Minnesota","Outlying"
"89",89,55425,27053,53,27,33460,NA,378,"Minneapolis-St. Paul-Bloomington, MN-WI","Metropolitan Statistical Area",NA,"Minneapolis-St. Paul, MN-WI","Hennepin County","Minnesota","Central"
"90",90,55808,27137,137,27,20260,NA,NA,"Duluth, MN-WI","Metropolitan Statistical Area",NA,NA,"St. Louis County","Minnesota","Central"
"91",91,55748,27001,1,27,NA,NA,NA,NA,NA,NA,NA,NA,NA,NA
"92",92,55748,27061,61,27,24330,NA,NA,"Grand Rapids, MN","Micropolitan Statistical Area",NA,NA,"Itasca County","Minnesota","Central"
"93",93,55381,27085,85,27,26780,NA,378,"Hutchinson, MN","Micropolitan Statistical Area",NA,"Minneapolis-St. Paul, MN-WI","McLeod County","Minnesota","Central"
"94",94,55381,27171,171,27,33460,NA,378,"Minneapolis-St. Paul-Bloomington, MN-WI","Metropolitan Statistical Area",NA,"Minneapolis-St. Paul, MN-WI","Wright County","Minnesota","Central"
"95",95,55101,27123,123,27,33460,NA,378,"Minneapolis-St. Paul-Bloomington, MN-WI","Metropolitan Statistical Area",NA,"Minneapolis-St. Paul, MN-WI","Ramsey County","Minnesota","Central"
"96",96,55027,27157,157,27,40340,NA,462,"Rochester, MN","Metropolitan Statistical Area",NA,"Rochester-Austin, MN","Wabasha County","Minnesota","Outlying"
"97",97,55027,27049,49,27,39860,NA,378,"Red Wing, MN","Micropolitan Statistical Area",NA,"Minneapolis-St. Paul, MN-WI","Goodhue County","Minnesota","Central"
"98",98,55439,27053,53,27,33460,NA,378,"Minneapolis-St. Paul-Bloomington, MN-WI","Metropolitan Statistical Area",NA,"Minneapolis-St. Paul, MN-WI","Hennepin County","Minnesota","Central"
"99",99,55328,27053,53,27,33460,NA,378,"Minneapolis-St. Paul-Bloomington, MN-WI","Metropolitan Statistical Area",NA,"Minneapolis-St. Paul, MN-WI","Hennepin County","Minnesota","Central"
"100",100,55328,27171,171,27,33460,NA,378,"Minneapolis-St. Paul-Bloomington, MN-WI","Metropolitan Statistical Area",NA,"Minneapolis-St. Paul, MN-WI","Wright County","Minnesota","Central"
"101",101,55328,27019,19,27,33460,NA,378,"Minneapolis-St. Paul-Bloomington, MN-WI","Metropolitan Statistical Area",NA,"Minneapolis-St. Paul, MN-WI","Carver County","Minnesota","Central"
"102",102,56031,27091,91,27,21860,NA,NA,"Fairmont, MN","Micropolitan Statistical Area",NA,NA,"Martin County","Minnesota","Central"
"103",103,55977,27099,99,27,12380,NA,462,"Austin, MN","Micropolitan Statistical Area",NA,"Rochester-Austin, MN","Mower County","Minnesota","Central"
"104",104,56014,27043,43,27,NA,NA,NA,NA,NA,NA,NA,NA,NA,NA
"105",105,56021,27103,103,27,31860,NA,359,"Mankato, MN","Metropolitan Statistical Area",NA,"Mankato-New Ulm, MN","Nicollet County","Minnesota","Central"
"106",106,56443,27153,153,27,NA,NA,NA,NA,NA,NA,NA,NA,NA,NA
"107",107,56443,27097,97,27,NA,NA,NA,NA,NA,NA,NA,NA,NA,NA
"108",108,56258,27083,83,27,32140,NA,NA,"Marshall, MN","Micropolitan Statistical Area",NA,NA,"Lyon County","Minnesota","Central"
"109",109,56258,27127,127,27,NA,NA,NA,NA,NA,NA,NA,NA,NA,NA
"110",110,56271,27023,23,27,NA,NA,NA,NA,NA,NA,NA,NA,NA,NA
"111",111,56271,27151,151,27,NA,NA,NA,NA,NA,NA,NA,NA,NA,NA
"112",112,56289,27121,121,27,NA,NA,NA,NA,NA,NA,NA,NA,NA,NA
"113",113,56289,27151,151,27,NA,NA,NA,NA,NA,NA,NA,NA,NA,NA
"114",114,56289,27067,67,27,48820,NA,NA,"Willmar, MN","Micropolitan Statistical Area",NA,NA,"Kandiyohi County","Minnesota","Central"
"115",115,56291,27081,81,27,NA,NA,NA,NA,NA,NA,NA,NA,NA,NA
"116",116,56291,27083,83,27,32140,NA,NA,"Marshall, MN","Micropolitan Statistical Area",NA,NA,"Lyon County","Minnesota","Central"
"117",117,56291,27173,173,27,NA,NA,NA,NA,NA,NA,NA,NA,NA,NA
"118",118,56477,27159,159,27,NA,NA,NA,NA,NA,NA,NA,NA,NA,NA
"119",119,56477,27021,21,27,14660,NA,NA,"Brainerd, MN","Micropolitan Statistical Area",NA,NA,"Cass County","Minnesota","Outlying"
"120",120,56477,27005,5,27,NA,NA,NA,NA,NA,NA,NA,NA,NA,NA
"121",121,56477,27111,111,27,22260,NA,NA,"Fergus Falls, MN","Micropolitan Statistical Area",NA,NA,"Otter Tail County","Minnesota","Central"
"122",122,56571,27111,111,27,22260,NA,NA,"Fergus Falls, MN","Micropolitan Statistical Area",NA,NA,"Otter Tail County","Minnesota","Central"
"123",123,56672,27021,21,27,14660,NA,NA,"Brainerd, MN","Micropolitan Statistical Area",NA,NA,"Cass County","Minnesota","Outlying"
"124",124,56660,27071,71,27,NA,NA,NA,NA,NA,NA,NA,NA,NA,NA
"125",125,55919,27055,55,27,29100,NA,NA,"La Crosse-Onalaska, WI-MN","Metropolitan Statistical Area",NA,NA,"Houston County","Minnesota","Central"
"126",126,55354,27085,85,27,26780,NA,378,"Hutchinson, MN","Micropolitan Statistical Area",NA,"Minneapolis-St. Paul, MN-WI","McLeod County","Minnesota","Central"
"127",127,56641,27021,21,27,14660,NA,NA,"Brainerd, MN","Micropolitan Statistical Area",NA,NA,"Cass County","Minnesota","Outlying"
"128",128,55054,27139,139,27,33460,NA,378,"Minneapolis-St. Paul-Bloomington, MN-WI","Metropolitan Statistical Area",NA,"Minneapolis-St. Paul, MN-WI","Scott County","Minnesota","Central"
"129",129,55602,27075,75,27,20260,NA,NA,"Duluth, MN-WI","Metropolitan Statistical Area",NA,NA,"Lake County","Minnesota","Outlying"
"130",130,55602,27137,137,27,20260,NA,NA,"Duluth, MN-WI","Metropolitan Statistical Area",NA,NA,"St. Louis County","Minnesota","Central"
"131",131,56552,27005,5,27,NA,NA,NA,NA,NA,NA,NA,NA,NA,NA
"132",132,56552,27027,27,27,22020,NA,244,"Fargo, ND-MN","Metropolitan Statistical Area",NA,"Fargo-Wahpeton, ND-MN","Clay County","Minnesota","Central"
"133",133,56174,27033,33,27,NA,NA,NA,NA,NA,NA,NA,NA,NA,NA
"134",134,55085,27037,37,27,33460,NA,378,"Minneapolis-St. Paul-Bloomington, MN-WI","Metropolitan Statistical Area",NA,"Minneapolis-St. Paul, MN-WI","Dakota County","Minnesota","Central"
"135",135,55982,27039,39,27,40340,NA,462,"Rochester, MN","Metropolitan Statistical Area",NA,"Rochester-Austin, MN","Dodge County","Minnesota","Outlying"
"136",136,55982,27099,99,27,12380,NA,462,"Austin, MN","Micropolitan Statistical Area",NA,"Rochester-Austin, MN","Mower County","Minnesota","Central"
"137",137,56166,27033,33,27,NA,NA,NA,NA,NA,NA,NA,NA,NA,NA
"138",138,56166,27127,127,27,NA,NA,NA,NA,NA,NA,NA,NA,NA,NA
"139",139,56125,27101,101,27,NA,NA,NA,NA,NA,NA,NA,NA,NA,NA
"140",140,56562,27027,27,27,22020,NA,244,"Fargo, ND-MN","Metropolitan Statistical Area",NA,"Fargo-Wahpeton, ND-MN","Clay County","Minnesota","Central"
"141",141,55410,27053,53,27,33460,NA,378,"Minneapolis-St. Paul-Bloomington, MN-WI","Metropolitan Statistical Area",NA,"Minneapolis-St. Paul, MN-WI","Hennepin County","Minnesota","Central"
"142",142,55369,27053,53,27,33460,NA,378,"Minneapolis-St. Paul-Bloomington, MN-WI","Metropolitan Statistical Area",NA,"Minneapolis-St. Paul, MN-WI","Hennepin County","Minnesota","Central"
"143",143,55346,27053,53,27,33460,NA,378,"Minneapolis-St. Paul-Bloomington, MN-WI","Metropolitan Statistical Area",NA,"Minneapolis-St. Paul, MN-WI","Hennepin County","Minnesota","Central"
"144",144,55343,27053,53,27,33460,NA,378,"Minneapolis-St. Paul-Bloomington, MN-WI","Metropolitan Statistical Area",NA,"Minneapolis-St. Paul, MN-WI","Hennepin County","Minnesota","Central"
"145",145,55117,27123,123,27,33460,NA,378,"Minneapolis-St. Paul-Bloomington, MN-WI","Metropolitan Statistical Area",NA,"Minneapolis-St. Paul, MN-WI","Ramsey County","Minnesota","Central"
"146",146,55441,27053,53,27,33460,NA,378,"Minneapolis-St. Paul-Bloomington, MN-WI","Metropolitan Statistical Area",NA,"Minneapolis-St. Paul, MN-WI","Hennepin County","Minnesota","Central"
"147",147,55447,27053,53,27,33460,NA,378,"Minneapolis-St. Paul-Bloomington, MN-WI","Metropolitan Statistical Area",NA,"Minneapolis-St. Paul, MN-WI","Hennepin County","Minnesota","Central"
"148",148,55992,27049,49,27,39860,NA,378,"Red Wing, MN","Micropolitan Statistical Area",NA,"Minneapolis-St. Paul, MN-WI","Goodhue County","Minnesota","Central"
"149",149,55947,27055,55,27,29100,NA,NA,"La Crosse-Onalaska, WI-MN","Metropolitan Statistical Area",NA,NA,"Houston County","Minnesota","Central"
"150",150,55947,27169,169,27,49100,NA,NA,"Winona, MN","Micropolitan Statistical Area",NA,NA,"Winona County","Minnesota","Central"
"151",151,55959,27169,169,27,49100,NA,NA,"Winona, MN","Micropolitan Statistical Area",NA,NA,"Winona County","Minnesota","Central"
"152",152,56085,27127,127,27,NA,NA,NA,NA,NA,NA,NA,NA,NA,NA
"153",153,56085,27015,15,27,35580,NA,359,"New Ulm, MN","Micropolitan Statistical Area",NA,"Mankato-New Ulm, MN","Brown County","Minnesota","Central"
"154",154,56082,27103,103,27,31860,NA,359,"Mankato, MN","Metropolitan Statistical Area",NA,"Mankato-New Ulm, MN","Nicollet County","Minnesota","Central"
"155",155,56082,27079,79,27,33460,NA,378,"Minneapolis-St. Paul-Bloomington, MN-WI","Metropolitan Statistical Area",NA,"Minneapolis-St. Paul, MN-WI","Le Sueur County","Minnesota","Outlying"
"156",156,56262,27151,151,27,NA,NA,NA,NA,NA,NA,NA,NA,NA,NA
"157",157,56262,27023,23,27,NA,NA,NA,NA,NA,NA,NA,NA,NA,NA
"158",158,56134,27133,133,27,NA,NA,NA,NA,NA,NA,NA,NA,NA,NA
"159",159,56474,27035,35,27,14660,NA,NA,"Brainerd, MN","Micropolitan Statistical Area",NA,NA,"Crow Wing County","Minnesota","Central"
"160",160,56474,27021,21,27,14660,NA,NA,"Brainerd, MN","Micropolitan Statistical Area",NA,NA,"Cass County","Minnesota","Outlying"
"161",161,56545,27107,107,27,NA,NA,NA,NA,NA,NA,NA,NA,NA,NA
"162",162,56623,27071,71,27,NA,NA,NA,NA,NA,NA,NA,NA,NA,NA
"163",163,56623,27077,77,27,NA,NA,NA,NA,NA,NA,NA,NA,NA,NA
"164",164,56556,27119,119,27,24220,NA,NA,"Grand Forks, ND-MN","Metropolitan Statistical Area",NA,NA,"Polk County","Minnesota","Central"
"165",165,55712,27115,115,27,NA,NA,NA,NA,NA,NA,NA,NA,NA,NA
"166",166,56083,27015,15,27,35580,NA,359,"New Ulm, MN","Micropolitan Statistical Area",NA,"Mankato-New Ulm, MN","Brown County","Minnesota","Central"
"167",167,56083,27033,33,27,NA,NA,NA,NA,NA,NA,NA,NA,NA,NA
"168",168,56083,27127,127,27,NA,NA,NA,NA,NA,NA,NA,NA,NA,NA
"169",169,56212,27073,73,27,NA,NA,NA,NA,NA,NA,NA,NA,NA,NA
"170",170,55605,27031,31,27,NA,NA,NA,NA,NA,NA,NA,NA,NA,NA
"171",171,56089,27047,47,27,10660,NA,NA,"Albert Lea, MN","Micropolitan Statistical Area",NA,NA,"Freeborn County","Minnesota","Central"
"172",172,56720,27069,69,27,NA,NA,NA,NA,NA,NA,NA,NA,NA,NA
"173",173,55467,27053,53,27,33460,NA,378,"Minneapolis-St. Paul-Bloomington, MN-WI","Metropolitan Statistical Area",NA,"Minneapolis-St. Paul, MN-WI","Hennepin County","Minnesota","Central"
"174",174,56371,27145,145,27,41060,NA,378,"St. Cloud, MN","Metropolitan Statistical Area",NA,"Minneapolis-St. Paul, MN-WI","Stearns County","Minnesota","Central"
"175",175,55361,27053,53,27,33460,NA,378,"Minneapolis-St. Paul-Bloomington, MN-WI","Metropolitan Statistical Area",NA,"Minneapolis-St. Paul, MN-WI","Hennepin County","Minnesota","Central"
"176",176,55010,27037,37,27,33460,NA,378,"Minneapolis-St. Paul-Bloomington, MN-WI","Metropolitan Statistical Area",NA,"Minneapolis-St. Paul, MN-WI","Dakota County","Minnesota","Central"
"177",177,56670,27007,7,27,13420,NA,NA,"Bemidji, MN","Micropolitan Statistical Area",NA,NA,"Beltrami County","Minnesota","Central"
"178",178,55769,27137,137,27,20260,NA,NA,"Duluth, MN-WI","Metropolitan Statistical Area",NA,NA,"St. Louis County","Minnesota","Central"
"179",179,55769,27061,61,27,24330,NA,NA,"Grand Rapids, MN","Micropolitan Statistical Area",NA,NA,"Itasca County","Minnesota","Central"
"180",180,55923,27109,109,27,40340,NA,462,"Rochester, MN","Metropolitan Statistical Area",NA,"Rochester-Austin, MN","Olmsted County","Minnesota","Central"
"181",181,55923,27045,45,27,40340,NA,462,"Rochester, MN","Metropolitan Statistical Area",NA,"Rochester-Austin, MN","Fillmore County","Minnesota","Outlying"
"182",182,55923,27169,169,27,49100,NA,NA,"Winona, MN","Micropolitan Statistical Area",NA,NA,"Winona County","Minnesota","Central"
"183",183,55927,27039,39,27,40340,NA,462,"Rochester, MN","Metropolitan Statistical Area",NA,"Rochester-Austin, MN","Dodge County","Minnesota","Outlying"
"184",184,55736,27137,137,27,20260,NA,NA,"Duluth, MN-WI","Metropolitan Statistical Area",NA,NA,"St. Louis County","Minnesota","Central"
"185",185,55736,27061,61,27,24330,NA,NA,"Grand Rapids, MN","Micropolitan Statistical Area",NA,NA,"Itasca County","Minnesota","Central"
"186",186,55736,27017,17,27,20260,NA,NA,"Duluth, MN-WI","Metropolitan Statistical Area",NA,NA,"Carlton County","Minnesota","Outlying"
"187",187,55347,27053,53,27,33460,NA,378,"Minneapolis-St. Paul-Bloomington, MN-WI","Metropolitan Statistical Area",NA,"Minneapolis-St. Paul, MN-WI","Hennepin County","Minnesota","Central"
"188",188,55105,27123,123,27,33460,NA,378,"Minneapolis-St. Paul-Bloomington, MN-WI","Metropolitan Statistical Area",NA,"Minneapolis-St. Paul, MN-WI","Ramsey County","Minnesota","Central"
"189",189,55074,27025,25,27,33460,NA,378,"Minneapolis-St. Paul-Bloomington, MN-WI","Metropolitan Statistical Area",NA,"Minneapolis-St. Paul, MN-WI","Chisago County","Minnesota","Outlying"
"190",190,55036,27115,115,27,NA,NA,NA,NA,NA,NA,NA,NA,NA,NA
"191",191,55987,27169,169,27,49100,NA,NA,"Winona, MN","Micropolitan Statistical Area",NA,NA,"Winona County","Minnesota","Central"
"192",192,55961,27099,99,27,12380,NA,462,"Austin, MN","Micropolitan Statistical Area",NA,"Rochester-Austin, MN","Mower County","Minnesota","Central"
"193",193,55961,27045,45,27,40340,NA,462,"Rochester, MN","Metropolitan Statistical Area",NA,"Rochester-Austin, MN","Fillmore County","Minnesota","Outlying"
"194",194,55969,27169,169,27,49100,NA,NA,"Winona, MN","Micropolitan Statistical Area",NA,NA,"Winona County","Minnesota","Central"
"195",195,55991,27109,109,27,40340,NA,462,"Rochester, MN","Metropolitan Statistical Area",NA,"Rochester-Austin, MN","Olmsted County","Minnesota","Central"
"196",196,55991,27157,157,27,40340,NA,462,"Rochester, MN","Metropolitan Statistical Area",NA,"Rochester-Austin, MN","Wabasha County","Minnesota","Outlying"
"197",197,56050,27079,79,27,33460,NA,378,"Minneapolis-St. Paul-Bloomington, MN-WI","Metropolitan Statistical Area",NA,"Minneapolis-St. Paul, MN-WI","Le Sueur County","Minnesota","Outlying"
"198",198,56050,27013,13,27,31860,NA,359,"Mankato, MN","Metropolitan Statistical Area",NA,"Mankato-New Ulm, MN","Blue Earth County","Minnesota","Central"
"199",199,56716,27125,125,27,NA,NA,NA,NA,NA,NA,NA,NA,NA,NA
"200",200,56716,27119,119,27,24220,NA,NA,"Grand Forks, ND-MN","Metropolitan Statistical Area",NA,NA,"Polk County","Minnesota","Central"
"201",201,56461,27057,57,27,NA,NA,NA,NA,NA,NA,NA,NA,NA,NA
"202",202,56461,27021,21,27,14660,NA,NA,"Brainerd, MN","Micropolitan Statistical Area",NA,NA,"Cass County","Minnesota","Outlying"
"203",203,56131,27101,101,27,NA,NA,NA,NA,NA,NA,NA,NA,NA,NA
"204",204,56131,27063,63,27,NA,NA,NA,NA,NA,NA,NA,NA,NA,NA
"205",205,56131,27033,33,27,NA,NA,NA,NA,NA,NA,NA,NA,NA,NA
"206",206,56131,27105,105,27,49380,NA,NA,"Worthington, MN","Micropolitan Statistical Area",NA,NA,"Nobles County","Minnesota","Central"
"207",207,56277,27067,67,27,48820,NA,NA,"Willmar, MN","Micropolitan Statistical Area",NA,NA,"Kandiyohi County","Minnesota","Central"
"208",208,56277,27129,129,27,NA,NA,NA,NA,NA,NA,NA,NA,NA,NA
"209",209,55733,27017,17,27,20260,NA,NA,"Duluth, MN-WI","Metropolitan Statistical Area",NA,NA,"Carlton County","Minnesota","Outlying"
"210",210,55733,27137,137,27,20260,NA,NA,"Duluth, MN-WI","Metropolitan Statistical Area",NA,NA,"St. Louis County","Minnesota","Central"
"211",211,56019,27015,15,27,35580,NA,359,"New Ulm, MN","Micropolitan Statistical Area",NA,"Mankato-New Ulm, MN","Brown County","Minnesota","Central"
"212",212,56019,27165,165,27,NA,NA,NA,NA,NA,NA,NA,NA,NA,NA
"213",213,56019,27033,33,27,NA,NA,NA,NA,NA,NA,NA,NA,NA,NA
"214",214,56434,27159,159,27,NA,NA,NA,NA,NA,NA,NA,NA,NA,NA
"215",215,56434,27153,153,27,NA,NA,NA,NA,NA,NA,NA,NA,NA,NA
"216",216,56358,27095,95,27,33460,NA,378,"Minneapolis-St. Paul-Bloomington, MN-WI","Metropolitan Statistical Area",NA,"Minneapolis-St. Paul, MN-WI","Mille Lacs County","Minnesota","Outlying"
"217",217,56358,27059,59,27,33460,NA,378,"Minneapolis-St. Paul-Bloomington, MN-WI","Metropolitan Statistical Area",NA,"Minneapolis-St. Paul, MN-WI","Isanti County","Minnesota","Outlying"
"218",218,56358,27065,65,27,NA,NA,NA,NA,NA,NA,NA,NA,NA,NA
"219",219,56302,27145,145,27,41060,NA,378,"St. Cloud, MN","Metropolitan Statistical Area",NA,"Minneapolis-St. Paul, MN-WI","Stearns County","Minnesota","Central"
"220",220,56181,27091,91,27,21860,NA,NA,"Fairmont, MN","Micropolitan Statistical Area",NA,NA,"Martin County","Minnesota","Central"
"221",221,56520,27167,167,27,47420,NA,244,"Wahpeton, ND-MN","Micropolitan Statistical Area",NA,"Fargo-Wahpeton, ND-MN","Wilkin County","Minnesota","Outlying"
"222",222,56581,27107,107,27,NA,NA,NA,NA,NA,NA,NA,NA,NA,NA
"223",223,56386,27095,95,27,33460,NA,378,"Minneapolis-St. Paul-Bloomington, MN-WI","Metropolitan Statistical Area",NA,"Minneapolis-St. Paul, MN-WI","Mille Lacs County","Minnesota","Outlying"
"224",224,56525,27027,27,27,22020,NA,244,"Fargo, ND-MN","Metropolitan Statistical Area",NA,"Fargo-Wahpeton, ND-MN","Clay County","Minnesota","Central"
"225",225,55724,27137,137,27,20260,NA,NA,"Duluth, MN-WI","Metropolitan Statistical Area",NA,NA,"St. Louis County","Minnesota","Central"
"226",226,56591,27005,5,27,NA,NA,NA,NA,NA,NA,NA,NA,NA,NA
"227",227,56047,27043,43,27,NA,NA,NA,NA,NA,NA,NA,NA,NA,NA
"228",228,55791,27137,137,27,20260,NA,NA,"Duluth, MN-WI","Metropolitan Statistical Area",NA,NA,"St. Louis County","Minnesota","Central"
"229",229,55406,27053,53,27,33460,NA,378,"Minneapolis-St. Paul-Bloomington, MN-WI","Metropolitan Statistical Area",NA,"Minneapolis-St. Paul, MN-WI","Hennepin County","Minnesota","Central"
"230",230,55409,27053,53,27,33460,NA,378,"Minneapolis-St. Paul-Bloomington, MN-WI","Metropolitan Statistical Area",NA,"Minneapolis-St. Paul, MN-WI","Hennepin County","Minnesota","Central"
"231",231,55734,27137,137,27,20260,NA,NA,"Duluth, MN-WI","Metropolitan Statistical Area",NA,NA,"St. Louis County","Minnesota","Central"
"232",232,55360,27019,19,27,33460,NA,378,"Minneapolis-St. Paul-Bloomington, MN-WI","Metropolitan Statistical Area",NA,"Minneapolis-St. Paul, MN-WI","Carver County","Minnesota","Central"
"233",233,55340,27053,53,27,33460,NA,378,"Minneapolis-St. Paul-Bloomington, MN-WI","Metropolitan Statistical Area",NA,"Minneapolis-St. Paul, MN-WI","Hennepin County","Minnesota","Central"
"234",234,55080,27025,25,27,33460,NA,378,"Minneapolis-St. Paul-Bloomington, MN-WI","Metropolitan Statistical Area",NA,"Minneapolis-St. Paul, MN-WI","Chisago County","Minnesota","Outlying"
"235",235,55080,27059,59,27,33460,NA,378,"Minneapolis-St. Paul-Bloomington, MN-WI","Metropolitan Statistical Area",NA,"Minneapolis-St. Paul, MN-WI","Isanti County","Minnesota","Outlying"
"236",236,55040,27059,59,27,33460,NA,378,"Minneapolis-St. Paul-Bloomington, MN-WI","Metropolitan Statistical Area",NA,"Minneapolis-St. Paul, MN-WI","Isanti County","Minnesota","Outlying"
"237",237,55040,27003,3,27,33460,NA,378,"Minneapolis-St. Paul-Bloomington, MN-WI","Metropolitan Statistical Area",NA,"Minneapolis-St. Paul, MN-WI","Anoka County","Minnesota","Central"
"238",238,55043,27163,163,27,33460,NA,378,"Minneapolis-St. Paul-Bloomington, MN-WI","Metropolitan Statistical Area",NA,"Minneapolis-St. Paul, MN-WI","Washington County","Minnesota","Central"
"239",239,55044,27037,37,27,33460,NA,378,"Minneapolis-St. Paul-Bloomington, MN-WI","Metropolitan Statistical Area",NA,"Minneapolis-St. Paul, MN-WI","Dakota County","Minnesota","Central"
"240",240,55044,27139,139,27,33460,NA,378,"Minneapolis-St. Paul-Bloomington, MN-WI","Metropolitan Statistical Area",NA,"Minneapolis-St. Paul, MN-WI","Scott County","Minnesota","Central"
"241",241,55021,27147,147,27,36940,NA,378,"Owatonna, MN","Micropolitan Statistical Area",NA,"Minneapolis-St. Paul, MN-WI","Steele County","Minnesota","Central"
"242",242,55021,27131,131,27,22060,NA,378,"Faribault-Northfield, MN","Micropolitan Statistical Area",NA,"Minneapolis-St. Paul, MN-WI","Rice County","Minnesota","Central"
"243",243,55431,27053,53,27,33460,NA,378,"Minneapolis-St. Paul-Bloomington, MN-WI","Metropolitan Statistical Area",NA,"Minneapolis-St. Paul, MN-WI","Hennepin County","Minnesota","Central"
"244",244,55446,27053,53,27,33460,NA,378,"Minneapolis-St. Paul-Bloomington, MN-WI","Metropolitan Statistical Area",NA,"Minneapolis-St. Paul, MN-WI","Hennepin County","Minnesota","Central"
"245",245,55321,27171,171,27,33460,NA,378,"Minneapolis-St. Paul-Bloomington, MN-WI","Metropolitan Statistical Area",NA,"Minneapolis-St. Paul, MN-WI","Wright County","Minnesota","Central"
"246",246,55321,27085,85,27,26780,NA,378,"Hutchinson, MN","Micropolitan Statistical Area",NA,"Minneapolis-St. Paul, MN-WI","McLeod County","Minnesota","Central"
"247",247,55321,27093,93,27,NA,NA,NA,NA,NA,NA,NA,NA,NA,NA
"248",248,56069,27079,79,27,33460,NA,378,"Minneapolis-St. Paul-Bloomington, MN-WI","Metropolitan Statistical Area",NA,"Minneapolis-St. Paul, MN-WI","Le Sueur County","Minnesota","Outlying"
"249",249,56069,27131,131,27,22060,NA,378,"Faribault-Northfield, MN","Micropolitan Statistical Area",NA,"Minneapolis-St. Paul, MN-WI","Rice County","Minnesota","Central"
"250",250,56734,27069,69,27,NA,NA,NA,NA,NA,NA,NA,NA,NA,NA
"251",251,56728,27069,69,27,NA,NA,NA,NA,NA,NA,NA,NA,NA,NA
"252",252,56373,27009,9,27,41060,NA,378,"St. Cloud, MN","Metropolitan Statistical Area",NA,"Minneapolis-St. Paul, MN-WI","Benton County","Minnesota","Central"
"253",253,56373,27097,97,27,NA,NA,NA,NA,NA,NA,NA,NA,NA,NA
"254",254,56164,27081,81,27,NA,NA,NA,NA,NA,NA,NA,NA,NA,NA
"255",255,56164,27117,117,27,NA,NA,NA,NA,NA,NA,NA,NA,NA,NA
"256",256,56303,27009,9,27,41060,NA,378,"St. Cloud, MN","Metropolitan Statistical Area",NA,"Minneapolis-St. Paul, MN-WI","Benton County","Minnesota","Central"
"257",257,56303,27145,145,27,41060,NA,378,"St. Cloud, MN","Metropolitan Statistical Area",NA,"Minneapolis-St. Paul, MN-WI","Stearns County","Minnesota","Central"
"258",258,56119,27105,105,27,49380,NA,NA,"Worthington, MN","Micropolitan Statistical Area",NA,NA,"Nobles County","Minnesota","Central"
"259",259,56119,27063,63,27,NA,NA,NA,NA,NA,NA,NA,NA,NA,NA
"260",260,56575,27005,5,27,NA,NA,NA,NA,NA,NA,NA,NA,NA,NA
"261",261,55007,27065,65,27,NA,NA,NA,NA,NA,NA,NA,NA,NA,NA
"262",262,55007,27115,115,27,NA,NA,NA,NA,NA,NA,NA,NA,NA,NA
"263",263,55312,27143,143,27,NA,NA,NA,NA,NA,NA,NA,NA,NA,NA
"264",264,55312,27085,85,27,26780,NA,378,"Hutchinson, MN","Micropolitan Statistical Area",NA,"Minneapolis-St. Paul, MN-WI","McLeod County","Minnesota","Central"
"265",265,55973,27109,109,27,40340,NA,462,"Rochester, MN","Metropolitan Statistical Area",NA,"Rochester-Austin, MN","Olmsted County","Minnesota","Central"
"266",266,55973,27039,39,27,40340,NA,462,"Rochester, MN","Metropolitan Statistical Area",NA,"Rochester-Austin, MN","Dodge County","Minnesota","Outlying"
"267",267,55973,27099,99,27,12380,NA,462,"Austin, MN","Micropolitan Statistical Area",NA,"Rochester-Austin, MN","Mower County","Minnesota","Central"
"268",268,55957,27157,157,27,40340,NA,462,"Rochester, MN","Metropolitan Statistical Area",NA,"Rochester-Austin, MN","Wabasha County","Minnesota","Outlying"
"269",269,55816,27137,137,27,20260,NA,NA,"Duluth, MN-WI","Metropolitan Statistical Area",NA,NA,"St. Louis County","Minnesota","Central"
"270",270,56185,27101,101,27,NA,NA,NA,NA,NA,NA,NA,NA,NA,NA
"271",271,56185,27105,105,27,49380,NA,NA,"Worthington, MN","Micropolitan Statistical Area",NA,NA,"Nobles County","Minnesota","Central"
"272",272,56020,27047,47,27,10660,NA,NA,"Albert Lea, MN","Micropolitan Statistical Area",NA,NA,"Freeborn County","Minnesota","Central"
"273",273,55411,27053,53,27,33460,NA,378,"Minneapolis-St. Paul-Bloomington, MN-WI","Metropolitan Statistical Area",NA,"Minneapolis-St. Paul, MN-WI","Hennepin County","Minnesota","Central"
"274",274,55421,27123,123,27,33460,NA,378,"Minneapolis-St. Paul-Bloomington, MN-WI","Metropolitan Statistical Area",NA,"Minneapolis-St. Paul, MN-WI","Ramsey County","Minnesota","Central"
"275",275,55421,27053,53,27,33460,NA,378,"Minneapolis-St. Paul-Bloomington, MN-WI","Metropolitan Statistical Area",NA,"Minneapolis-St. Paul, MN-WI","Hennepin County","Minnesota","Central"
"276",276,55421,27003,3,27,33460,NA,378,"Minneapolis-St. Paul-Bloomington, MN-WI","Metropolitan Statistical Area",NA,"Minneapolis-St. Paul, MN-WI","Anoka County","Minnesota","Central"
"277",277,55402,27053,53,27,33460,NA,378,"Minneapolis-St. Paul-Bloomington, MN-WI","Metropolitan Statistical Area",NA,"Minneapolis-St. Paul, MN-WI","Hennepin County","Minnesota","Central"
"278",278,55356,27053,53,27,33460,NA,378,"Minneapolis-St. Paul-Bloomington, MN-WI","Metropolitan Statistical Area",NA,"Minneapolis-St. Paul, MN-WI","Hennepin County","Minnesota","Central"
"279",279,55391,27053,53,27,33460,NA,378,"Minneapolis-St. Paul-Bloomington, MN-WI","Metropolitan Statistical Area",NA,"Minneapolis-St. Paul, MN-WI","Hennepin County","Minnesota","Central"
"280",280,55116,27123,123,27,33460,NA,378,"Minneapolis-St. Paul-Bloomington, MN-WI","Metropolitan Statistical Area",NA,"Minneapolis-St. Paul, MN-WI","Ramsey County","Minnesota","Central"
"281",281,55122,27037,37,27,33460,NA,378,"Minneapolis-St. Paul-Bloomington, MN-WI","Metropolitan Statistical Area",NA,"Minneapolis-St. Paul, MN-WI","Dakota County","Minnesota","Central"
"282",282,55433,27003,3,27,33460,NA,378,"Minneapolis-St. Paul-Bloomington, MN-WI","Metropolitan Statistical Area",NA,"Minneapolis-St. Paul, MN-WI","Anoka County","Minnesota","Central"
"283",283,55429,27053,53,27,33460,NA,378,"Minneapolis-St. Paul-Bloomington, MN-WI","Metropolitan Statistical Area",NA,"Minneapolis-St. Paul, MN-WI","Hennepin County","Minnesota","Central"
"284",284,55308,27141,141,27,33460,NA,378,"Minneapolis-St. Paul-Bloomington, MN-WI","Metropolitan Statistical Area",NA,"Minneapolis-St. Paul, MN-WI","Sherburne County","Minnesota","Central"
"285",285,56001,27013,13,27,31860,NA,359,"Mankato, MN","Metropolitan Statistical Area",NA,"Mankato-New Ulm, MN","Blue Earth County","Minnesota","Central"
"286",286,56001,27103,103,27,31860,NA,359,"Mankato, MN","Metropolitan Statistical Area",NA,"Mankato-New Ulm, MN","Nicollet County","Minnesota","Central"
"287",287,56073,27103,103,27,31860,NA,359,"Mankato, MN","Metropolitan Statistical Area",NA,"Mankato-New Ulm, MN","Nicollet County","Minnesota","Central"
"288",288,56073,27015,15,27,35580,NA,359,"New Ulm, MN","Micropolitan Statistical Area",NA,"Mankato-New Ulm, MN","Brown County","Minnesota","Central"
"289",289,56073,27013,13,27,31860,NA,359,"Mankato, MN","Metropolitan Statistical Area",NA,"Mankato-New Ulm, MN","Blue Earth County","Minnesota","Central"
"290",290,56042,27147,147,27,36940,NA,378,"Owatonna, MN","Micropolitan Statistical Area",NA,"Minneapolis-St. Paul, MN-WI","Steele County","Minnesota","Central"
"291",291,56042,27161,161,27,NA,NA,NA,NA,NA,NA,NA,NA,NA,NA
"292",292,56042,27047,47,27,10660,NA,NA,"Albert Lea, MN","Micropolitan Statistical Area",NA,NA,"Freeborn County","Minnesota","Central"
"293",293,56721,27119,119,27,24220,NA,NA,"Grand Forks, ND-MN","Metropolitan Statistical Area",NA,NA,"Polk County","Minnesota","Central"
"294",294,56681,27061,61,27,24330,NA,NA,"Grand Rapids, MN","Micropolitan Statistical Area",NA,NA,"Itasca County","Minnesota","Central"
"295",295,56684,27119,119,27,24220,NA,NA,"Grand Forks, ND-MN","Metropolitan Statistical Area",NA,NA,"Polk County","Minnesota","Central"
"296",296,56334,27041,41,27,10820,NA,NA,"Alexandria, MN","Micropolitan Statistical Area",NA,NA,"Douglas County","Minnesota","Central"
"297",297,56334,27121,121,27,NA,NA,NA,NA,NA,NA,NA,NA,NA,NA
"298",298,56385,27145,145,27,41060,NA,378,"St. Cloud, MN","Metropolitan Statistical Area",NA,"Minneapolis-St. Paul, MN-WI","Stearns County","Minnesota","Central"
"299",299,56385,27121,121,27,NA,NA,NA,NA,NA,NA,NA,NA,NA,NA
"300",300,56385,27041,41,27,10820,NA,NA,"Alexandria, MN","Micropolitan Statistical Area",NA,NA,"Douglas County","Minnesota","Central"
"301",301,56387,27145,145,27,41060,NA,378,"St. Cloud, MN","Metropolitan Statistical Area",NA,"Minneapolis-St. Paul, MN-WI","Stearns County","Minnesota","Central"
"302",302,56387,27009,9,27,41060,NA,378,"St. Cloud, MN","Metropolitan Statistical Area",NA,"Minneapolis-St. Paul, MN-WI","Benton County","Minnesota","Central"
"303",303,56433,27057,57,27,NA,NA,NA,NA,NA,NA,NA,NA,NA,NA
"304",304,56433,27021,21,27,14660,NA,NA,"Brainerd, MN","Micropolitan Statistical Area",NA,NA,"Cass County","Minnesota","Outlying"
"305",305,56435,27057,57,27,NA,NA,NA,NA,NA,NA,NA,NA,NA,NA
"306",306,56435,27021,21,27,14660,NA,NA,"Brainerd, MN","Micropolitan Statistical Area",NA,NA,"Cass County","Minnesota","Outlying"
"307",307,56435,27035,35,27,14660,NA,NA,"Brainerd, MN","Micropolitan Statistical Area",NA,NA,"Crow Wing County","Minnesota","Central"
"308",308,56465,27035,35,27,14660,NA,NA,"Brainerd, MN","Micropolitan Statistical Area",NA,NA,"Crow Wing County","Minnesota","Central"
"309",309,56338,27095,95,27,33460,NA,378,"Minneapolis-St. Paul-Bloomington, MN-WI","Metropolitan Statistical Area",NA,"Minneapolis-St. Paul, MN-WI","Mille Lacs County","Minnesota","Outlying"
"310",310,56338,27097,97,27,NA,NA,NA,NA,NA,NA,NA,NA,NA,NA
"311",311,56338,27035,35,27,14660,NA,NA,"Brainerd, MN","Micropolitan Statistical Area",NA,NA,"Crow Wing County","Minnesota","Central"
"312",312,56220,27083,83,27,32140,NA,NA,"Marshall, MN","Micropolitan Statistical Area",NA,NA,"Lyon County","Minnesota","Central"
"313",313,56220,27081,81,27,NA,NA,NA,NA,NA,NA,NA,NA,NA,NA
"314",314,56220,27073,73,27,NA,NA,NA,NA,NA,NA,NA,NA,NA,NA
"315",315,56220,27173,173,27,NA,NA,NA,NA,NA,NA,NA,NA,NA,NA
"316",316,56655,27021,21,27,14660,NA,NA,"Brainerd, MN","Micropolitan Statistical Area",NA,NA,"Cass County","Minnesota","Outlying"
"317",317,55339,27019,19,27,33460,NA,378,"Minneapolis-St. Paul-Bloomington, MN-WI","Metropolitan Statistical Area",NA,"Minneapolis-St. Paul, MN-WI","Carver County","Minnesota","Central"
"318",318,55339,27085,85,27,26780,NA,378,"Hutchinson, MN","Micropolitan Statistical Area",NA,"Minneapolis-St. Paul, MN-WI","McLeod County","Minnesota","Central"
"319",319,55339,27143,143,27,NA,NA,NA,NA,NA,NA,NA,NA,NA,NA
"320",320,56323,27121,121,27,NA,NA,NA,NA,NA,NA,NA,NA,NA,NA
"321",321,56323,27149,149,27,NA,NA,NA,NA,NA,NA,NA,NA,NA,NA
"322",322,56096,27079,79,27,33460,NA,378,"Minneapolis-St. Paul-Bloomington, MN-WI","Metropolitan Statistical Area",NA,"Minneapolis-St. Paul, MN-WI","Le Sueur County","Minnesota","Outlying"
"323",323,56096,27131,131,27,22060,NA,378,"Faribault-Northfield, MN","Micropolitan Statistical Area",NA,"Minneapolis-St. Paul, MN-WI","Rice County","Minnesota","Central"
"324",324,56096,27161,161,27,NA,NA,NA,NA,NA,NA,NA,NA,NA,NA
"325",325,56484,27021,21,27,14660,NA,NA,"Brainerd, MN","Micropolitan Statistical Area",NA,NA,"Cass County","Minnesota","Outlying"
"326",326,56484,27057,57,27,NA,NA,NA,NA,NA,NA,NA,NA,NA,NA
"327",327,55395,27019,19,27,33460,NA,378,"Minneapolis-St. Paul-Bloomington, MN-WI","Metropolitan Statistical Area",NA,"Minneapolis-St. Paul, MN-WI","Carver County","Minnesota","Central"
"328",328,55395,27085,85,27,26780,NA,378,"Hutchinson, MN","Micropolitan Statistical Area",NA,"Minneapolis-St. Paul, MN-WI","McLeod County","Minnesota","Central"
"329",329,55395,27171,171,27,33460,NA,378,"Minneapolis-St. Paul-Bloomington, MN-WI","Metropolitan Statistical Area",NA,"Minneapolis-St. Paul, MN-WI","Wright County","Minnesota","Central"
"330",330,56162,27165,165,27,NA,NA,NA,NA,NA,NA,NA,NA,NA,NA
"331",331,56162,27091,91,27,21860,NA,NA,"Fairmont, MN","Micropolitan Statistical Area",NA,NA,"Martin County","Minnesota","Central"
"332",332,56136,27081,81,27,NA,NA,NA,NA,NA,NA,NA,NA,NA,NA
"333",333,56543,27111,111,27,22260,NA,NA,"Fergus Falls, MN","Micropolitan Statistical Area",NA,NA,"Otter Tail County","Minnesota","Central"
"334",334,56543,27167,167,27,47420,NA,244,"Wahpeton, ND-MN","Micropolitan Statistical Area",NA,"Fargo-Wahpeton, ND-MN","Wilkin County","Minnesota","Outlying"
"335",335,55450,27053,53,27,33460,NA,378,"Minneapolis-St. Paul-Bloomington, MN-WI","Metropolitan Statistical Area",NA,"Minneapolis-St. Paul, MN-WI","Hennepin County","Minnesota","Central"
"336",336,56226,27121,121,27,NA,NA,NA,NA,NA,NA,NA,NA,NA,NA
"337",337,56226,27151,151,27,NA,NA,NA,NA,NA,NA,NA,NA,NA,NA
"338",338,56533,27111,111,27,22260,NA,NA,"Fergus Falls, MN","Micropolitan Statistical Area",NA,NA,"Otter Tail County","Minnesota","Central"
"339",339,56274,27051,51,27,NA,NA,NA,NA,NA,NA,NA,NA,NA,NA
"340",340,56274,27155,155,27,NA,NA,NA,NA,NA,NA,NA,NA,NA,NA
"341",341,56153,27105,105,27,49380,NA,NA,"Worthington, MN","Micropolitan Statistical Area",NA,NA,"Nobles County","Minnesota","Central"
"342",342,56080,27013,13,27,31860,NA,359,"Mankato, MN","Metropolitan Statistical Area",NA,"Mankato-New Ulm, MN","Blue Earth County","Minnesota","Central"
"343",343,55488,27053,53,27,33460,NA,378,"Minneapolis-St. Paul-Bloomington, MN-WI","Metropolitan Statistical Area",NA,"Minneapolis-St. Paul, MN-WI","Hennepin County","Minnesota","Central"
"344",344,55924,27147,147,27,36940,NA,378,"Owatonna, MN","Micropolitan Statistical Area",NA,"Minneapolis-St. Paul, MN-WI","Steele County","Minnesota","Central"
"345",345,55924,27039,39,27,40340,NA,462,"Rochester, MN","Metropolitan Statistical Area",NA,"Rochester-Austin, MN","Dodge County","Minnesota","Outlying"
"346",346,55767,27017,17,27,20260,NA,NA,"Duluth, MN-WI","Metropolitan Statistical Area",NA,NA,"Carlton County","Minnesota","Outlying"
"347",347,55767,27115,115,27,NA,NA,NA,NA,NA,NA,NA,NA,NA,NA
"348",348,55349,27171,171,27,33460,NA,378,"Minneapolis-St. Paul-Bloomington, MN-WI","Metropolitan Statistical Area",NA,"Minneapolis-St. Paul, MN-WI","Wright County","Minnesota","Central"
"349",349,55107,27123,123,27,33460,NA,378,"Minneapolis-St. Paul-Bloomington, MN-WI","Metropolitan Statistical Area",NA,"Minneapolis-St. Paul, MN-WI","Ramsey County","Minnesota","Central"
"350",350,55107,27053,53,27,33460,NA,378,"Minneapolis-St. Paul-Bloomington, MN-WI","Metropolitan Statistical Area",NA,"Minneapolis-St. Paul, MN-WI","Hennepin County","Minnesota","Central"
"351",351,55030,27065,65,27,NA,NA,NA,NA,NA,NA,NA,NA,NA,NA
"352",352,55030,27115,115,27,NA,NA,NA,NA,NA,NA,NA,NA,NA,NA
"353",353,55722,27061,61,27,24330,NA,NA,"Grand Rapids, MN","Micropolitan Statistical Area",NA,NA,"Itasca County","Minnesota","Central"
"354",354,56026,27047,47,27,10660,NA,NA,"Albert Lea, MN","Micropolitan Statistical Area",NA,NA,"Freeborn County","Minnesota","Central"
"355",355,56026,27147,147,27,36940,NA,378,"Owatonna, MN","Micropolitan Statistical Area",NA,"Minneapolis-St. Paul, MN-WI","Steele County","Minnesota","Central"
"356",356,56026,27161,161,27,NA,NA,NA,NA,NA,NA,NA,NA,NA,NA
"357",357,55946,27049,49,27,39860,NA,378,"Red Wing, MN","Micropolitan Statistical Area",NA,"Minneapolis-St. Paul, MN-WI","Goodhue County","Minnesota","Central"
"358",358,55946,27039,39,27,40340,NA,462,"Rochester, MN","Metropolitan Statistical Area",NA,"Rochester-Austin, MN","Dodge County","Minnesota","Outlying"
"359",359,55946,27131,131,27,22060,NA,378,"Faribault-Northfield, MN","Micropolitan Statistical Area",NA,"Minneapolis-St. Paul, MN-WI","Rice County","Minnesota","Central"
"360",360,55946,27147,147,27,36940,NA,378,"Owatonna, MN","Micropolitan Statistical Area",NA,"Minneapolis-St. Paul, MN-WI","Steele County","Minnesota","Central"
"361",361,56431,27001,1,27,NA,NA,NA,NA,NA,NA,NA,NA,NA,NA
"362",362,56431,27035,35,27,14660,NA,NA,"Brainerd, MN","Micropolitan Statistical Area",NA,NA,"Crow Wing County","Minnesota","Central"
"363",363,56446,27153,153,27,NA,NA,NA,NA,NA,NA,NA,NA,NA,NA
"364",364,56446,27041,41,27,10820,NA,NA,"Alexandria, MN","Micropolitan Statistical Area",NA,NA,"Douglas County","Minnesota","Central"
"365",365,56446,27111,111,27,22260,NA,NA,"Fergus Falls, MN","Micropolitan Statistical Area",NA,NA,"Otter Tail County","Minnesota","Central"
"366",366,56219,27011,11,27,NA,NA,NA,NA,NA,NA,NA,NA,NA,NA
"367",367,56219,27155,155,27,NA,NA,NA,NA,NA,NA,NA,NA,NA,NA
"368",368,56519,27107,107,27,NA,NA,NA,NA,NA,NA,NA,NA,NA,NA
"369",369,56519,27027,27,27,22020,NA,244,"Fargo, ND-MN","Metropolitan Statistical Area",NA,"Fargo-Wahpeton, ND-MN","Clay County","Minnesota","Central"
"370",370,55334,27143,143,27,NA,NA,NA,NA,NA,NA,NA,NA,NA,NA
"371",371,55334,27103,103,27,31860,NA,359,"Mankato, MN","Metropolitan Statistical Area",NA,"Mankato-New Ulm, MN","Nicollet County","Minnesota","Central"
"372",372,56738,27089,89,27,NA,NA,NA,NA,NA,NA,NA,NA,NA,NA
"373",373,56502,27005,5,27,NA,NA,NA,NA,NA,NA,NA,NA,NA,NA
"374",374,55970,27099,99,27,12380,NA,462,"Austin, MN","Micropolitan Statistical Area",NA,"Rochester-Austin, MN","Mower County","Minnesota","Central"
"375",375,55711,27137,137,27,20260,NA,NA,"Duluth, MN-WI","Metropolitan Statistical Area",NA,NA,"St. Louis County","Minnesota","Central"
"376",376,55796,27137,137,27,20260,NA,NA,"Duluth, MN-WI","Metropolitan Statistical Area",NA,NA,"St. Louis County","Minnesota","Central"
"377",377,56740,27069,69,27,NA,NA,NA,NA,NA,NA,NA,NA,NA,NA
"378",378,55422,27053,53,27,33460,NA,378,"Minneapolis-St. Paul-Bloomington, MN-WI","Metropolitan Statistical Area",NA,"Minneapolis-St. Paul, MN-WI","Hennepin County","Minnesota","Central"
"379",379,55792,27137,137,27,20260,NA,NA,"Duluth, MN-WI","Metropolitan Statistical Area",NA,NA,"St. Louis County","Minnesota","Central"
"380",380,55790,27137,137,27,20260,NA,NA,"Duluth, MN-WI","Metropolitan Statistical Area",NA,NA,"St. Louis County","Minnesota","Central"
"381",381,55103,27123,123,27,33460,NA,378,"Minneapolis-St. Paul-Bloomington, MN-WI","Metropolitan Statistical Area",NA,"Minneapolis-St. Paul, MN-WI","Ramsey County","Minnesota","Central"
"382",382,55075,27037,37,27,33460,NA,378,"Minneapolis-St. Paul-Bloomington, MN-WI","Metropolitan Statistical Area",NA,"Minneapolis-St. Paul, MN-WI","Dakota County","Minnesota","Central"
"383",383,55449,27003,3,27,33460,NA,378,"Minneapolis-St. Paul-Bloomington, MN-WI","Metropolitan Statistical Area",NA,"Minneapolis-St. Paul, MN-WI","Anoka County","Minnesota","Central"
"384",384,55449,27123,123,27,33460,NA,378,"Minneapolis-St. Paul-Bloomington, MN-WI","Metropolitan Statistical Area",NA,"Minneapolis-St. Paul, MN-WI","Ramsey County","Minnesota","Central"
"385",385,55723,27061,61,27,24330,NA,NA,"Grand Rapids, MN","Micropolitan Statistical Area",NA,NA,"Itasca County","Minnesota","Central"
"386",386,55723,27137,137,27,20260,NA,NA,"Duluth, MN-WI","Metropolitan Statistical Area",NA,NA,"St. Louis County","Minnesota","Central"
"387",387,55302,27171,171,27,33460,NA,378,"Minneapolis-St. Paul-Bloomington, MN-WI","Metropolitan Statistical Area",NA,"Minneapolis-St. Paul, MN-WI","Wright County","Minnesota","Central"
"388",388,55327,27171,171,27,33460,NA,378,"Minneapolis-St. Paul-Bloomington, MN-WI","Metropolitan Statistical Area",NA,"Minneapolis-St. Paul, MN-WI","Wright County","Minnesota","Central"
"389",389,55327,27053,53,27,33460,NA,378,"Minneapolis-St. Paul-Bloomington, MN-WI","Metropolitan Statistical Area",NA,"Minneapolis-St. Paul, MN-WI","Hennepin County","Minnesota","Central"
"390",390,55971,27045,45,27,40340,NA,462,"Rochester, MN","Metropolitan Statistical Area",NA,"Rochester-Austin, MN","Fillmore County","Minnesota","Outlying"
"391",391,55971,27169,169,27,49100,NA,NA,"Winona, MN","Micropolitan Statistical Area",NA,NA,"Winona County","Minnesota","Central"
"392",392,55971,27055,55,27,29100,NA,NA,"La Crosse-Onalaska, WI-MN","Metropolitan Statistical Area",NA,NA,"Houston County","Minnesota","Central"
"393",393,55981,27157,157,27,40340,NA,462,"Rochester, MN","Metropolitan Statistical Area",NA,"Rochester-Austin, MN","Wabasha County","Minnesota","Outlying"
"394",394,55952,27169,169,27,49100,NA,NA,"Winona, MN","Micropolitan Statistical Area",NA,NA,"Winona County","Minnesota","Central"
"395",395,55963,27109,109,27,40340,NA,462,"Rochester, MN","Metropolitan Statistical Area",NA,"Rochester-Austin, MN","Olmsted County","Minnesota","Central"
"396",396,55963,27049,49,27,39860,NA,378,"Red Wing, MN","Micropolitan Statistical Area",NA,"Minneapolis-St. Paul, MN-WI","Goodhue County","Minnesota","Central"
"397",397,55963,27039,39,27,40340,NA,462,"Rochester, MN","Metropolitan Statistical Area",NA,"Rochester-Austin, MN","Dodge County","Minnesota","Outlying"
"398",398,55967,27045,45,27,40340,NA,462,"Rochester, MN","Metropolitan Statistical Area",NA,"Rochester-Austin, MN","Fillmore County","Minnesota","Outlying"
"399",399,55967,27099,99,27,12380,NA,462,"Austin, MN","Micropolitan Statistical Area",NA,"Rochester-Austin, MN","Mower County","Minnesota","Central"
"400",400,56710,27119,119,27,24220,NA,NA,"Grand Forks, ND-MN","Metropolitan Statistical Area",NA,NA,"Polk County","Minnesota","Central"
"401",401,56710,27089,89,27,NA,NA,NA,NA,NA,NA,NA,NA,NA,NA
"402",402,56345,27097,97,27,NA,NA,NA,NA,NA,NA,NA,NA,NA,NA
"403",403,56381,27121,121,27,NA,NA,NA,NA,NA,NA,NA,NA,NA,NA
"404",404,56252,27067,67,27,48820,NA,NA,"Willmar, MN","Micropolitan Statistical Area",NA,NA,"Kandiyohi County","Minnesota","Central"
"405",405,56252,27023,23,27,NA,NA,NA,NA,NA,NA,NA,NA,NA,NA
"406",406,56252,27151,151,27,NA,NA,NA,NA,NA,NA,NA,NA,NA,NA
"407",407,56295,27023,23,27,NA,NA,NA,NA,NA,NA,NA,NA,NA,NA
"408",408,56228,27129,129,27,NA,NA,NA,NA,NA,NA,NA,NA,NA,NA
"409",409,56228,27093,93,27,NA,NA,NA,NA,NA,NA,NA,NA,NA,NA
"410",410,56514,27027,27,27,22020,NA,244,"Fargo, ND-MN","Metropolitan Statistical Area",NA,"Fargo-Wahpeton, ND-MN","Clay County","Minnesota","Central"
"411",411,56514,27111,111,27,22260,NA,NA,"Fergus Falls, MN","Micropolitan Statistical Area",NA,NA,"Otter Tail County","Minnesota","Central"
"412",412,56514,27167,167,27,47420,NA,244,"Wahpeton, ND-MN","Micropolitan Statistical Area",NA,"Fargo-Wahpeton, ND-MN","Wilkin County","Minnesota","Outlying"
"413",413,56589,27005,5,27,NA,NA,NA,NA,NA,NA,NA,NA,NA,NA
"414",414,56589,27107,107,27,NA,NA,NA,NA,NA,NA,NA,NA,NA,NA
"415",415,56589,27087,87,27,NA,NA,NA,NA,NA,NA,NA,NA,NA,NA
"416",416,55341,27053,53,27,33460,NA,378,"Minneapolis-St. Paul-Bloomington, MN-WI","Metropolitan Statistical Area",NA,"Minneapolis-St. Paul, MN-WI","Hennepin County","Minnesota","Central"
"417",417,55341,27171,171,27,33460,NA,378,"Minneapolis-St. Paul-Bloomington, MN-WI","Metropolitan Statistical Area",NA,"Minneapolis-St. Paul, MN-WI","Wright County","Minnesota","Central"
"418",418,55706,27137,137,27,20260,NA,NA,"Duluth, MN-WI","Metropolitan Statistical Area",NA,NA,"St. Louis County","Minnesota","Central"
"419",419,56120,27165,165,27,NA,NA,NA,NA,NA,NA,NA,NA,NA,NA
"420",420,56231,27151,151,27,NA,NA,NA,NA,NA,NA,NA,NA,NA,NA
"421",421,56091,27161,161,27,NA,NA,NA,NA,NA,NA,NA,NA,NA,NA
"422",422,56577,27005,5,27,NA,NA,NA,NA,NA,NA,NA,NA,NA,NA
"423",423,56593,27005,5,27,NA,NA,NA,NA,NA,NA,NA,NA,NA,NA
"424",424,56344,27097,97,27,NA,NA,NA,NA,NA,NA,NA,NA,NA,NA
"425",425,55744,27061,61,27,24330,NA,NA,"Grand Rapids, MN","Micropolitan Statistical Area",NA,NA,"Itasca County","Minnesota","Central"
"426",426,55929,27109,109,27,40340,NA,462,"Rochester, MN","Metropolitan Statistical Area",NA,"Rochester-Austin, MN","Olmsted County","Minnesota","Central"
"427",427,55779,27137,137,27,20260,NA,NA,"Duluth, MN-WI","Metropolitan Statistical Area",NA,NA,"St. Louis County","Minnesota","Central"
"428",428,55358,27171,171,27,33460,NA,378,"Minneapolis-St. Paul-Bloomington, MN-WI","Metropolitan Statistical Area",NA,"Minneapolis-St. Paul, MN-WI","Wright County","Minnesota","Central"
"429",429,55104,27123,123,27,33460,NA,378,"Minneapolis-St. Paul-Bloomington, MN-WI","Metropolitan Statistical Area",NA,"Minneapolis-St. Paul, MN-WI","Ramsey County","Minnesota","Central"
"430",430,55092,27003,3,27,33460,NA,378,"Minneapolis-St. Paul-Bloomington, MN-WI","Metropolitan Statistical Area",NA,"Minneapolis-St. Paul, MN-WI","Anoka County","Minnesota","Central"
"431",431,55092,27025,25,27,33460,NA,378,"Minneapolis-St. Paul-Bloomington, MN-WI","Metropolitan Statistical Area",NA,"Minneapolis-St. Paul, MN-WI","Chisago County","Minnesota","Outlying"
"432",432,55066,27049,49,27,39860,NA,378,"Red Wing, MN","Micropolitan Statistical Area",NA,"Minneapolis-St. Paul, MN-WI","Goodhue County","Minnesota","Central"
"433",433,55719,27137,137,27,20260,NA,NA,"Duluth, MN-WI","Metropolitan Statistical Area",NA,NA,"St. Louis County","Minnesota","Central"
"434",434,56011,27079,79,27,33460,NA,378,"Minneapolis-St. Paul-Bloomington, MN-WI","Metropolitan Statistical Area",NA,"Minneapolis-St. Paul, MN-WI","Le Sueur County","Minnesota","Outlying"
"435",435,56011,27143,143,27,NA,NA,NA,NA,NA,NA,NA,NA,NA,NA
"436",436,56011,27019,19,27,33460,NA,378,"Minneapolis-St. Paul-Bloomington, MN-WI","Metropolitan Statistical Area",NA,"Minneapolis-St. Paul, MN-WI","Carver County","Minnesota","Central"
"437",437,56011,27139,139,27,33460,NA,378,"Minneapolis-St. Paul-Bloomington, MN-WI","Metropolitan Statistical Area",NA,"Minneapolis-St. Paul, MN-WI","Scott County","Minnesota","Central"
"438",438,55965,27045,45,27,40340,NA,462,"Rochester, MN","Metropolitan Statistical Area",NA,"Rochester-Austin, MN","Fillmore County","Minnesota","Outlying"
"439",439,56516,27087,87,27,NA,NA,NA,NA,NA,NA,NA,NA,NA,NA
"440",440,56516,27107,107,27,NA,NA,NA,NA,NA,NA,NA,NA,NA,NA
"441",441,55703,27137,137,27,20260,NA,NA,"Duluth, MN-WI","Metropolitan Statistical Area",NA,NA,"St. Louis County","Minnesota","Central"
"442",442,56033,27043,43,27,NA,NA,NA,NA,NA,NA,NA,NA,NA,NA
"443",443,56051,27043,43,27,NA,NA,NA,NA,NA,NA,NA,NA,NA,NA
"444",444,56051,27047,47,27,10660,NA,NA,"Albert Lea, MN","Micropolitan Statistical Area",NA,NA,"Freeborn County","Minnesota","Central"
"445",445,56659,27061,61,27,24330,NA,NA,"Grand Rapids, MN","Micropolitan Statistical Area",NA,NA,"Itasca County","Minnesota","Central"
"446",446,55785,27021,21,27,14660,NA,NA,"Brainerd, MN","Micropolitan Statistical Area",NA,NA,"Cass County","Minnesota","Outlying"
"447",447,55785,27001,1,27,NA,NA,NA,NA,NA,NA,NA,NA,NA,NA
"448",448,56735,27135,135,27,NA,NA,NA,NA,NA,NA,NA,NA,NA,NA
"449",449,56735,27069,69,27,NA,NA,NA,NA,NA,NA,NA,NA,NA,NA
"450",450,56651,27087,87,27,NA,NA,NA,NA,NA,NA,NA,NA,NA,NA
"451",451,56651,27119,119,27,24220,NA,NA,"Grand Forks, ND-MN","Metropolitan Statistical Area",NA,NA,"Polk County","Minnesota","Central"
"452",452,56546,27027,27,27,22020,NA,244,"Fargo, ND-MN","Metropolitan Statistical Area",NA,"Fargo-Wahpeton, ND-MN","Clay County","Minnesota","Central"
"453",453,56546,27107,107,27,NA,NA,NA,NA,NA,NA,NA,NA,NA,NA
"454",454,56384,27097,97,27,NA,NA,NA,NA,NA,NA,NA,NA,NA,NA
"455",455,55764,27061,61,27,24330,NA,NA,"Grand Rapids, MN","Micropolitan Statistical Area",NA,NA,"Itasca County","Minnesota","Central"
"456",456,55407,27053,53,27,33460,NA,378,"Minneapolis-St. Paul-Bloomington, MN-WI","Metropolitan Statistical Area",NA,"Minneapolis-St. Paul, MN-WI","Hennepin County","Minnesota","Central"
"457",457,55807,27137,137,27,20260,NA,NA,"Duluth, MN-WI","Metropolitan Statistical Area",NA,NA,"St. Louis County","Minnesota","Central"
"458",458,55901,27109,109,27,40340,NA,462,"Rochester, MN","Metropolitan Statistical Area",NA,"Rochester-Austin, MN","Olmsted County","Minnesota","Central"
"459",459,55902,27109,109,27,40340,NA,462,"Rochester, MN","Metropolitan Statistical Area",NA,"Rochester-Austin, MN","Olmsted County","Minnesota","Central"
"460",460,55752,27001,1,27,NA,NA,NA,NA,NA,NA,NA,NA,NA,NA
"461",461,55752,27061,61,27,24330,NA,NA,"Grand Rapids, MN","Micropolitan Statistical Area",NA,NA,"Itasca County","Minnesota","Central"
"462",462,55787,27017,17,27,20260,NA,NA,"Duluth, MN-WI","Metropolitan Statistical Area",NA,NA,"Carlton County","Minnesota","Outlying"
"463",463,55787,27001,1,27,NA,NA,NA,NA,NA,NA,NA,NA,NA,NA
"464",464,55379,27139,139,27,33460,NA,378,"Minneapolis-St. Paul-Bloomington, MN-WI","Metropolitan Statistical Area",NA,"Minneapolis-St. Paul, MN-WI","Scott County","Minnesota","Central"
"465",465,55387,27053,53,27,33460,NA,378,"Minneapolis-St. Paul-Bloomington, MN-WI","Metropolitan Statistical Area",NA,"Minneapolis-St. Paul, MN-WI","Hennepin County","Minnesota","Central"
"466",466,55387,27019,19,27,33460,NA,378,"Minneapolis-St. Paul-Bloomington, MN-WI","Metropolitan Statistical Area",NA,"Minneapolis-St. Paul, MN-WI","Carver County","Minnesota","Central"
"467",467,55338,27143,143,27,NA,NA,NA,NA,NA,NA,NA,NA,NA,NA
"468",468,55338,27085,85,27,26780,NA,378,"Hutchinson, MN","Micropolitan Statistical Area",NA,"Minneapolis-St. Paul, MN-WI","McLeod County","Minnesota","Central"
"469",469,55338,27019,19,27,33460,NA,378,"Minneapolis-St. Paul-Bloomington, MN-WI","Metropolitan Statistical Area",NA,"Minneapolis-St. Paul, MN-WI","Carver County","Minnesota","Central"
"470",470,55375,27019,19,27,33460,NA,378,"Minneapolis-St. Paul-Bloomington, MN-WI","Metropolitan Statistical Area",NA,"Minneapolis-St. Paul, MN-WI","Carver County","Minnesota","Central"
"471",471,55375,27053,53,27,33460,NA,378,"Minneapolis-St. Paul-Bloomington, MN-WI","Metropolitan Statistical Area",NA,"Minneapolis-St. Paul, MN-WI","Hennepin County","Minnesota","Central"
"472",472,55389,27145,145,27,41060,NA,378,"St. Cloud, MN","Metropolitan Statistical Area",NA,"Minneapolis-St. Paul, MN-WI","Stearns County","Minnesota","Central"
"473",473,55389,27093,93,27,NA,NA,NA,NA,NA,NA,NA,NA,NA,NA
"474",474,55123,27037,37,27,33460,NA,378,"Minneapolis-St. Paul-Bloomington, MN-WI","Metropolitan Statistical Area",NA,"Minneapolis-St. Paul, MN-WI","Dakota County","Minnesota","Central"
"475",475,55121,27037,37,27,33460,NA,378,"Minneapolis-St. Paul-Bloomington, MN-WI","Metropolitan Statistical Area",NA,"Minneapolis-St. Paul, MN-WI","Dakota County","Minnesota","Central"
"476",476,55013,27163,163,27,33460,NA,378,"Minneapolis-St. Paul-Bloomington, MN-WI","Metropolitan Statistical Area",NA,"Minneapolis-St. Paul, MN-WI","Washington County","Minnesota","Central"
"477",477,55013,27025,25,27,33460,NA,378,"Minneapolis-St. Paul-Bloomington, MN-WI","Metropolitan Statistical Area",NA,"Minneapolis-St. Paul, MN-WI","Chisago County","Minnesota","Outlying"
"478",478,55128,27123,123,27,33460,NA,378,"Minneapolis-St. Paul-Bloomington, MN-WI","Metropolitan Statistical Area",NA,"Minneapolis-St. Paul, MN-WI","Ramsey County","Minnesota","Central"
"479",479,55128,27163,163,27,33460,NA,378,"Minneapolis-St. Paul-Bloomington, MN-WI","Metropolitan Statistical Area",NA,"Minneapolis-St. Paul, MN-WI","Washington County","Minnesota","Central"
"480",480,55316,27053,53,27,33460,NA,378,"Minneapolis-St. Paul-Bloomington, MN-WI","Metropolitan Statistical Area",NA,"Minneapolis-St. Paul, MN-WI","Hennepin County","Minnesota","Central"
"481",481,55314,27129,129,27,NA,NA,NA,NA,NA,NA,NA,NA,NA,NA
"482",482,55314,27143,143,27,NA,NA,NA,NA,NA,NA,NA,NA,NA,NA
"483",483,55979,27045,45,27,40340,NA,462,"Rochester, MN","Metropolitan Statistical Area",NA,"Rochester-Austin, MN","Fillmore County","Minnesota","Outlying"
"484",484,55979,27169,169,27,49100,NA,NA,"Winona, MN","Micropolitan Statistical Area",NA,NA,"Winona County","Minnesota","Central"
"485",485,55944,27039,39,27,40340,NA,462,"Rochester, MN","Metropolitan Statistical Area",NA,"Rochester-Austin, MN","Dodge County","Minnesota","Outlying"
"486",486,55944,27109,109,27,40340,NA,462,"Rochester, MN","Metropolitan Statistical Area",NA,"Rochester-Austin, MN","Olmsted County","Minnesota","Central"
"487",487,55974,27045,45,27,40340,NA,462,"Rochester, MN","Metropolitan Statistical Area",NA,"Rochester-Austin, MN","Fillmore County","Minnesota","Outlying"
"488",488,55974,27055,55,27,29100,NA,NA,"La Crosse-Onalaska, WI-MN","Metropolitan Statistical Area",NA,NA,"Houston County","Minnesota","Central"
"489",489,56750,27113,113,27,NA,NA,NA,NA,NA,NA,NA,NA,NA,NA
"490",490,56750,27125,125,27,NA,NA,NA,NA,NA,NA,NA,NA,NA,NA
"491",491,56750,27119,119,27,24220,NA,NA,"Grand Forks, ND-MN","Metropolitan Statistical Area",NA,NA,"Polk County","Minnesota","Central"
"492",492,56378,27153,153,27,NA,NA,NA,NA,NA,NA,NA,NA,NA,NA
"493",493,56378,27121,121,27,NA,NA,NA,NA,NA,NA,NA,NA,NA,NA
"494",494,56378,27145,145,27,41060,NA,378,"St. Cloud, MN","Metropolitan Statistical Area",NA,"Minneapolis-St. Paul, MN-WI","Stearns County","Minnesota","Central"
"495",495,56374,27145,145,27,41060,NA,378,"St. Cloud, MN","Metropolitan Statistical Area",NA,"Minneapolis-St. Paul, MN-WI","Stearns County","Minnesota","Central"
"496",496,56441,27035,35,27,14660,NA,NA,"Brainerd, MN","Micropolitan Statistical Area",NA,NA,"Crow Wing County","Minnesota","Central"
"497",497,56251,27067,67,27,48820,NA,NA,"Willmar, MN","Micropolitan Statistical Area",NA,NA,"Kandiyohi County","Minnesota","Central"
"498",498,56248,27149,149,27,NA,NA,NA,NA,NA,NA,NA,NA,NA,NA
"499",499,56248,27155,155,27,NA,NA,NA,NA,NA,NA,NA,NA,NA,NA
"500",500,56248,27051,51,27,NA,NA,NA,NA,NA,NA,NA,NA,NA,NA
"501",501,56118,27033,33,27,NA,NA,NA,NA,NA,NA,NA,NA,NA,NA
"502",502,56118,27063,63,27,NA,NA,NA,NA,NA,NA,NA,NA,NA,NA
"503",503,56273,27067,67,27,48820,NA,NA,"Willmar, MN","Micropolitan Statistical Area",NA,NA,"Kandiyohi County","Minnesota","Central"
"504",504,56115,27101,101,27,NA,NA,NA,NA,NA,NA,NA,NA,NA,NA
"505",505,56115,27083,83,27,32140,NA,NA,"Marshall, MN","Micropolitan Statistical Area",NA,NA,"Lyon County","Minnesota","Central"
"506",506,56550,27107,107,27,NA,NA,NA,NA,NA,NA,NA,NA,NA,NA
"507",507,56534,27111,111,27,22260,NA,NA,"Fergus Falls, MN","Micropolitan Statistical Area",NA,NA,"Otter Tail County","Minnesota","Central"
"508",508,56524,27111,111,27,22260,NA,NA,"Fergus Falls, MN","Micropolitan Statistical Area",NA,NA,"Otter Tail County","Minnesota","Central"
"509",509,55940,27099,99,27,12380,NA,462,"Austin, MN","Micropolitan Statistical Area",NA,"Rochester-Austin, MN","Mower County","Minnesota","Central"
"510",510,55940,27039,39,27,40340,NA,462,"Rochester, MN","Metropolitan Statistical Area",NA,"Rochester-Austin, MN","Dodge County","Minnesota","Outlying"
"511",511,55940,27109,109,27,40340,NA,462,"Rochester, MN","Metropolitan Statistical Area",NA,"Rochester-Austin, MN","Olmsted County","Minnesota","Central"
"512",512,55983,27049,49,27,39860,NA,378,"Red Wing, MN","Micropolitan Statistical Area",NA,"Minneapolis-St. Paul, MN-WI","Goodhue County","Minnesota","Central"
"513",513,55975,27099,99,27,12380,NA,462,"Austin, MN","Micropolitan Statistical Area",NA,"Rochester-Austin, MN","Mower County","Minnesota","Central"
"514",514,55975,27045,45,27,40340,NA,462,"Rochester, MN","Metropolitan Statistical Area",NA,"Rochester-Austin, MN","Fillmore County","Minnesota","Outlying"
"515",515,56266,27015,15,27,35580,NA,359,"New Ulm, MN","Micropolitan Statistical Area",NA,"Mankato-New Ulm, MN","Brown County","Minnesota","Central"
"516",516,56266,27127,127,27,NA,NA,NA,NA,NA,NA,NA,NA,NA,NA
"517",517,56224,27127,127,27,NA,NA,NA,NA,NA,NA,NA,NA,NA,NA
"518",518,56263,27083,83,27,32140,NA,NA,"Marshall, MN","Micropolitan Statistical Area",NA,NA,"Lyon County","Minnesota","Central"
"519",519,56263,27127,127,27,NA,NA,NA,NA,NA,NA,NA,NA,NA,NA
"520",520,56663,27007,7,27,13420,NA,NA,"Bemidji, MN","Micropolitan Statistical Area",NA,NA,"Beltrami County","Minnesota","Central"
"521",521,55962,27045,45,27,40340,NA,462,"Rochester, MN","Metropolitan Statistical Area",NA,"Rochester-Austin, MN","Fillmore County","Minnesota","Outlying"
"522",522,55962,27169,169,27,49100,NA,NA,"Winona, MN","Micropolitan Statistical Area",NA,NA,"Winona County","Minnesota","Central"
"523",523,56129,27105,105,27,49380,NA,NA,"Worthington, MN","Micropolitan Statistical Area",NA,NA,"Nobles County","Minnesota","Central"
"524",524,56129,27133,133,27,NA,NA,NA,NA,NA,NA,NA,NA,NA,NA
"525",525,56155,27105,105,27,49380,NA,NA,"Worthington, MN","Micropolitan Statistical Area",NA,NA,"Nobles County","Minnesota","Central"
"526",526,56363,27095,95,27,33460,NA,378,"Minneapolis-St. Paul-Bloomington, MN-WI","Metropolitan Statistical Area",NA,"Minneapolis-St. Paul, MN-WI","Mille Lacs County","Minnesota","Outlying"
"527",527,56627,27071,71,27,NA,NA,NA,NA,NA,NA,NA,NA,NA,NA
"528",528,56399,27145,145,27,41060,NA,378,"St. Cloud, MN","Metropolitan Statistical Area",NA,"Minneapolis-St. Paul, MN-WI","Stearns County","Minnesota","Central"
"529",529,55797,27017,17,27,20260,NA,NA,"Duluth, MN-WI","Metropolitan Statistical Area",NA,NA,"Carlton County","Minnesota","Outlying"
"530",530,55935,27045,45,27,40340,NA,462,"Rochester, MN","Metropolitan Statistical Area",NA,"Rochester-Austin, MN","Fillmore County","Minnesota","Outlying"
"531",531,55046,27131,131,27,22060,NA,378,"Faribault-Northfield, MN","Micropolitan Statistical Area",NA,"Minneapolis-St. Paul, MN-WI","Rice County","Minnesota","Central"
"532",532,55130,27123,123,27,33460,NA,378,"Minneapolis-St. Paul-Bloomington, MN-WI","Metropolitan Statistical Area",NA,"Minneapolis-St. Paul, MN-WI","Ramsey County","Minnesota","Central"
"533",533,56060,27165,165,27,NA,NA,NA,NA,NA,NA,NA,NA,NA,NA
"534",534,56060,27013,13,27,31860,NA,359,"Mankato, MN","Metropolitan Statistical Area",NA,"Mankato-New Ulm, MN","Blue Earth County","Minnesota","Central"
"535",535,56729,27069,69,27,NA,NA,NA,NA,NA,NA,NA,NA,NA,NA
"536",536,56310,27145,145,27,41060,NA,378,"St. Cloud, MN","Metropolitan Statistical Area",NA,"Minneapolis-St. Paul, MN-WI","Stearns County","Minnesota","Central"
"537",537,56278,27149,149,27,NA,NA,NA,NA,NA,NA,NA,NA,NA,NA
"538",538,56278,27011,11,27,NA,NA,NA,NA,NA,NA,NA,NA,NA,NA
"539",539,56278,27073,73,27,NA,NA,NA,NA,NA,NA,NA,NA,NA,NA
"540",540,56110,27105,105,27,49380,NA,NA,"Worthington, MN","Micropolitan Statistical Area",NA,NA,"Nobles County","Minnesota","Central"
"541",541,56170,27083,83,27,32140,NA,NA,"Marshall, MN","Micropolitan Statistical Area",NA,NA,"Lyon County","Minnesota","Central"
"542",542,56170,27117,117,27,NA,NA,NA,NA,NA,NA,NA,NA,NA,NA
"543",543,56170,27081,81,27,NA,NA,NA,NA,NA,NA,NA,NA,NA,NA
"544",544,56170,27101,101,27,NA,NA,NA,NA,NA,NA,NA,NA,NA,NA
"545",545,56578,27005,5,27,NA,NA,NA,NA,NA,NA,NA,NA,NA,NA
"546",546,56528,27111,111,27,22260,NA,NA,"Fergus Falls, MN","Micropolitan Statistical Area",NA,NA,"Otter Tail County","Minnesota","Central"
"547",547,56657,27061,61,27,24330,NA,NA,"Grand Rapids, MN","Micropolitan Statistical Area",NA,NA,"Itasca County","Minnesota","Central"
"548",548,55749,27115,115,27,NA,NA,NA,NA,NA,NA,NA,NA,NA,NA
"549",549,55749,27017,17,27,20260,NA,NA,"Duluth, MN-WI","Metropolitan Statistical Area",NA,NA,"Carlton County","Minnesota","Outlying"
"550",550,55606,27031,31,27,NA,NA,NA,NA,NA,NA,NA,NA,NA,NA
"551",551,55144,27123,123,27,33460,NA,378,"Minneapolis-St. Paul-Bloomington, MN-WI","Metropolitan Statistical Area",NA,"Minneapolis-St. Paul, MN-WI","Ramsey County","Minnesota","Central"
"552",552,55786,27061,61,27,24330,NA,NA,"Grand Rapids, MN","Micropolitan Statistical Area",NA,NA,"Itasca County","Minnesota","Central"
"553",553,56629,27071,71,27,NA,NA,NA,NA,NA,NA,NA,NA,NA,NA
"554",554,55009,27049,49,27,39860,NA,378,"Red Wing, MN","Micropolitan Statistical Area",NA,"Minneapolis-St. Paul, MN-WI","Goodhue County","Minnesota","Central"
"555",555,55009,27037,37,27,33460,NA,378,"Minneapolis-St. Paul-Bloomington, MN-WI","Metropolitan Statistical Area",NA,"Minneapolis-St. Paul, MN-WI","Dakota County","Minnesota","Central"
"556",556,55415,27053,53,27,33460,NA,378,"Minneapolis-St. Paul-Bloomington, MN-WI","Metropolitan Statistical Area",NA,"Minneapolis-St. Paul, MN-WI","Hennepin County","Minnesota","Central"
"557",557,55420,27053,53,27,33460,NA,378,"Minneapolis-St. Paul-Bloomington, MN-WI","Metropolitan Statistical Area",NA,"Minneapolis-St. Paul, MN-WI","Hennepin County","Minnesota","Central"
"558",558,55357,27053,53,27,33460,NA,378,"Minneapolis-St. Paul-Bloomington, MN-WI","Metropolitan Statistical Area",NA,"Minneapolis-St. Paul, MN-WI","Hennepin County","Minnesota","Central"
"559",559,55113,27053,53,27,33460,NA,378,"Minneapolis-St. Paul-Bloomington, MN-WI","Metropolitan Statistical Area",NA,"Minneapolis-St. Paul, MN-WI","Hennepin County","Minnesota","Central"
"560",560,55113,27123,123,27,33460,NA,378,"Minneapolis-St. Paul-Bloomington, MN-WI","Metropolitan Statistical Area",NA,"Minneapolis-St. Paul, MN-WI","Ramsey County","Minnesota","Central"
"561",561,55082,27163,163,27,33460,NA,378,"Minneapolis-St. Paul-Bloomington, MN-WI","Metropolitan Statistical Area",NA,"Minneapolis-St. Paul, MN-WI","Washington County","Minnesota","Central"
"562",562,55014,27003,3,27,33460,NA,378,"Minneapolis-St. Paul-Bloomington, MN-WI","Metropolitan Statistical Area",NA,"Minneapolis-St. Paul, MN-WI","Anoka County","Minnesota","Central"
"563",563,55025,27025,25,27,33460,NA,378,"Minneapolis-St. Paul-Bloomington, MN-WI","Metropolitan Statistical Area",NA,"Minneapolis-St. Paul, MN-WI","Chisago County","Minnesota","Outlying"
"564",564,55025,27003,3,27,33460,NA,378,"Minneapolis-St. Paul-Bloomington, MN-WI","Metropolitan Statistical Area",NA,"Minneapolis-St. Paul, MN-WI","Anoka County","Minnesota","Central"
"565",565,55025,27163,163,27,33460,NA,378,"Minneapolis-St. Paul-Bloomington, MN-WI","Metropolitan Statistical Area",NA,"Minneapolis-St. Paul, MN-WI","Washington County","Minnesota","Central"
"566",566,55033,27163,163,27,33460,NA,378,"Minneapolis-St. Paul-Bloomington, MN-WI","Metropolitan Statistical Area",NA,"Minneapolis-St. Paul, MN-WI","Washington County","Minnesota","Central"
"567",567,55033,27049,49,27,39860,NA,378,"Red Wing, MN","Micropolitan Statistical Area",NA,"Minneapolis-St. Paul, MN-WI","Goodhue County","Minnesota","Central"
"568",568,55033,27037,37,27,33460,NA,378,"Minneapolis-St. Paul-Bloomington, MN-WI","Metropolitan Statistical Area",NA,"Minneapolis-St. Paul, MN-WI","Dakota County","Minnesota","Central"
"569",569,55019,27131,131,27,22060,NA,378,"Faribault-Northfield, MN","Micropolitan Statistical Area",NA,"Minneapolis-St. Paul, MN-WI","Rice County","Minnesota","Central"
"570",570,55434,27003,3,27,33460,NA,378,"Minneapolis-St. Paul-Bloomington, MN-WI","Metropolitan Statistical Area",NA,"Minneapolis-St. Paul, MN-WI","Anoka County","Minnesota","Central"
"571",571,55454,27053,53,27,33460,NA,378,"Minneapolis-St. Paul-Bloomington, MN-WI","Metropolitan Statistical Area",NA,"Minneapolis-St. Paul, MN-WI","Hennepin County","Minnesota","Central"
"572",572,55614,27075,75,27,20260,NA,NA,"Duluth, MN-WI","Metropolitan Statistical Area",NA,NA,"Lake County","Minnesota","Outlying"
"573",573,55310,27129,129,27,NA,NA,NA,NA,NA,NA,NA,NA,NA,NA
"574",574,56055,27013,13,27,31860,NA,359,"Mankato, MN","Metropolitan Statistical Area",NA,"Mankato-New Ulm, MN","Blue Earth County","Minnesota","Central"
"575",575,56063,27079,79,27,33460,NA,378,"Minneapolis-St. Paul-Bloomington, MN-WI","Metropolitan Statistical Area",NA,"Minneapolis-St. Paul, MN-WI","Le Sueur County","Minnesota","Outlying"
"576",576,56063,27161,161,27,NA,NA,NA,NA,NA,NA,NA,NA,NA,NA
"577",577,56063,27013,13,27,31860,NA,359,"Mankato, MN","Metropolitan Statistical Area",NA,"Mankato-New Ulm, MN","Blue Earth County","Minnesota","Central"
"578",578,56701,27089,89,27,NA,NA,NA,NA,NA,NA,NA,NA,NA,NA
"579",579,56701,27113,113,27,NA,NA,NA,NA,NA,NA,NA,NA,NA,NA
"580",580,56751,27135,135,27,NA,NA,NA,NA,NA,NA,NA,NA,NA,NA
"581",581,56742,27119,119,27,24220,NA,NA,"Grand Forks, ND-MN","Metropolitan Statistical Area",NA,NA,"Polk County","Minnesota","Central"
"582",582,56742,27125,125,27,NA,NA,NA,NA,NA,NA,NA,NA,NA,NA
"583",583,56438,27153,153,27,NA,NA,NA,NA,NA,NA,NA,NA,NA,NA
"584",584,56438,27097,97,27,NA,NA,NA,NA,NA,NA,NA,NA,NA,NA
"585",585,56312,27145,145,27,41060,NA,378,"St. Cloud, MN","Metropolitan Statistical Area",NA,"Minneapolis-St. Paul, MN-WI","Stearns County","Minnesota","Central"
"586",586,56312,27067,67,27,48820,NA,NA,"Willmar, MN","Micropolitan Statistical Area",NA,NA,"Kandiyohi County","Minnesota","Central"
"587",587,56330,27009,9,27,41060,NA,378,"St. Cloud, MN","Metropolitan Statistical Area",NA,"Minneapolis-St. Paul, MN-WI","Benton County","Minnesota","Central"
"588",588,56330,27095,95,27,33460,NA,378,"Minneapolis-St. Paul-Bloomington, MN-WI","Metropolitan Statistical Area",NA,"Minneapolis-St. Paul, MN-WI","Mille Lacs County","Minnesota","Outlying"
"589",589,56249,27151,151,27,NA,NA,NA,NA,NA,NA,NA,NA,NA,NA
"590",590,56253,27067,67,27,48820,NA,NA,"Willmar, MN","Micropolitan Statistical Area",NA,NA,"Kandiyohi County","Minnesota","Central"
"591",591,56584,27027,27,27,22020,NA,244,"Fargo, ND-MN","Metropolitan Statistical Area",NA,"Fargo-Wahpeton, ND-MN","Clay County","Minnesota","Central"
"592",592,56584,27107,107,27,NA,NA,NA,NA,NA,NA,NA,NA,NA,NA
"593",593,56355,27041,41,27,10820,NA,NA,"Alexandria, MN","Micropolitan Statistical Area",NA,NA,"Douglas County","Minnesota","Central"
"594",594,56207,27149,149,27,NA,NA,NA,NA,NA,NA,NA,NA,NA,NA
"595",595,55003,27163,163,27,33460,NA,378,"Minneapolis-St. Paul-Bloomington, MN-WI","Metropolitan Statistical Area",NA,"Minneapolis-St. Paul, MN-WI","Washington County","Minnesota","Central"
"596",596,56158,27133,133,27,NA,NA,NA,NA,NA,NA,NA,NA,NA,NA
"597",597,56158,27105,105,27,49380,NA,NA,"Worthington, MN","Micropolitan Statistical Area",NA,NA,"Nobles County","Minnesota","Central"
"598",598,56669,27137,137,27,20260,NA,NA,"Duluth, MN-WI","Metropolitan Statistical Area",NA,NA,"St. Louis County","Minnesota","Central"
"599",599,56669,27071,71,27,NA,NA,NA,NA,NA,NA,NA,NA,NA,NA
"600",600,56548,27107,107,27,NA,NA,NA,NA,NA,NA,NA,NA,NA,NA
"601",601,56376,27145,145,27,41060,NA,378,"St. Cloud, MN","Metropolitan Statistical Area",NA,"Minneapolis-St. Paul, MN-WI","Stearns County","Minnesota","Central"
"602",602,55423,27053,53,27,33460,NA,378,"Minneapolis-St. Paul-Bloomington, MN-WI","Metropolitan Statistical Area",NA,"Minneapolis-St. Paul, MN-WI","Hennepin County","Minnesota","Central"
"603",603,55329,27093,93,27,NA,NA,NA,NA,NA,NA,NA,NA,NA,NA
"604",604,55329,27145,145,27,41060,NA,378,"St. Cloud, MN","Metropolitan Statistical Area",NA,"Minneapolis-St. Paul, MN-WI","Stearns County","Minnesota","Central"
"605",605,55320,27171,171,27,33460,NA,378,"Minneapolis-St. Paul-Bloomington, MN-WI","Metropolitan Statistical Area",NA,"Minneapolis-St. Paul, MN-WI","Wright County","Minnesota","Central"
"606",606,55320,27145,145,27,41060,NA,378,"St. Cloud, MN","Metropolitan Statistical Area",NA,"Minneapolis-St. Paul, MN-WI","Stearns County","Minnesota","Central"
"607",607,56002,27013,13,27,31860,NA,359,"Mankato, MN","Metropolitan Statistical Area",NA,"Mankato-New Ulm, MN","Blue Earth County","Minnesota","Central"
"608",608,56074,27103,103,27,31860,NA,359,"Mankato, MN","Metropolitan Statistical Area",NA,"Mankato-New Ulm, MN","Nicollet County","Minnesota","Central"
"609",609,56068,27161,161,27,NA,NA,NA,NA,NA,NA,NA,NA,NA,NA
"610",610,56068,27043,43,27,NA,NA,NA,NA,NA,NA,NA,NA,NA,NA
"611",611,56068,27013,13,27,31860,NA,359,"Mankato, MN","Metropolitan Statistical Area",NA,"Mankato-New Ulm, MN","Blue Earth County","Minnesota","Central"
"612",612,56714,27135,135,27,NA,NA,NA,NA,NA,NA,NA,NA,NA,NA
"613",613,56329,27009,9,27,41060,NA,378,"St. Cloud, MN","Metropolitan Statistical Area",NA,"Minneapolis-St. Paul, MN-WI","Benton County","Minnesota","Central"
"614",614,56329,27141,141,27,33460,NA,378,"Minneapolis-St. Paul-Bloomington, MN-WI","Metropolitan Statistical Area",NA,"Minneapolis-St. Paul, MN-WI","Sherburne County","Minnesota","Central"
"615",615,56329,27097,97,27,NA,NA,NA,NA,NA,NA,NA,NA,NA,NA
"616",616,56241,27173,173,27,NA,NA,NA,NA,NA,NA,NA,NA,NA,NA
"617",617,56241,27129,129,27,NA,NA,NA,NA,NA,NA,NA,NA,NA,NA
"618",618,56241,27023,23,27,NA,NA,NA,NA,NA,NA,NA,NA,NA,NA
"619",619,56087,27033,33,27,NA,NA,NA,NA,NA,NA,NA,NA,NA,NA
"620",620,56087,27127,127,27,NA,NA,NA,NA,NA,NA,NA,NA,NA,NA
"621",621,56087,27015,15,27,35580,NA,359,"New Ulm, MN","Micropolitan Statistical Area",NA,"Mankato-New Ulm, MN","Brown County","Minnesota","Central"
"622",622,56527,27111,111,27,22260,NA,NA,"Fergus Falls, MN","Micropolitan Statistical Area",NA,NA,"Otter Tail County","Minnesota","Central"
"623",623,56567,27111,111,27,22260,NA,NA,"Fergus Falls, MN","Micropolitan Statistical Area",NA,NA,"Otter Tail County","Minnesota","Central"
"624",624,56045,27047,47,27,10660,NA,NA,"Albert Lea, MN","Micropolitan Statistical Area",NA,NA,"Freeborn County","Minnesota","Central"
"625",625,56388,27145,145,27,41060,NA,378,"St. Cloud, MN","Metropolitan Statistical Area",NA,"Minneapolis-St. Paul, MN-WI","Stearns County","Minnesota","Central"
"626",626,56680,27061,61,27,24330,NA,NA,"Grand Rapids, MN","Micropolitan Statistical Area",NA,NA,"Itasca County","Minnesota","Central"
"627",627,55020,27131,131,27,22060,NA,378,"Faribault-Northfield, MN","Micropolitan Statistical Area",NA,"Minneapolis-St. Paul, MN-WI","Rice County","Minnesota","Central"
"628",628,55020,27139,139,27,33460,NA,378,"Minneapolis-St. Paul-Bloomington, MN-WI","Metropolitan Statistical Area",NA,"Minneapolis-St. Paul, MN-WI","Scott County","Minnesota","Central"
"629",629,56580,27027,27,27,22020,NA,244,"Fargo, ND-MN","Metropolitan Statistical Area",NA,"Fargo-Wahpeton, ND-MN","Clay County","Minnesota","Central"
"630",630,56216,27067,67,27,48820,NA,NA,"Willmar, MN","Micropolitan Statistical Area",NA,NA,"Kandiyohi County","Minnesota","Central"
"631",631,56594,27167,167,27,47420,NA,244,"Wahpeton, ND-MN","Micropolitan Statistical Area",NA,"Fargo-Wahpeton, ND-MN","Wilkin County","Minnesota","Outlying"
"632",632,56594,27027,27,27,22020,NA,244,"Fargo, ND-MN","Metropolitan Statistical Area",NA,"Fargo-Wahpeton, ND-MN","Clay County","Minnesota","Central"
"633",633,56685,27007,7,27,13420,NA,NA,"Bemidji, MN","Micropolitan Statistical Area",NA,NA,"Beltrami County","Minnesota","Central"
"634",634,56328,27097,97,27,NA,NA,NA,NA,NA,NA,NA,NA,NA,NA
"635",635,56084,27015,15,27,35580,NA,359,"New Ulm, MN","Micropolitan Statistical Area",NA,"Mankato-New Ulm, MN","Brown County","Minnesota","Central"
"636",636,55005,27003,3,27,33460,NA,378,"Minneapolis-St. Paul-Bloomington, MN-WI","Metropolitan Statistical Area",NA,"Minneapolis-St. Paul, MN-WI","Anoka County","Minnesota","Central"
"637",637,55005,27059,59,27,33460,NA,378,"Minneapolis-St. Paul-Bloomington, MN-WI","Metropolitan Statistical Area",NA,"Minneapolis-St. Paul, MN-WI","Isanti County","Minnesota","Outlying"
"638",638,55424,27053,53,27,33460,NA,378,"Minneapolis-St. Paul-Bloomington, MN-WI","Metropolitan Statistical Area",NA,"Minneapolis-St. Paul, MN-WI","Hennepin County","Minnesota","Central"
"639",639,55746,27061,61,27,24330,NA,NA,"Grand Rapids, MN","Micropolitan Statistical Area",NA,NA,"Itasca County","Minnesota","Central"
"640",640,55746,27137,137,27,20260,NA,NA,"Duluth, MN-WI","Metropolitan Statistical Area",NA,NA,"St. Louis County","Minnesota","Central"
"641",641,55763,27137,137,27,20260,NA,NA,"Duluth, MN-WI","Metropolitan Statistical Area",NA,NA,"St. Louis County","Minnesota","Central"
"642",642,55784,27061,61,27,24330,NA,NA,"Grand Rapids, MN","Micropolitan Statistical Area",NA,NA,"Itasca County","Minnesota","Central"
"643",643,55939,27045,45,27,40340,NA,462,"Rochester, MN","Metropolitan Statistical Area",NA,"Rochester-Austin, MN","Fillmore County","Minnesota","Outlying"
"644",644,55382,27171,171,27,33460,NA,378,"Minneapolis-St. Paul-Bloomington, MN-WI","Metropolitan Statistical Area",NA,"Minneapolis-St. Paul, MN-WI","Wright County","Minnesota","Central"
"645",645,55382,27093,93,27,NA,NA,NA,NA,NA,NA,NA,NA,NA,NA
"646",646,55382,27145,145,27,41060,NA,378,"St. Cloud, MN","Metropolitan Statistical Area",NA,"Minneapolis-St. Paul, MN-WI","Stearns County","Minnesota","Central"
"647",647,55110,27003,3,27,33460,NA,378,"Minneapolis-St. Paul-Bloomington, MN-WI","Metropolitan Statistical Area",NA,"Minneapolis-St. Paul, MN-WI","Anoka County","Minnesota","Central"
"648",648,55110,27123,123,27,33460,NA,378,"Minneapolis-St. Paul-Bloomington, MN-WI","Metropolitan Statistical Area",NA,"Minneapolis-St. Paul, MN-WI","Ramsey County","Minnesota","Central"
"649",649,55110,27163,163,27,33460,NA,378,"Minneapolis-St. Paul-Bloomington, MN-WI","Metropolitan Statistical Area",NA,"Minneapolis-St. Paul, MN-WI","Washington County","Minnesota","Central"
"650",650,55077,27037,37,27,33460,NA,378,"Minneapolis-St. Paul-Bloomington, MN-WI","Metropolitan Statistical Area",NA,"Minneapolis-St. Paul, MN-WI","Dakota County","Minnesota","Central"
"651",651,55119,27163,163,27,33460,NA,378,"Minneapolis-St. Paul-Bloomington, MN-WI","Metropolitan Statistical Area",NA,"Minneapolis-St. Paul, MN-WI","Washington County","Minnesota","Central"
"652",652,55119,27123,123,27,33460,NA,378,"Minneapolis-St. Paul-Bloomington, MN-WI","Metropolitan Statistical Area",NA,"Minneapolis-St. Paul, MN-WI","Ramsey County","Minnesota","Central"
"653",653,55304,27003,3,27,33460,NA,378,"Minneapolis-St. Paul-Bloomington, MN-WI","Metropolitan Statistical Area",NA,"Minneapolis-St. Paul, MN-WI","Anoka County","Minnesota","Central"
"654",654,56062,27015,15,27,35580,NA,359,"New Ulm, MN","Micropolitan Statistical Area",NA,"Mankato-New Ulm, MN","Brown County","Minnesota","Central"
"655",655,56062,27013,13,27,31860,NA,359,"Mankato, MN","Metropolitan Statistical Area",NA,"Mankato-New Ulm, MN","Blue Earth County","Minnesota","Central"
"656",656,56062,27165,165,27,NA,NA,NA,NA,NA,NA,NA,NA,NA,NA
"657",657,56039,27091,91,27,21860,NA,NA,"Fairmont, MN","Micropolitan Statistical Area",NA,NA,"Martin County","Minnesota","Central"
"658",658,56039,27043,43,27,NA,NA,NA,NA,NA,NA,NA,NA,NA,NA
"659",659,56732,27089,89,27,NA,NA,NA,NA,NA,NA,NA,NA,NA,NA
"660",660,56732,27135,135,27,NA,NA,NA,NA,NA,NA,NA,NA,NA,NA
"661",661,56732,27069,69,27,NA,NA,NA,NA,NA,NA,NA,NA,NA,NA
"662",662,56425,27021,21,27,14660,NA,NA,"Brainerd, MN","Micropolitan Statistical Area",NA,NA,"Cass County","Minnesota","Outlying"
"663",663,56425,27035,35,27,14660,NA,NA,"Brainerd, MN","Micropolitan Statistical Area",NA,NA,"Crow Wing County","Minnesota","Central"
"664",664,56229,27083,83,27,32140,NA,NA,"Marshall, MN","Micropolitan Statistical Area",NA,NA,"Lyon County","Minnesota","Central"
"665",665,56229,27173,173,27,NA,NA,NA,NA,NA,NA,NA,NA,NA,NA
"666",666,56230,27129,129,27,NA,NA,NA,NA,NA,NA,NA,NA,NA,NA
"667",667,56113,27083,83,27,32140,NA,NA,"Marshall, MN","Micropolitan Statistical Area",NA,NA,"Lyon County","Minnesota","Central"
"668",668,56113,27081,81,27,NA,NA,NA,NA,NA,NA,NA,NA,NA,NA
"669",669,56547,27027,27,27,22020,NA,244,"Fargo, ND-MN","Metropolitan Statistical Area",NA,"Fargo-Wahpeton, ND-MN","Clay County","Minnesota","Central"
"670",670,56678,27057,57,27,NA,NA,NA,NA,NA,NA,NA,NA,NA,NA
"671",671,56678,27029,29,27,NA,NA,NA,NA,NA,NA,NA,NA,NA,NA
"672",672,56678,27007,7,27,13420,NA,NA,"Bemidji, MN","Micropolitan Statistical Area",NA,NA,"Beltrami County","Minnesota","Central"
"673",673,56626,27021,21,27,14660,NA,NA,"Brainerd, MN","Micropolitan Statistical Area",NA,NA,"Cass County","Minnesota","Outlying"
"674",674,55390,27171,171,27,33460,NA,378,"Minneapolis-St. Paul-Bloomington, MN-WI","Metropolitan Statistical Area",NA,"Minneapolis-St. Paul, MN-WI","Wright County","Minnesota","Central"
"675",675,55029,27059,59,27,33460,NA,378,"Minneapolis-St. Paul-Bloomington, MN-WI","Metropolitan Statistical Area",NA,"Minneapolis-St. Paul, MN-WI","Isanti County","Minnesota","Outlying"
"676",676,56561,27027,27,27,22020,NA,244,"Fargo, ND-MN","Metropolitan Statistical Area",NA,"Fargo-Wahpeton, ND-MN","Clay County","Minnesota","Central"
"677",677,56029,27047,47,27,10660,NA,NA,"Albert Lea, MN","Micropolitan Statistical Area",NA,NA,"Freeborn County","Minnesota","Central"
"678",678,56448,27021,21,27,14660,NA,NA,"Brainerd, MN","Micropolitan Statistical Area",NA,NA,"Cass County","Minnesota","Outlying"
"679",679,56448,27035,35,27,14660,NA,NA,"Brainerd, MN","Micropolitan Statistical Area",NA,NA,"Crow Wing County","Minnesota","Central"
"680",680,56157,27083,83,27,32140,NA,NA,"Marshall, MN","Micropolitan Statistical Area",NA,NA,"Lyon County","Minnesota","Central"
"681",681,55012,27025,25,27,33460,NA,378,"Minneapolis-St. Paul-Bloomington, MN-WI","Metropolitan Statistical Area",NA,"Minneapolis-St. Paul, MN-WI","Chisago County","Minnesota","Outlying"
"682",682,56518,27111,111,27,22260,NA,NA,"Fergus Falls, MN","Micropolitan Statistical Area",NA,NA,"Otter Tail County","Minnesota","Central"
"683",683,55780,27017,17,27,20260,NA,NA,"Duluth, MN-WI","Metropolitan Statistical Area",NA,NA,"Carlton County","Minnesota","Outlying"
"684",684,55613,27031,31,27,NA,NA,NA,NA,NA,NA,NA,NA,NA,NA
"685",685,55745,27061,61,27,24330,NA,NA,"Grand Rapids, MN","Micropolitan Statistical Area",NA,NA,"Itasca County","Minnesota","Central"
"686",686,56341,27041,41,27,10820,NA,NA,"Alexandria, MN","Micropolitan Statistical Area",NA,NA,"Douglas County","Minnesota","Central"
"687",687,55601,27075,75,27,20260,NA,NA,"Duluth, MN-WI","Metropolitan Statistical Area",NA,NA,"Lake County","Minnesota","Outlying"
"688",688,55806,27137,137,27,20260,NA,NA,"Duluth, MN-WI","Metropolitan Statistical Area",NA,NA,"St. Louis County","Minnesota","Central"
"689",689,55798,27001,1,27,NA,NA,NA,NA,NA,NA,NA,NA,NA,NA
"690",690,55798,27017,17,27,20260,NA,NA,"Duluth, MN-WI","Metropolitan Statistical Area",NA,NA,"Carlton County","Minnesota","Outlying"
"691",691,55798,27137,137,27,20260,NA,NA,"Duluth, MN-WI","Metropolitan Statistical Area",NA,NA,"St. Louis County","Minnesota","Central"
"692",692,55384,27053,53,27,33460,NA,378,"Minneapolis-St. Paul-Bloomington, MN-WI","Metropolitan Statistical Area",NA,"Minneapolis-St. Paul, MN-WI","Hennepin County","Minnesota","Central"
"693",693,55118,27123,123,27,33460,NA,378,"Minneapolis-St. Paul-Bloomington, MN-WI","Metropolitan Statistical Area",NA,"Minneapolis-St. Paul, MN-WI","Ramsey County","Minnesota","Central"
"694",694,55118,27037,37,27,33460,NA,378,"Minneapolis-St. Paul-Bloomington, MN-WI","Metropolitan Statistical Area",NA,"Minneapolis-St. Paul, MN-WI","Dakota County","Minnesota","Central"
"695",695,55057,27049,49,27,39860,NA,378,"Red Wing, MN","Micropolitan Statistical Area",NA,"Minneapolis-St. Paul, MN-WI","Goodhue County","Minnesota","Central"
"696",696,55057,27037,37,27,33460,NA,378,"Minneapolis-St. Paul-Bloomington, MN-WI","Metropolitan Statistical Area",NA,"Minneapolis-St. Paul, MN-WI","Dakota County","Minnesota","Central"
"697",697,55057,27131,131,27,22060,NA,378,"Faribault-Northfield, MN","Micropolitan Statistical Area",NA,"Minneapolis-St. Paul, MN-WI","Rice County","Minnesota","Central"
"698",698,55071,27163,163,27,33460,NA,378,"Minneapolis-St. Paul-Bloomington, MN-WI","Metropolitan Statistical Area",NA,"Minneapolis-St. Paul, MN-WI","Washington County","Minnesota","Central"
"699",699,55325,27171,171,27,33460,NA,378,"Minneapolis-St. Paul-Bloomington, MN-WI","Metropolitan Statistical Area",NA,"Minneapolis-St. Paul, MN-WI","Wright County","Minnesota","Central"
"700",700,55325,27093,93,27,NA,NA,NA,NA,NA,NA,NA,NA,NA,NA
"701",701,56034,27013,13,27,31860,NA,359,"Mankato, MN","Metropolitan Statistical Area",NA,"Mankato-New Ulm, MN","Blue Earth County","Minnesota","Central"
"702",702,56024,27013,13,27,31860,NA,359,"Mankato, MN","Metropolitan Statistical Area",NA,"Mankato-New Ulm, MN","Blue Earth County","Minnesota","Central"
"703",703,56688,27061,61,27,24330,NA,NA,"Grand Rapids, MN","Micropolitan Statistical Area",NA,NA,"Itasca County","Minnesota","Central"
"704",704,56437,27111,111,27,22260,NA,NA,"Fergus Falls, MN","Micropolitan Statistical Area",NA,NA,"Otter Tail County","Minnesota","Central"
"705",705,56437,27153,153,27,NA,NA,NA,NA,NA,NA,NA,NA,NA,NA
"706",706,56331,27153,153,27,NA,NA,NA,NA,NA,NA,NA,NA,NA,NA
"707",707,56331,27145,145,27,41060,NA,378,"St. Cloud, MN","Metropolitan Statistical Area",NA,"Minneapolis-St. Paul, MN-WI","Stearns County","Minnesota","Central"
"708",708,56331,27097,97,27,NA,NA,NA,NA,NA,NA,NA,NA,NA,NA
"709",709,56470,27159,159,27,NA,NA,NA,NA,NA,NA,NA,NA,NA,NA
"710",710,56470,27029,29,27,NA,NA,NA,NA,NA,NA,NA,NA,NA,NA
"711",711,56470,27005,5,27,NA,NA,NA,NA,NA,NA,NA,NA,NA,NA
"712",712,56470,27057,57,27,NA,NA,NA,NA,NA,NA,NA,NA,NA,NA
"713",713,56628,27061,61,27,24330,NA,NA,"Grand Rapids, MN","Micropolitan Statistical Area",NA,NA,"Itasca County","Minnesota","Central"
"714",714,55756,27017,17,27,20260,NA,NA,"Duluth, MN-WI","Metropolitan Statistical Area",NA,NA,"Carlton County","Minnesota","Outlying"
"715",715,55756,27115,115,27,NA,NA,NA,NA,NA,NA,NA,NA,NA,NA
"716",716,55155,27123,123,27,33460,NA,378,"Minneapolis-St. Paul-Bloomington, MN-WI","Metropolitan Statistical Area",NA,"Minneapolis-St. Paul, MN-WI","Ramsey County","Minnesota","Central"
"717",717,56668,27071,71,27,NA,NA,NA,NA,NA,NA,NA,NA,NA,NA
"718",718,56583,27111,111,27,22260,NA,NA,"Fergus Falls, MN","Micropolitan Statistical Area",NA,NA,"Otter Tail County","Minnesota","Central"
"719",719,56583,27155,155,27,NA,NA,NA,NA,NA,NA,NA,NA,NA,NA
"720",720,56583,27167,167,27,47420,NA,244,"Wahpeton, ND-MN","Micropolitan Statistical Area",NA,"Fargo-Wahpeton, ND-MN","Wilkin County","Minnesota","Outlying"
"721",721,56731,27069,69,27,NA,NA,NA,NA,NA,NA,NA,NA,NA,NA
"722",722,55083,27163,163,27,33460,NA,378,"Minneapolis-St. Paul-Bloomington, MN-WI","Metropolitan Statistical Area",NA,"Minneapolis-St. Paul, MN-WI","Washington County","Minnesota","Central"
"723",723,56398,27145,145,27,41060,NA,378,"St. Cloud, MN","Metropolitan Statistical Area",NA,"Minneapolis-St. Paul, MN-WI","Stearns County","Minnesota","Central"
"724",724,55921,27055,55,27,29100,NA,NA,"La Crosse-Onalaska, WI-MN","Metropolitan Statistical Area",NA,NA,"Houston County","Minnesota","Central"
"725",725,55932,27157,157,27,40340,NA,462,"Rochester, MN","Metropolitan Statistical Area",NA,"Rochester-Austin, MN","Wabasha County","Minnesota","Outlying"
"726",726,55932,27109,109,27,40340,NA,462,"Rochester, MN","Metropolitan Statistical Area",NA,"Rochester-Austin, MN","Olmsted County","Minnesota","Central"
"727",727,55783,27001,1,27,NA,NA,NA,NA,NA,NA,NA,NA,NA,NA
"728",728,55783,27115,115,27,NA,NA,NA,NA,NA,NA,NA,NA,NA,NA
"729",729,55783,27017,17,27,20260,NA,NA,"Duluth, MN-WI","Metropolitan Statistical Area",NA,NA,"Carlton County","Minnesota","Outlying"
"730",730,55355,27085,85,27,26780,NA,378,"Hutchinson, MN","Micropolitan Statistical Area",NA,"Minneapolis-St. Paul, MN-WI","McLeod County","Minnesota","Central"
"731",731,55355,27093,93,27,NA,NA,NA,NA,NA,NA,NA,NA,NA,NA
"732",732,55342,27129,129,27,NA,NA,NA,NA,NA,NA,NA,NA,NA,NA
"733",733,55342,27093,93,27,NA,NA,NA,NA,NA,NA,NA,NA,NA,NA
"734",734,55031,27037,37,27,33460,NA,378,"Minneapolis-St. Paul-Bloomington, MN-WI","Metropolitan Statistical Area",NA,"Minneapolis-St. Paul, MN-WI","Dakota County","Minnesota","Central"
"735",735,55435,27053,53,27,33460,NA,378,"Minneapolis-St. Paul-Bloomington, MN-WI","Metropolitan Statistical Area",NA,"Minneapolis-St. Paul, MN-WI","Hennepin County","Minnesota","Central"
"736",736,55307,27143,143,27,NA,NA,NA,NA,NA,NA,NA,NA,NA,NA
"737",737,55124,27037,37,27,33460,NA,378,"Minneapolis-St. Paul-Bloomington, MN-WI","Metropolitan Statistical Area",NA,"Minneapolis-St. Paul, MN-WI","Dakota County","Minnesota","Central"
"738",738,55317,27053,53,27,33460,NA,378,"Minneapolis-St. Paul-Bloomington, MN-WI","Metropolitan Statistical Area",NA,"Minneapolis-St. Paul, MN-WI","Hennepin County","Minnesota","Central"
"739",739,55317,27019,19,27,33460,NA,378,"Minneapolis-St. Paul-Bloomington, MN-WI","Metropolitan Statistical Area",NA,"Minneapolis-St. Paul, MN-WI","Carver County","Minnesota","Central"
"740",740,56017,27079,79,27,33460,NA,378,"Minneapolis-St. Paul-Bloomington, MN-WI","Metropolitan Statistical Area",NA,"Minneapolis-St. Paul, MN-WI","Le Sueur County","Minnesota","Outlying"
"741",741,56065,27013,13,27,31860,NA,359,"Mankato, MN","Metropolitan Statistical Area",NA,"Mankato-New Ulm, MN","Blue Earth County","Minnesota","Central"
"742",742,56065,27043,43,27,NA,NA,NA,NA,NA,NA,NA,NA,NA,NA
"743",743,56065,27161,161,27,NA,NA,NA,NA,NA,NA,NA,NA,NA,NA
"744",744,56466,27097,97,27,NA,NA,NA,NA,NA,NA,NA,NA,NA,NA
"745",745,56466,27021,21,27,14660,NA,NA,"Brainerd, MN","Micropolitan Statistical Area",NA,NA,"Cass County","Minnesota","Outlying"
"746",746,56466,27153,153,27,NA,NA,NA,NA,NA,NA,NA,NA,NA,NA
"747",747,56332,27041,41,27,10820,NA,NA,"Alexandria, MN","Micropolitan Statistical Area",NA,NA,"Douglas County","Minnesota","Central"
"748",748,56359,27095,95,27,33460,NA,378,"Minneapolis-St. Paul-Bloomington, MN-WI","Metropolitan Statistical Area",NA,"Minneapolis-St. Paul, MN-WI","Mille Lacs County","Minnesota","Outlying"
"749",749,56359,27097,97,27,NA,NA,NA,NA,NA,NA,NA,NA,NA,NA
"750",750,56156,27133,133,27,NA,NA,NA,NA,NA,NA,NA,NA,NA,NA
"751",751,56156,27117,117,27,NA,NA,NA,NA,NA,NA,NA,NA,NA,NA
"752",752,56093,27161,161,27,NA,NA,NA,NA,NA,NA,NA,NA,NA,NA
"753",753,56093,27147,147,27,36940,NA,378,"Owatonna, MN","Micropolitan Statistical Area",NA,"Minneapolis-St. Paul, MN-WI","Steele County","Minnesota","Central"
"754",754,56209,27093,93,27,NA,NA,NA,NA,NA,NA,NA,NA,NA,NA
"755",755,56209,27067,67,27,48820,NA,NA,"Willmar, MN","Micropolitan Statistical Area",NA,NA,"Kandiyohi County","Minnesota","Central"
"756",756,56152,27127,127,27,NA,NA,NA,NA,NA,NA,NA,NA,NA,NA
"757",757,56152,27033,33,27,NA,NA,NA,NA,NA,NA,NA,NA,NA,NA
"758",758,56510,27107,107,27,NA,NA,NA,NA,NA,NA,NA,NA,NA,NA
"759",759,56585,27027,27,27,22020,NA,244,"Fargo, ND-MN","Metropolitan Statistical Area",NA,"Fargo-Wahpeton, ND-MN","Clay County","Minnesota","Central"
"760",760,56585,27005,5,27,NA,NA,NA,NA,NA,NA,NA,NA,NA,NA
"761",761,56585,27107,107,27,NA,NA,NA,NA,NA,NA,NA,NA,NA,NA
"762",762,56579,27111,111,27,22260,NA,NA,"Fergus Falls, MN","Micropolitan Statistical Area",NA,NA,"Otter Tail County","Minnesota","Central"
"763",763,56579,27167,167,27,47420,NA,244,"Wahpeton, ND-MN","Micropolitan Statistical Area",NA,"Fargo-Wahpeton, ND-MN","Wilkin County","Minnesota","Outlying"
"764",764,56554,27027,27,27,22020,NA,244,"Fargo, ND-MN","Metropolitan Statistical Area",NA,"Fargo-Wahpeton, ND-MN","Clay County","Minnesota","Central"
"765",765,56554,27005,5,27,NA,NA,NA,NA,NA,NA,NA,NA,NA,NA
"766",766,56634,27029,29,27,NA,NA,NA,NA,NA,NA,NA,NA,NA,NA
"767",767,56590,27051,51,27,NA,NA,NA,NA,NA,NA,NA,NA,NA,NA
"768",768,56639,27071,71,27,NA,NA,NA,NA,NA,NA,NA,NA,NA,NA
"769",769,56639,27061,61,27,24330,NA,NA,"Grand Rapids, MN","Micropolitan Statistical Area",NA,NA,"Itasca County","Minnesota","Central"
"770",770,56227,27151,151,27,NA,NA,NA,NA,NA,NA,NA,NA,NA,NA
"771",771,56227,27011,11,27,NA,NA,NA,NA,NA,NA,NA,NA,NA,NA
"772",772,56016,27047,47,27,10660,NA,NA,"Albert Lea, MN","Micropolitan Statistical Area",NA,NA,"Freeborn County","Minnesota","Central"
"773",773,55757,27017,17,27,20260,NA,NA,"Duluth, MN-WI","Metropolitan Statistical Area",NA,NA,"Carlton County","Minnesota","Outlying"
"774",774,56281,27067,67,27,48820,NA,NA,"Willmar, MN","Micropolitan Statistical Area",NA,NA,"Kandiyohi County","Minnesota","Central"
"775",775,56592,27087,87,27,NA,NA,NA,NA,NA,NA,NA,NA,NA,NA
"776",776,56592,27119,119,27,24220,NA,NA,"Grand Forks, ND-MN","Metropolitan Statistical Area",NA,NA,"Polk County","Minnesota","Central"
"777",777,56046,27147,147,27,36940,NA,378,"Owatonna, MN","Micropolitan Statistical Area",NA,"Minneapolis-St. Paul, MN-WI","Steele County","Minnesota","Central"
"778",778,56210,27011,11,27,NA,NA,NA,NA,NA,NA,NA,NA,NA,NA
"779",779,55416,27053,53,27,33460,NA,378,"Minneapolis-St. Paul-Bloomington, MN-WI","Metropolitan Statistical Area",NA,"Minneapolis-St. Paul, MN-WI","Hennepin County","Minnesota","Central"
"780",780,55426,27053,53,27,33460,NA,378,"Minneapolis-St. Paul-Bloomington, MN-WI","Metropolitan Statistical Area",NA,"Minneapolis-St. Paul, MN-WI","Hennepin County","Minnesota","Central"
"781",781,55775,27061,61,27,24330,NA,NA,"Grand Rapids, MN","Micropolitan Statistical Area",NA,NA,"Itasca County","Minnesota","Central"
"782",782,55906,27157,157,27,40340,NA,462,"Rochester, MN","Metropolitan Statistical Area",NA,"Rochester-Austin, MN","Wabasha County","Minnesota","Outlying"
"783",783,55906,27109,109,27,40340,NA,462,"Rochester, MN","Metropolitan Statistical Area",NA,"Rochester-Austin, MN","Olmsted County","Minnesota","Central"
"784",784,55108,27123,123,27,33460,NA,378,"Minneapolis-St. Paul-Bloomington, MN-WI","Metropolitan Statistical Area",NA,"Minneapolis-St. Paul, MN-WI","Ramsey County","Minnesota","Central"
"785",785,55428,27053,53,27,33460,NA,378,"Minneapolis-St. Paul-Bloomington, MN-WI","Metropolitan Statistical Area",NA,"Minneapolis-St. Paul, MN-WI","Hennepin County","Minnesota","Central"
"786",786,55303,27003,3,27,33460,NA,378,"Minneapolis-St. Paul-Bloomington, MN-WI","Metropolitan Statistical Area",NA,"Minneapolis-St. Paul, MN-WI","Anoka County","Minnesota","Central"
"787",787,55964,27169,169,27,49100,NA,NA,"Winona, MN","Micropolitan Statistical Area",NA,NA,"Winona County","Minnesota","Central"
"788",788,55964,27109,109,27,40340,NA,462,"Rochester, MN","Metropolitan Statistical Area",NA,"Rochester-Austin, MN","Olmsted County","Minnesota","Central"
"789",789,55964,27157,157,27,40340,NA,462,"Rochester, MN","Metropolitan Statistical Area",NA,"Rochester-Austin, MN","Wabasha County","Minnesota","Outlying"
"790",790,56725,27113,113,27,NA,NA,NA,NA,NA,NA,NA,NA,NA,NA
"791",791,56725,27089,89,27,NA,NA,NA,NA,NA,NA,NA,NA,NA,NA
"792",792,56763,27135,135,27,NA,NA,NA,NA,NA,NA,NA,NA,NA,NA
"793",793,56320,27145,145,27,41060,NA,378,"St. Cloud, MN","Metropolitan Statistical Area",NA,"Minneapolis-St. Paul, MN-WI","Stearns County","Minnesota","Central"
"794",794,56350,27115,115,27,NA,NA,NA,NA,NA,NA,NA,NA,NA,NA
"795",795,56350,27001,1,27,NA,NA,NA,NA,NA,NA,NA,NA,NA,NA
"796",796,56336,27145,145,27,41060,NA,378,"St. Cloud, MN","Metropolitan Statistical Area",NA,"Minneapolis-St. Paul, MN-WI","Stearns County","Minnesota","Central"
"797",797,56336,27097,97,27,NA,NA,NA,NA,NA,NA,NA,NA,NA,NA
"798",798,56336,27153,153,27,NA,NA,NA,NA,NA,NA,NA,NA,NA,NA
"799",799,56452,27021,21,27,14660,NA,NA,"Brainerd, MN","Micropolitan Statistical Area",NA,NA,"Cass County","Minnesota","Outlying"
"800",800,56464,27111,111,27,22260,NA,NA,"Fergus Falls, MN","Micropolitan Statistical Area",NA,NA,"Otter Tail County","Minnesota","Central"
"801",801,56464,27057,57,27,NA,NA,NA,NA,NA,NA,NA,NA,NA,NA
"802",802,56464,27159,159,27,NA,NA,NA,NA,NA,NA,NA,NA,NA,NA
"803",803,56464,27005,5,27,NA,NA,NA,NA,NA,NA,NA,NA,NA,NA
"804",804,56464,27021,21,27,14660,NA,NA,"Brainerd, MN","Micropolitan Statistical Area",NA,NA,"Cass County","Minnesota","Outlying"
"805",805,56309,27051,51,27,NA,NA,NA,NA,NA,NA,NA,NA,NA,NA
"806",806,56309,27111,111,27,22260,NA,NA,"Fergus Falls, MN","Micropolitan Statistical Area",NA,NA,"Otter Tail County","Minnesota","Central"
"807",807,56309,27041,41,27,10820,NA,NA,"Alexandria, MN","Micropolitan Statistical Area",NA,NA,"Douglas County","Minnesota","Central"
"808",808,56122,27105,105,27,49380,NA,NA,"Worthington, MN","Micropolitan Statistical Area",NA,NA,"Nobles County","Minnesota","Central"
"809",809,56122,27101,101,27,NA,NA,NA,NA,NA,NA,NA,NA,NA,NA
"810",810,56172,27101,101,27,NA,NA,NA,NA,NA,NA,NA,NA,NA,NA
"811",811,56601,27057,57,27,NA,NA,NA,NA,NA,NA,NA,NA,NA,NA
"812",812,56601,27007,7,27,13420,NA,NA,"Bemidji, MN","Micropolitan Statistical Area",NA,NA,"Beltrami County","Minnesota","Central"
"813",813,56569,27005,5,27,NA,NA,NA,NA,NA,NA,NA,NA,NA,NA
"814",814,55726,27017,17,27,20260,NA,NA,"Duluth, MN-WI","Metropolitan Statistical Area",NA,NA,"Carlton County","Minnesota","Outlying"
"815",815,56315,27111,111,27,22260,NA,NA,"Fergus Falls, MN","Micropolitan Statistical Area",NA,NA,"Otter Tail County","Minnesota","Central"
"816",816,56315,27041,41,27,10820,NA,NA,"Alexandria, MN","Micropolitan Statistical Area",NA,NA,"Douglas County","Minnesota","Central"
"817",817,56214,27127,127,27,NA,NA,NA,NA,NA,NA,NA,NA,NA,NA
"818",818,56214,27173,173,27,NA,NA,NA,NA,NA,NA,NA,NA,NA,NA
"819",819,56553,27167,167,27,47420,NA,244,"Wahpeton, ND-MN","Micropolitan Statistical Area",NA,"Fargo-Wahpeton, ND-MN","Wilkin County","Minnesota","Outlying"
"820",820,56540,27087,87,27,NA,NA,NA,NA,NA,NA,NA,NA,NA,NA
"821",821,56540,27107,107,27,NA,NA,NA,NA,NA,NA,NA,NA,NA,NA
"822",822,56540,27119,119,27,24220,NA,NA,"Grand Forks, ND-MN","Metropolitan Statistical Area",NA,NA,"Polk County","Minnesota","Central"
"823",823,56652,27029,29,27,NA,NA,NA,NA,NA,NA,NA,NA,NA,NA
"824",824,56652,27007,7,27,13420,NA,NA,"Bemidji, MN","Micropolitan Statistical Area",NA,NA,"Beltrami County","Minnesota","Central"
"825",825,55090,27163,163,27,33460,NA,378,"Minneapolis-St. Paul-Bloomington, MN-WI","Metropolitan Statistical Area",NA,"Minneapolis-St. Paul, MN-WI","Washington County","Minnesota","Central"
"826",826,56161,27063,63,27,NA,NA,NA,NA,NA,NA,NA,NA,NA,NA
"827",827,56761,27135,135,27,NA,NA,NA,NA,NA,NA,NA,NA,NA,NA
"828",828,55758,27137,137,27,20260,NA,NA,"Duluth, MN-WI","Metropolitan Statistical Area",NA,NA,"St. Louis County","Minnesota","Central"
"829",829,56566,27087,87,27,NA,NA,NA,NA,NA,NA,NA,NA,NA,NA
"830",830,56056,27165,165,27,NA,NA,NA,NA,NA,NA,NA,NA,NA,NA
"831",831,55377,27141,141,27,33460,NA,378,"Minneapolis-St. Paul-Bloomington, MN-WI","Metropolitan Statistical Area",NA,"Minneapolis-St. Paul, MN-WI","Sherburne County","Minnesota","Central"
"832",832,55404,27053,53,27,33460,NA,378,"Minneapolis-St. Paul-Bloomington, MN-WI","Metropolitan Statistical Area",NA,"Minneapolis-St. Paul, MN-WI","Hennepin County","Minnesota","Central"
"833",833,55403,27053,53,27,33460,NA,378,"Minneapolis-St. Paul-Bloomington, MN-WI","Metropolitan Statistical Area",NA,"Minneapolis-St. Paul, MN-WI","Hennepin County","Minnesota","Central"
"834",834,55751,27137,137,27,20260,NA,NA,"Duluth, MN-WI","Metropolitan Statistical Area",NA,NA,"St. Louis County","Minnesota","Central"
"835",835,55925,27169,169,27,49100,NA,NA,"Winona, MN","Micropolitan Statistical Area",NA,NA,"Winona County","Minnesota","Central"
"836",836,55388,27053,53,27,33460,NA,378,"Minneapolis-St. Paul-Bloomington, MN-WI","Metropolitan Statistical Area",NA,"Minneapolis-St. Paul, MN-WI","Hennepin County","Minnesota","Central"
"837",837,55388,27019,19,27,33460,NA,378,"Minneapolis-St. Paul-Bloomington, MN-WI","Metropolitan Statistical Area",NA,"Minneapolis-St. Paul, MN-WI","Carver County","Minnesota","Central"
"838",838,55388,27171,171,27,33460,NA,378,"Minneapolis-St. Paul-Bloomington, MN-WI","Metropolitan Statistical Area",NA,"Minneapolis-St. Paul, MN-WI","Wright County","Minnesota","Central"
"839",839,55026,27049,49,27,39860,NA,378,"Red Wing, MN","Micropolitan Statistical Area",NA,"Minneapolis-St. Paul, MN-WI","Goodhue County","Minnesota","Central"
"840",840,55427,27053,53,27,33460,NA,378,"Minneapolis-St. Paul-Bloomington, MN-WI","Metropolitan Statistical Area",NA,"Minneapolis-St. Paul, MN-WI","Hennepin County","Minnesota","Central"
"841",841,55313,27171,171,27,33460,NA,378,"Minneapolis-St. Paul-Bloomington, MN-WI","Metropolitan Statistical Area",NA,"Minneapolis-St. Paul, MN-WI","Wright County","Minnesota","Central"
"842",842,55331,27053,53,27,33460,NA,378,"Minneapolis-St. Paul-Bloomington, MN-WI","Metropolitan Statistical Area",NA,"Minneapolis-St. Paul, MN-WI","Hennepin County","Minnesota","Central"
"843",843,55331,27019,19,27,33460,NA,378,"Minneapolis-St. Paul-Bloomington, MN-WI","Metropolitan Statistical Area",NA,"Minneapolis-St. Paul, MN-WI","Carver County","Minnesota","Central"
"844",844,55949,27045,45,27,40340,NA,462,"Rochester, MN","Metropolitan Statistical Area",NA,"Rochester-Austin, MN","Fillmore County","Minnesota","Outlying"
"845",845,55960,27157,157,27,40340,NA,462,"Rochester, MN","Metropolitan Statistical Area",NA,"Rochester-Austin, MN","Wabasha County","Minnesota","Outlying"
"846",846,55960,27109,109,27,40340,NA,462,"Rochester, MN","Metropolitan Statistical Area",NA,"Rochester-Austin, MN","Olmsted County","Minnesota","Central"
"847",847,56686,27077,77,27,NA,NA,NA,NA,NA,NA,NA,NA,NA,NA
"848",848,56342,27001,1,27,NA,NA,NA,NA,NA,NA,NA,NA,NA,NA
"849",849,56342,27065,65,27,NA,NA,NA,NA,NA,NA,NA,NA,NA,NA
"850",850,56342,27095,95,27,33460,NA,378,"Minneapolis-St. Paul-Bloomington, MN-WI","Metropolitan Statistical Area",NA,"Minneapolis-St. Paul, MN-WI","Mille Lacs County","Minnesota","Outlying"
"851",851,56357,27009,9,27,41060,NA,378,"St. Cloud, MN","Metropolitan Statistical Area",NA,"Minneapolis-St. Paul, MN-WI","Benton County","Minnesota","Central"
"852",852,56357,27095,95,27,33460,NA,378,"Minneapolis-St. Paul-Bloomington, MN-WI","Metropolitan Statistical Area",NA,"Minneapolis-St. Paul, MN-WI","Mille Lacs County","Minnesota","Outlying"
"853",853,56187,27063,63,27,NA,NA,NA,NA,NA,NA,NA,NA,NA,NA
"854",854,56187,27105,105,27,49380,NA,NA,"Worthington, MN","Micropolitan Statistical Area",NA,NA,"Nobles County","Minnesota","Central"
"855",855,56304,27009,9,27,41060,NA,378,"St. Cloud, MN","Metropolitan Statistical Area",NA,"Minneapolis-St. Paul, MN-WI","Benton County","Minnesota","Central"
"856",856,56304,27141,141,27,33460,NA,378,"Minneapolis-St. Paul-Bloomington, MN-WI","Metropolitan Statistical Area",NA,"Minneapolis-St. Paul, MN-WI","Sherburne County","Minnesota","Central"
"857",857,56279,27067,67,27,48820,NA,NA,"Willmar, MN","Micropolitan Statistical Area",NA,NA,"Kandiyohi County","Minnesota","Central"
"858",858,56535,27125,125,27,NA,NA,NA,NA,NA,NA,NA,NA,NA,NA
"859",859,56535,27119,119,27,24220,NA,NA,"Grand Forks, ND-MN","Metropolitan Statistical Area",NA,NA,"Polk County","Minnesota","Central"
"860",860,56667,27007,7,27,13420,NA,NA,"Bemidji, MN","Micropolitan Statistical Area",NA,NA,"Beltrami County","Minnesota","Central"
"861",861,56282,27067,67,27,48820,NA,NA,"Willmar, MN","Micropolitan Statistical Area",NA,NA,"Kandiyohi County","Minnesota","Central"
"862",862,56282,27023,23,27,NA,NA,NA,NA,NA,NA,NA,NA,NA,NA
"863",863,55955,27109,109,27,40340,NA,462,"Rochester, MN","Metropolitan Statistical Area",NA,"Rochester-Austin, MN","Olmsted County","Minnesota","Central"
"864",864,55955,27039,39,27,40340,NA,462,"Rochester, MN","Metropolitan Statistical Area",NA,"Rochester-Austin, MN","Dodge County","Minnesota","Outlying"
"865",865,56523,27119,119,27,24220,NA,NA,"Grand Forks, ND-MN","Metropolitan Statistical Area",NA,NA,"Polk County","Minnesota","Central"
"866",866,55725,27137,137,27,20260,NA,NA,"Duluth, MN-WI","Metropolitan Statistical Area",NA,NA,"St. Louis County","Minnesota","Central"
"867",867,56160,27091,91,27,21860,NA,NA,"Fairmont, MN","Micropolitan Statistical Area",NA,NA,"Martin County","Minnesota","Central"
"868",868,56160,27063,63,27,NA,NA,NA,NA,NA,NA,NA,NA,NA,NA
"869",869,56160,27165,165,27,NA,NA,NA,NA,NA,NA,NA,NA,NA,NA
"870",870,56022,27165,165,27,NA,NA,NA,NA,NA,NA,NA,NA,NA,NA
"871",871,56658,27071,71,27,NA,NA,NA,NA,NA,NA,NA,NA,NA,NA
"872",872,56679,27071,71,27,NA,NA,NA,NA,NA,NA,NA,NA,NA,NA
"873",873,55609,27075,75,27,20260,NA,NA,"Duluth, MN-WI","Metropolitan Statistical Area",NA,NA,"Lake County","Minnesota","Outlying"
"874",874,55408,27053,53,27,33460,NA,378,"Minneapolis-St. Paul-Bloomington, MN-WI","Metropolitan Statistical Area",NA,"Minneapolis-St. Paul, MN-WI","Hennepin County","Minnesota","Central"
"875",875,55401,27053,53,27,33460,NA,378,"Minneapolis-St. Paul-Bloomington, MN-WI","Metropolitan Statistical Area",NA,"Minneapolis-St. Paul, MN-WI","Hennepin County","Minnesota","Central"
"876",876,55414,27053,53,27,33460,NA,378,"Minneapolis-St. Paul-Bloomington, MN-WI","Metropolitan Statistical Area",NA,"Minneapolis-St. Paul, MN-WI","Hennepin County","Minnesota","Central"
"877",877,55412,27053,53,27,33460,NA,378,"Minneapolis-St. Paul-Bloomington, MN-WI","Metropolitan Statistical Area",NA,"Minneapolis-St. Paul, MN-WI","Hennepin County","Minnesota","Central"
"878",878,55735,27115,115,27,NA,NA,NA,NA,NA,NA,NA,NA,NA,NA
"879",879,55735,27001,1,27,NA,NA,NA,NA,NA,NA,NA,NA,NA,NA
"880",880,55903,27109,109,27,40340,NA,462,"Rochester, MN","Metropolitan Statistical Area",NA,"Rochester-Austin, MN","Olmsted County","Minnesota","Central"
"881",881,55362,27171,171,27,33460,NA,378,"Minneapolis-St. Paul-Bloomington, MN-WI","Metropolitan Statistical Area",NA,"Minneapolis-St. Paul, MN-WI","Wright County","Minnesota","Central"
"882",882,55364,27053,53,27,33460,NA,378,"Minneapolis-St. Paul-Bloomington, MN-WI","Metropolitan Statistical Area",NA,"Minneapolis-St. Paul, MN-WI","Hennepin County","Minnesota","Central"
"883",883,55089,27049,49,27,39860,NA,378,"Red Wing, MN","Micropolitan Statistical Area",NA,"Minneapolis-St. Paul, MN-WI","Goodhue County","Minnesota","Central"
"884",884,55089,27037,37,27,33460,NA,378,"Minneapolis-St. Paul-Bloomington, MN-WI","Metropolitan Statistical Area",NA,"Minneapolis-St. Paul, MN-WI","Dakota County","Minnesota","Central"
"885",885,55445,27053,53,27,33460,NA,378,"Minneapolis-St. Paul-Bloomington, MN-WI","Metropolitan Statistical Area",NA,"Minneapolis-St. Paul, MN-WI","Hennepin County","Minnesota","Central"
"886",886,55430,27053,53,27,33460,NA,378,"Minneapolis-St. Paul-Bloomington, MN-WI","Metropolitan Statistical Area",NA,"Minneapolis-St. Paul, MN-WI","Hennepin County","Minnesota","Central"
"887",887,55709,27061,61,27,24330,NA,NA,"Grand Rapids, MN","Micropolitan Statistical Area",NA,NA,"Itasca County","Minnesota","Central"
"888",888,55311,27053,53,27,33460,NA,378,"Minneapolis-St. Paul-Bloomington, MN-WI","Metropolitan Statistical Area",NA,"Minneapolis-St. Paul, MN-WI","Hennepin County","Minnesota","Central"
"889",889,56028,27161,161,27,NA,NA,NA,NA,NA,NA,NA,NA,NA,NA
"890",890,56028,27079,79,27,33460,NA,378,"Minneapolis-St. Paul-Bloomington, MN-WI","Metropolitan Statistical Area",NA,"Minneapolis-St. Paul, MN-WI","Le Sueur County","Minnesota","Outlying"
"891",891,56324,27051,51,27,NA,NA,NA,NA,NA,NA,NA,NA,NA,NA
"892",892,56324,27111,111,27,22260,NA,NA,"Fergus Falls, MN","Micropolitan Statistical Area",NA,NA,"Otter Tail County","Minnesota","Central"
"893",893,56235,27051,51,27,NA,NA,NA,NA,NA,NA,NA,NA,NA,NA
"894",894,56235,27149,149,27,NA,NA,NA,NA,NA,NA,NA,NA,NA,NA
"895",895,56101,27033,33,27,NA,NA,NA,NA,NA,NA,NA,NA,NA,NA
"896",896,56101,27063,63,27,NA,NA,NA,NA,NA,NA,NA,NA,NA,NA
"897",897,56288,27067,67,27,48820,NA,NA,"Willmar, MN","Micropolitan Statistical Area",NA,NA,"Kandiyohi County","Minnesota","Central"
"898",898,56222,27067,67,27,48820,NA,NA,"Willmar, MN","Micropolitan Statistical Area",NA,NA,"Kandiyohi County","Minnesota","Central"
"899",899,56222,27023,23,27,NA,NA,NA,NA,NA,NA,NA,NA,NA,NA
"900",900,56232,27073,73,27,NA,NA,NA,NA,NA,NA,NA,NA,NA,NA
"901",901,56501,27005,5,27,NA,NA,NA,NA,NA,NA,NA,NA,NA,NA
"902",902,56501,27111,111,27,22260,NA,NA,"Fergus Falls, MN","Micropolitan Statistical Area",NA,NA,"Otter Tail County","Minnesota","Central"
"903",903,56531,27051,51,27,NA,NA,NA,NA,NA,NA,NA,NA,NA,NA
"904",904,56531,27111,111,27,22260,NA,NA,"Fergus Falls, MN","Micropolitan Statistical Area",NA,NA,"Otter Tail County","Minnesota","Central"
"905",905,56537,27051,51,27,NA,NA,NA,NA,NA,NA,NA,NA,NA,NA
"906",906,56537,27111,111,27,22260,NA,NA,"Fergus Falls, MN","Micropolitan Statistical Area",NA,NA,"Otter Tail County","Minnesota","Central"
"907",907,56649,27071,71,27,NA,NA,NA,NA,NA,NA,NA,NA,NA,NA
"908",908,55909,27099,99,27,12380,NA,462,"Austin, MN","Micropolitan Statistical Area",NA,"Rochester-Austin, MN","Mower County","Minnesota","Central"
"909",909,56223,27173,173,27,NA,NA,NA,NA,NA,NA,NA,NA,NA,NA
"910",910,56223,27073,73,27,NA,NA,NA,NA,NA,NA,NA,NA,NA,NA
"911",911,55017,27059,59,27,33460,NA,378,"Minneapolis-St. Paul-Bloomington, MN-WI","Metropolitan Statistical Area",NA,"Minneapolis-St. Paul, MN-WI","Isanti County","Minnesota","Outlying"
"912",912,55418,27123,123,27,33460,NA,378,"Minneapolis-St. Paul-Bloomington, MN-WI","Metropolitan Statistical Area",NA,"Minneapolis-St. Paul, MN-WI","Ramsey County","Minnesota","Central"
"913",913,55418,27053,53,27,33460,NA,378,"Minneapolis-St. Paul-Bloomington, MN-WI","Metropolitan Statistical Area",NA,"Minneapolis-St. Paul, MN-WI","Hennepin County","Minnesota","Central"
"914",914,55398,27141,141,27,33460,NA,378,"Minneapolis-St. Paul-Bloomington, MN-WI","Metropolitan Statistical Area",NA,"Minneapolis-St. Paul, MN-WI","Sherburne County","Minnesota","Central"
"915",915,55398,27003,3,27,33460,NA,378,"Minneapolis-St. Paul-Bloomington, MN-WI","Metropolitan Statistical Area",NA,"Minneapolis-St. Paul, MN-WI","Anoka County","Minnesota","Central"
"916",916,55398,27059,59,27,33460,NA,378,"Minneapolis-St. Paul-Bloomington, MN-WI","Metropolitan Statistical Area",NA,"Minneapolis-St. Paul, MN-WI","Isanti County","Minnesota","Outlying"
"917",917,55804,27137,137,27,20260,NA,NA,"Duluth, MN-WI","Metropolitan Statistical Area",NA,NA,"St. Louis County","Minnesota","Central"
"918",918,55805,27137,137,27,20260,NA,NA,"Duluth, MN-WI","Metropolitan Statistical Area",NA,NA,"St. Louis County","Minnesota","Central"
"919",919,55812,27137,137,27,20260,NA,NA,"Duluth, MN-WI","Metropolitan Statistical Area",NA,NA,"St. Louis County","Minnesota","Central"
"920",920,55926,27099,99,27,12380,NA,462,"Austin, MN","Micropolitan Statistical Area",NA,"Rochester-Austin, MN","Mower County","Minnesota","Central"
"921",921,55344,27053,53,27,33460,NA,378,"Minneapolis-St. Paul-Bloomington, MN-WI","Metropolitan Statistical Area",NA,"Minneapolis-St. Paul, MN-WI","Hennepin County","Minnesota","Central"
"922",922,55102,27123,123,27,33460,NA,378,"Minneapolis-St. Paul-Bloomington, MN-WI","Metropolitan Statistical Area",NA,"Minneapolis-St. Paul, MN-WI","Ramsey County","Minnesota","Central"
"923",923,55045,27025,25,27,33460,NA,378,"Minneapolis-St. Paul-Bloomington, MN-WI","Metropolitan Statistical Area",NA,"Minneapolis-St. Paul, MN-WI","Chisago County","Minnesota","Outlying"
"924",924,55438,27053,53,27,33460,NA,378,"Minneapolis-St. Paul-Bloomington, MN-WI","Metropolitan Statistical Area",NA,"Minneapolis-St. Paul, MN-WI","Hennepin County","Minnesota","Central"
"925",925,55705,27137,137,27,20260,NA,NA,"Duluth, MN-WI","Metropolitan Statistical Area",NA,NA,"St. Louis County","Minnesota","Central"
"926",926,55455,27053,53,27,33460,NA,378,"Minneapolis-St. Paul-Bloomington, MN-WI","Metropolitan Statistical Area",NA,"Minneapolis-St. Paul, MN-WI","Hennepin County","Minnesota","Central"
"927",927,56013,27043,43,27,NA,NA,NA,NA,NA,NA,NA,NA,NA,NA
"928",928,56013,27091,91,27,21860,NA,NA,"Fairmont, MN","Micropolitan Statistical Area",NA,NA,"Martin County","Minnesota","Central"
"929",929,56683,27007,7,27,13420,NA,NA,"Bemidji, MN","Micropolitan Statistical Area",NA,NA,"Beltrami County","Minnesota","Central"
"930",930,56379,27141,141,27,33460,NA,378,"Minneapolis-St. Paul-Bloomington, MN-WI","Metropolitan Statistical Area",NA,"Minneapolis-St. Paul, MN-WI","Sherburne County","Minnesota","Central"
"931",931,56379,27009,9,27,41060,NA,378,"St. Cloud, MN","Metropolitan Statistical Area",NA,"Minneapolis-St. Paul, MN-WI","Benton County","Minnesota","Central"
"932",932,56347,27097,97,27,NA,NA,NA,NA,NA,NA,NA,NA,NA,NA
"933",933,56347,27153,153,27,NA,NA,NA,NA,NA,NA,NA,NA,NA,NA
"934",934,56316,27145,145,27,41060,NA,378,"St. Cloud, MN","Metropolitan Statistical Area",NA,"Minneapolis-St. Paul, MN-WI","Stearns County","Minnesota","Central"
"935",935,56316,27121,121,27,NA,NA,NA,NA,NA,NA,NA,NA,NA,NA
"936",936,56316,27067,67,27,48820,NA,NA,"Willmar, MN","Micropolitan Statistical Area",NA,NA,"Kandiyohi County","Minnesota","Central"
"937",937,56239,27083,83,27,32140,NA,NA,"Marshall, MN","Micropolitan Statistical Area",NA,NA,"Lyon County","Minnesota","Central"
"938",938,56168,27105,105,27,49380,NA,NA,"Worthington, MN","Micropolitan Statistical Area",NA,NA,"Nobles County","Minnesota","Central"
"939",939,56090,27013,13,27,31860,NA,359,"Mankato, MN","Metropolitan Statistical Area",NA,"Mankato-New Ulm, MN","Blue Earth County","Minnesota","Central"
"940",940,56560,27167,167,27,47420,NA,244,"Wahpeton, ND-MN","Micropolitan Statistical Area",NA,"Fargo-Wahpeton, ND-MN","Wilkin County","Minnesota","Outlying"
"941",941,56560,27027,27,27,22020,NA,244,"Fargo, ND-MN","Metropolitan Statistical Area",NA,"Fargo-Wahpeton, ND-MN","Clay County","Minnesota","Central"
"942",942,55032,27059,59,27,33460,NA,378,"Minneapolis-St. Paul-Bloomington, MN-WI","Metropolitan Statistical Area",NA,"Minneapolis-St. Paul, MN-WI","Isanti County","Minnesota","Outlying"
"943",943,55032,27025,25,27,33460,NA,378,"Minneapolis-St. Paul-Bloomington, MN-WI","Metropolitan Statistical Area",NA,"Minneapolis-St. Paul, MN-WI","Chisago County","Minnesota","Outlying"
"944",944,56171,27091,91,27,21860,NA,NA,"Fairmont, MN","Micropolitan Statistical Area",NA,NA,"Martin County","Minnesota","Central"
"945",945,56517,27119,119,27,24220,NA,NA,"Grand Forks, ND-MN","Metropolitan Statistical Area",NA,NA,"Polk County","Minnesota","Central"
"946",946,55716,27061,61,27,24330,NA,NA,"Grand Rapids, MN","Micropolitan Statistical Area",NA,NA,"Itasca County","Minnesota","Central"
"947",947,56522,27167,167,27,47420,NA,244,"Wahpeton, ND-MN","Micropolitan Statistical Area",NA,"Fargo-Wahpeton, ND-MN","Wilkin County","Minnesota","Outlying"
"948",948,56522,27111,111,27,22260,NA,NA,"Fergus Falls, MN","Micropolitan Statistical Area",NA,NA,"Otter Tail County","Minnesota","Central"
"949",949,56522,27051,51,27,NA,NA,NA,NA,NA,NA,NA,NA,NA,NA
"950",950,55146,27123,123,27,33460,NA,378,"Minneapolis-St. Paul-Bloomington, MN-WI","Metropolitan Statistical Area",NA,"Minneapolis-St. Paul, MN-WI","Ramsey County","Minnesota","Central"
"951",951,56666,27007,7,27,13420,NA,NA,"Bemidji, MN","Micropolitan Statistical Area",NA,NA,"Beltrami County","Minnesota","Central"
"952",952,55768,27137,137,27,20260,NA,NA,"Duluth, MN-WI","Metropolitan Statistical Area",NA,NA,"St. Louis County","Minnesota","Central"
"953",953,55112,27003,3,27,33460,NA,378,"Minneapolis-St. Paul-Bloomington, MN-WI","Metropolitan Statistical Area",NA,"Minneapolis-St. Paul, MN-WI","Anoka County","Minnesota","Central"
"954",954,55112,27123,123,27,33460,NA,378,"Minneapolis-St. Paul-Bloomington, MN-WI","Metropolitan Statistical Area",NA,"Minneapolis-St. Paul, MN-WI","Ramsey County","Minnesota","Central"
"955",955,55114,27123,123,27,33460,NA,378,"Minneapolis-St. Paul-Bloomington, MN-WI","Metropolitan Statistical Area",NA,"Minneapolis-St. Paul, MN-WI","Ramsey County","Minnesota","Central"
"956",956,55068,27037,37,27,33460,NA,378,"Minneapolis-St. Paul-Bloomington, MN-WI","Metropolitan Statistical Area",NA,"Minneapolis-St. Paul, MN-WI","Dakota County","Minnesota","Central"
"957",957,55458,27053,53,27,33460,NA,378,"Minneapolis-St. Paul-Bloomington, MN-WI","Metropolitan Statistical Area",NA,"Minneapolis-St. Paul, MN-WI","Hennepin County","Minnesota","Central"
"958",958,55309,27141,141,27,33460,NA,378,"Minneapolis-St. Paul-Bloomington, MN-WI","Metropolitan Statistical Area",NA,"Minneapolis-St. Paul, MN-WI","Sherburne County","Minnesota","Central"
"959",959,56032,27047,47,27,10660,NA,NA,"Albert Lea, MN","Micropolitan Statistical Area",NA,NA,"Freeborn County","Minnesota","Central"
"960",960,56078,27013,13,27,31860,NA,359,"Mankato, MN","Metropolitan Statistical Area",NA,"Mankato-New Ulm, MN","Blue Earth County","Minnesota","Central"
"961",961,56078,27161,161,27,NA,NA,NA,NA,NA,NA,NA,NA,NA,NA
"962",962,56081,27165,165,27,NA,NA,NA,NA,NA,NA,NA,NA,NA,NA
"963",963,56081,27015,15,27,35580,NA,359,"New Ulm, MN","Micropolitan Statistical Area",NA,"Mankato-New Ulm, MN","Brown County","Minnesota","Central"
"964",964,55941,27055,55,27,29100,NA,NA,"La Crosse-Onalaska, WI-MN","Metropolitan Statistical Area",NA,NA,"Houston County","Minnesota","Central"
"965",965,56450,27035,35,27,14660,NA,NA,"Brainerd, MN","Micropolitan Statistical Area",NA,NA,"Crow Wing County","Minnesota","Central"
"966",966,56450,27095,95,27,33460,NA,378,"Minneapolis-St. Paul-Bloomington, MN-WI","Metropolitan Statistical Area",NA,"Minneapolis-St. Paul, MN-WI","Mille Lacs County","Minnesota","Outlying"
"967",967,56244,27151,151,27,NA,NA,NA,NA,NA,NA,NA,NA,NA,NA
"968",968,56244,27121,121,27,NA,NA,NA,NA,NA,NA,NA,NA,NA,NA
"969",969,56244,27149,149,27,NA,NA,NA,NA,NA,NA,NA,NA,NA,NA
"970",970,56186,27117,117,27,NA,NA,NA,NA,NA,NA,NA,NA,NA,NA
"971",971,56186,27101,101,27,NA,NA,NA,NA,NA,NA,NA,NA,NA,NA
"972",972,56479,27021,21,27,14660,NA,NA,"Brainerd, MN","Micropolitan Statistical Area",NA,NA,"Cass County","Minnesota","Outlying"
"973",973,56479,27153,153,27,NA,NA,NA,NA,NA,NA,NA,NA,NA,NA
"974",974,56479,27159,159,27,NA,NA,NA,NA,NA,NA,NA,NA,NA,NA
"975",975,56573,27111,111,27,22260,NA,NA,"Fergus Falls, MN","Micropolitan Statistical Area",NA,NA,"Otter Tail County","Minnesota","Central"
"976",976,56511,27005,5,27,NA,NA,NA,NA,NA,NA,NA,NA,NA,NA
"977",977,55738,27137,137,27,20260,NA,NA,"Duluth, MN-WI","Metropolitan Statistical Area",NA,NA,"St. Louis County","Minnesota","Central"
"978",978,56661,27007,7,27,13420,NA,NA,"Bemidji, MN","Micropolitan Statistical Area",NA,NA,"Beltrami County","Minnesota","Central"
"979",979,56661,27071,71,27,NA,NA,NA,NA,NA,NA,NA,NA,NA,NA
"980",980,56661,27061,61,27,24330,NA,NA,"Grand Rapids, MN","Micropolitan Statistical Area",NA,NA,"Itasca County","Minnesota","Central"
"981",981,56027,27043,43,27,NA,NA,NA,NA,NA,NA,NA,NA,NA,NA
"982",982,56027,27091,91,27,21860,NA,NA,"Fairmont, MN","Micropolitan Statistical Area",NA,NA,"Martin County","Minnesota","Central"
"983",983,56236,27155,155,27,NA,NA,NA,NA,NA,NA,NA,NA,NA,NA
"984",984,56236,27011,11,27,NA,NA,NA,NA,NA,NA,NA,NA,NA,NA
"985",985,56644,27029,29,27,NA,NA,NA,NA,NA,NA,NA,NA,NA,NA
"986",986,56644,27119,119,27,24220,NA,NA,"Grand Forks, ND-MN","Metropolitan Statistical Area",NA,NA,"Polk County","Minnesota","Central"
"987",987,56473,27097,97,27,NA,NA,NA,NA,NA,NA,NA,NA,NA,NA
"988",988,56473,27021,21,27,14660,NA,NA,"Brainerd, MN","Micropolitan Statistical Area",NA,NA,"Cass County","Minnesota","Outlying"
"989",989,55717,27137,137,27,20260,NA,NA,"Duluth, MN-WI","Metropolitan Statistical Area",NA,NA,"St. Louis County","Minnesota","Central"
"990",990,56293,27127,127,27,NA,NA,NA,NA,NA,NA,NA,NA,NA,NA
"991",991,55480,27053,53,27,33460,NA,378,"Minneapolis-St. Paul-Bloomington, MN-WI","Metropolitan Statistical Area",NA,"Minneapolis-St. Paul, MN-WI","Hennepin County","Minnesota","Central"
"992",992,56356,27145,145,27,41060,NA,378,"St. Cloud, MN","Metropolitan Statistical Area",NA,"Minneapolis-St. Paul, MN-WI","Stearns County","Minnesota","Central"
"993",993,55802,27137,137,27,20260,NA,NA,"Duluth, MN-WI","Metropolitan Statistical Area",NA,NA,"St. Louis County","Minnesota","Central"
"994",994,55376,27171,171,27,33460,NA,378,"Minneapolis-St. Paul-Bloomington, MN-WI","Metropolitan Statistical Area",NA,"Minneapolis-St. Paul, MN-WI","Wright County","Minnesota","Central"
"995",995,55353,27145,145,27,41060,NA,378,"St. Cloud, MN","Metropolitan Statistical Area",NA,"Minneapolis-St. Paul, MN-WI","Stearns County","Minnesota","Central"
"996",996,55353,27093,93,27,NA,NA,NA,NA,NA,NA,NA,NA,NA,NA
"997",997,55111,27053,53,27,33460,NA,378,"Minneapolis-St. Paul-Bloomington, MN-WI","Metropolitan Statistical Area",NA,"Minneapolis-St. Paul, MN-WI","Hennepin County","Minnesota","Central"
"998",998,55041,27157,157,27,40340,NA,462,"Rochester, MN","Metropolitan Statistical Area",NA,"Rochester-Austin, MN","Wabasha County","Minnesota","Outlying"
"999",999,55041,27049,49,27,39860,NA,378,"Red Wing, MN","Micropolitan Statistical Area",NA,"Minneapolis-St. Paul, MN-WI","Goodhue County","Minnesota","Central"
"1000",1000,55070,27003,3,27,33460,NA,378,"Minneapolis-St. Paul-Bloomington, MN-WI","Metropolitan Statistical Area",NA,"Minneapolis-St. Paul, MN-WI","Anoka County","Minnesota","Central"
"1001",1001,55070,27059,59,27,33460,NA,378,"Minneapolis-St. Paul-Bloomington, MN-WI","Metropolitan Statistical Area",NA,"Minneapolis-St. Paul, MN-WI","Isanti County","Minnesota","Outlying"
"1002",1002,55708,27137,137,27,20260,NA,NA,"Duluth, MN-WI","Metropolitan Statistical Area",NA,NA,"St. Louis County","Minnesota","Central"
"1003",1003,55301,27171,171,27,33460,NA,378,"Minneapolis-St. Paul-Bloomington, MN-WI","Metropolitan Statistical Area",NA,"Minneapolis-St. Paul, MN-WI","Wright County","Minnesota","Central"
"1004",1004,55319,27141,141,27,33460,NA,378,"Minneapolis-St. Paul-Bloomington, MN-WI","Metropolitan Statistical Area",NA,"Minneapolis-St. Paul, MN-WI","Sherburne County","Minnesota","Central"
"1005",1005,55324,27093,93,27,NA,NA,NA,NA,NA,NA,NA,NA,NA,NA
"1006",1006,55990,27045,45,27,40340,NA,462,"Rochester, MN","Metropolitan Statistical Area",NA,"Rochester-Austin, MN","Fillmore County","Minnesota","Outlying"
"1007",1007,55972,27169,169,27,49100,NA,NA,"Winona, MN","Micropolitan Statistical Area",NA,NA,"Winona County","Minnesota","Central"
"1008",1008,55972,27109,109,27,40340,NA,462,"Rochester, MN","Metropolitan Statistical Area",NA,"Rochester-Austin, MN","Olmsted County","Minnesota","Central"
"1009",1009,56072,27043,43,27,NA,NA,NA,NA,NA,NA,NA,NA,NA,NA
"1010",1010,56072,27047,47,27,10660,NA,NA,"Albert Lea, MN","Micropolitan Statistical Area",NA,NA,"Freeborn County","Minnesota","Central"
"1011",1011,56072,27147,147,27,36940,NA,378,"Owatonna, MN","Micropolitan Statistical Area",NA,"Minneapolis-St. Paul, MN-WI","Steele County","Minnesota","Central"
"1012",1012,56072,27161,161,27,NA,NA,NA,NA,NA,NA,NA,NA,NA,NA
"1013",1013,56362,27145,145,27,41060,NA,378,"St. Cloud, MN","Metropolitan Statistical Area",NA,"Minneapolis-St. Paul, MN-WI","Stearns County","Minnesota","Central"
"1014",1014,56362,27067,67,27,48820,NA,NA,"Willmar, MN","Micropolitan Statistical Area",NA,NA,"Kandiyohi County","Minnesota","Central"
"1015",1015,56362,27093,93,27,NA,NA,NA,NA,NA,NA,NA,NA,NA,NA
"1016",1016,56360,27121,121,27,NA,NA,NA,NA,NA,NA,NA,NA,NA,NA
"1017",1017,56360,27145,145,27,41060,NA,378,"St. Cloud, MN","Metropolitan Statistical Area",NA,"Minneapolis-St. Paul, MN-WI","Stearns County","Minnesota","Central"
"1018",1018,56360,27153,153,27,NA,NA,NA,NA,NA,NA,NA,NA,NA,NA
"1019",1019,56360,27041,41,27,10820,NA,NA,"Alexandria, MN","Micropolitan Statistical Area",NA,NA,"Douglas County","Minnesota","Central"
"1020",1020,56447,27035,35,27,14660,NA,NA,"Brainerd, MN","Micropolitan Statistical Area",NA,NA,"Crow Wing County","Minnesota","Central"
"1021",1021,56208,27023,23,27,NA,NA,NA,NA,NA,NA,NA,NA,NA,NA
"1022",1022,56208,27011,11,27,NA,NA,NA,NA,NA,NA,NA,NA,NA,NA
"1023",1023,56208,27073,73,27,NA,NA,NA,NA,NA,NA,NA,NA,NA,NA
"1024",1024,56208,27151,151,27,NA,NA,NA,NA,NA,NA,NA,NA,NA,NA
"1025",1025,56267,27149,149,27,NA,NA,NA,NA,NA,NA,NA,NA,NA,NA
"1026",1026,56256,27173,173,27,NA,NA,NA,NA,NA,NA,NA,NA,NA,NA
"1027",1027,56256,27073,73,27,NA,NA,NA,NA,NA,NA,NA,NA,NA,NA
"1028",1028,56542,27087,87,27,NA,NA,NA,NA,NA,NA,NA,NA,NA,NA
"1029",1029,56542,27119,119,27,24220,NA,NA,"Grand Forks, ND-MN","Metropolitan Statistical Area",NA,NA,"Polk County","Minnesota","Central"
"1030",1030,56468,27021,21,27,14660,NA,NA,"Brainerd, MN","Micropolitan Statistical Area",NA,NA,"Cass County","Minnesota","Outlying"
"1031",1031,56468,27035,35,27,14660,NA,NA,"Brainerd, MN","Micropolitan Statistical Area",NA,NA,"Crow Wing County","Minnesota","Central"
"1032",1032,55615,27031,31,27,NA,NA,NA,NA,NA,NA,NA,NA,NA,NA
"1033",1033,56760,27089,89,27,NA,NA,NA,NA,NA,NA,NA,NA,NA,NA
"1034",1034,56760,27113,113,27,NA,NA,NA,NA,NA,NA,NA,NA,NA,NA
"1035",1035,56724,27089,89,27,NA,NA,NA,NA,NA,NA,NA,NA,NA,NA
"1036",1036,56453,27111,111,27,22260,NA,NA,"Fergus Falls, MN","Micropolitan Statistical Area",NA,NA,"Otter Tail County","Minnesota","Central"
"1037",1037,56453,27153,153,27,NA,NA,NA,NA,NA,NA,NA,NA,NA,NA
"1038",1038,56167,27105,105,27,49380,NA,NA,"Worthington, MN","Micropolitan Statistical Area",NA,NA,"Nobles County","Minnesota","Central"
"1039",1039,56167,27063,63,27,NA,NA,NA,NA,NA,NA,NA,NA,NA,NA
"1040",1040,56311,27051,51,27,NA,NA,NA,NA,NA,NA,NA,NA,NA,NA
"1041",1041,55782,27137,137,27,20260,NA,NA,"Duluth, MN-WI","Metropolitan Statistical Area",NA,NA,"St. Louis County","Minnesota","Central"
"1042",1042,56313,27095,95,27,33460,NA,378,"Minneapolis-St. Paul-Bloomington, MN-WI","Metropolitan Statistical Area",NA,"Minneapolis-St. Paul, MN-WI","Mille Lacs County","Minnesota","Outlying"
"1043",1043,56563,27027,27,27,22020,NA,244,"Fargo, ND-MN","Metropolitan Statistical Area",NA,"Fargo-Wahpeton, ND-MN","Clay County","Minnesota","Central"
"1044",1044,56294,27127,127,27,NA,NA,NA,NA,NA,NA,NA,NA,NA,NA
"1045",1045,56565,27155,155,27,NA,NA,NA,NA,NA,NA,NA,NA,NA,NA
"1046",1046,56565,27167,167,27,47420,NA,244,"Wahpeton, ND-MN","Micropolitan Statistical Area",NA,"Fargo-Wahpeton, ND-MN","Wilkin County","Minnesota","Outlying"
"1047",1047,56075,27091,91,27,21860,NA,NA,"Fairmont, MN","Micropolitan Statistical Area",NA,NA,"Martin County","Minnesota","Central"
"1048",1048,55413,27053,53,27,33460,NA,378,"Minneapolis-St. Paul-Bloomington, MN-WI","Metropolitan Statistical Area",NA,"Minneapolis-St. Paul, MN-WI","Hennepin County","Minnesota","Central"
"1049",1049,55917,27047,47,27,10660,NA,NA,"Albert Lea, MN","Micropolitan Statistical Area",NA,NA,"Freeborn County","Minnesota","Central"
"1050",1050,55917,27039,39,27,40340,NA,462,"Rochester, MN","Metropolitan Statistical Area",NA,"Rochester-Austin, MN","Dodge County","Minnesota","Outlying"
"1051",1051,55917,27147,147,27,36940,NA,378,"Owatonna, MN","Micropolitan Statistical Area",NA,"Minneapolis-St. Paul, MN-WI","Steele County","Minnesota","Central"
"1052",1052,55917,27099,99,27,12380,NA,462,"Austin, MN","Micropolitan Statistical Area",NA,"Rochester-Austin, MN","Mower County","Minnesota","Central"
"1053",1053,55336,27143,143,27,NA,NA,NA,NA,NA,NA,NA,NA,NA,NA
"1054",1054,55336,27085,85,27,26780,NA,378,"Hutchinson, MN","Micropolitan Statistical Area",NA,"Minneapolis-St. Paul, MN-WI","McLeod County","Minnesota","Central"
"1055",1055,55396,27085,85,27,26780,NA,378,"Hutchinson, MN","Micropolitan Statistical Area",NA,"Minneapolis-St. Paul, MN-WI","McLeod County","Minnesota","Central"
"1056",1056,55396,27143,143,27,NA,NA,NA,NA,NA,NA,NA,NA,NA,NA
"1057",1057,55378,27139,139,27,33460,NA,378,"Minneapolis-St. Paul-Bloomington, MN-WI","Metropolitan Statistical Area",NA,"Minneapolis-St. Paul, MN-WI","Scott County","Minnesota","Central"
"1058",1058,55378,27037,37,27,33460,NA,378,"Minneapolis-St. Paul-Bloomington, MN-WI","Metropolitan Statistical Area",NA,"Minneapolis-St. Paul, MN-WI","Dakota County","Minnesota","Central"
"1059",1059,55060,27147,147,27,36940,NA,378,"Owatonna, MN","Micropolitan Statistical Area",NA,"Minneapolis-St. Paul, MN-WI","Steele County","Minnesota","Central"
"1060",1060,55072,27001,1,27,NA,NA,NA,NA,NA,NA,NA,NA,NA,NA
"1061",1061,55072,27115,115,27,NA,NA,NA,NA,NA,NA,NA,NA,NA,NA
"1062",1062,55072,27065,65,27,NA,NA,NA,NA,NA,NA,NA,NA,NA,NA
"1063",1063,55125,27163,163,27,33460,NA,378,"Minneapolis-St. Paul-Bloomington, MN-WI","Metropolitan Statistical Area",NA,"Minneapolis-St. Paul, MN-WI","Washington County","Minnesota","Central"
"1064",1064,55125,27123,123,27,33460,NA,378,"Minneapolis-St. Paul-Bloomington, MN-WI","Metropolitan Statistical Area",NA,"Minneapolis-St. Paul, MN-WI","Ramsey County","Minnesota","Central"
"1065",1065,55126,27123,123,27,33460,NA,378,"Minneapolis-St. Paul-Bloomington, MN-WI","Metropolitan Statistical Area",NA,"Minneapolis-St. Paul, MN-WI","Ramsey County","Minnesota","Central"
"1066",1066,55126,27003,3,27,33460,NA,378,"Minneapolis-St. Paul-Bloomington, MN-WI","Metropolitan Statistical Area",NA,"Minneapolis-St. Paul, MN-WI","Anoka County","Minnesota","Central"
"1067",1067,55318,27019,19,27,33460,NA,378,"Minneapolis-St. Paul-Bloomington, MN-WI","Metropolitan Statistical Area",NA,"Minneapolis-St. Paul, MN-WI","Carver County","Minnesota","Central"
"1068",1068,56003,27103,103,27,31860,NA,359,"Mankato, MN","Metropolitan Statistical Area",NA,"Mankato-New Ulm, MN","Nicollet County","Minnesota","Central"
"1069",1069,56003,27013,13,27,31860,NA,359,"Mankato, MN","Metropolitan Statistical Area",NA,"Mankato-New Ulm, MN","Blue Earth County","Minnesota","Central"
"1070",1070,56007,27047,47,27,10660,NA,NA,"Albert Lea, MN","Micropolitan Statistical Area",NA,NA,"Freeborn County","Minnesota","Central"
"1071",1071,55951,27099,99,27,12380,NA,462,"Austin, MN","Micropolitan Statistical Area",NA,"Rochester-Austin, MN","Mower County","Minnesota","Central"
"1072",1072,55951,27045,45,27,40340,NA,462,"Rochester, MN","Metropolitan Statistical Area",NA,"Rochester-Austin, MN","Fillmore County","Minnesota","Outlying"
"1073",1073,56723,27119,119,27,24220,NA,NA,"Grand Forks, ND-MN","Metropolitan Statistical Area",NA,NA,"Polk County","Minnesota","Central"
"1074",1074,56440,27153,153,27,NA,NA,NA,NA,NA,NA,NA,NA,NA,NA
"1075",1075,56444,27001,1,27,NA,NA,NA,NA,NA,NA,NA,NA,NA,NA
"1076",1076,56444,27035,35,27,14660,NA,NA,"Brainerd, MN","Micropolitan Statistical Area",NA,NA,"Crow Wing County","Minnesota","Central"
"1077",1077,56175,27083,83,27,32140,NA,NA,"Marshall, MN","Micropolitan Statistical Area",NA,NA,"Lyon County","Minnesota","Central"
"1078",1078,56175,27101,101,27,NA,NA,NA,NA,NA,NA,NA,NA,NA,NA
"1079",1079,56175,27127,127,27,NA,NA,NA,NA,NA,NA,NA,NA,NA,NA
"1080",1080,56117,27105,105,27,49380,NA,NA,"Worthington, MN","Micropolitan Statistical Area",NA,NA,"Nobles County","Minnesota","Central"
"1081",1081,56180,27033,33,27,NA,NA,NA,NA,NA,NA,NA,NA,NA,NA
"1082",1082,56180,27127,127,27,NA,NA,NA,NA,NA,NA,NA,NA,NA,NA
"1083",1083,56180,27101,101,27,NA,NA,NA,NA,NA,NA,NA,NA,NA,NA
"1084",1084,56215,27151,151,27,NA,NA,NA,NA,NA,NA,NA,NA,NA,NA
"1085",1085,56215,27023,23,27,NA,NA,NA,NA,NA,NA,NA,NA,NA,NA
"1086",1086,56215,27121,121,27,NA,NA,NA,NA,NA,NA,NA,NA,NA,NA
"1087",1087,56145,27033,33,27,NA,NA,NA,NA,NA,NA,NA,NA,NA,NA
"1088",1088,56588,27111,111,27,22260,NA,NA,"Fergus Falls, MN","Micropolitan Statistical Area",NA,NA,"Otter Tail County","Minnesota","Central"
"1089",1089,55742,27061,61,27,24330,NA,NA,"Grand Rapids, MN","Micropolitan Statistical Area",NA,NA,"Itasca County","Minnesota","Central"
"1090",1090,55367,27085,85,27,26780,NA,378,"Hutchinson, MN","Micropolitan Statistical Area",NA,"Minneapolis-St. Paul, MN-WI","McLeod County","Minnesota","Central"
"1091",1091,55367,27019,19,27,33460,NA,378,"Minneapolis-St. Paul-Bloomington, MN-WI","Metropolitan Statistical Area",NA,"Minneapolis-St. Paul, MN-WI","Carver County","Minnesota","Central"
"1092",1092,55953,27047,47,27,10660,NA,NA,"Albert Lea, MN","Micropolitan Statistical Area",NA,NA,"Freeborn County","Minnesota","Central"
"1093",1093,55953,27099,99,27,12380,NA,462,"Austin, MN","Micropolitan Statistical Area",NA,"Rochester-Austin, MN","Mower County","Minnesota","Central"
"1094",1094,56123,27101,101,27,NA,NA,NA,NA,NA,NA,NA,NA,NA,NA
"1095",1095,56650,27007,7,27,13420,NA,NA,"Bemidji, MN","Micropolitan Statistical Area",NA,NA,"Beltrami County","Minnesota","Central"
"1096",1096,55753,27061,61,27,24330,NA,NA,"Grand Rapids, MN","Micropolitan Statistical Area",NA,NA,"Itasca County","Minnesota","Central"
"1097",1097,56176,27091,91,27,21860,NA,NA,"Fairmont, MN","Micropolitan Statistical Area",NA,NA,"Martin County","Minnesota","Central"
"1098",1098,56149,27117,117,27,NA,NA,NA,NA,NA,NA,NA,NA,NA,NA
"1099",1099,56149,27101,101,27,NA,NA,NA,NA,NA,NA,NA,NA,NA,NA
"1100",1100,56149,27081,81,27,NA,NA,NA,NA,NA,NA,NA,NA,NA,NA
"1101",1101,56754,27125,125,27,NA,NA,NA,NA,NA,NA,NA,NA,NA,NA
"1102",1102,56754,27113,113,27,NA,NA,NA,NA,NA,NA,NA,NA,NA,NA
"1103",1103,56436,27057,57,27,NA,NA,NA,NA,NA,NA,NA,NA,NA,NA
"1104",1104,55006,27025,25,27,33460,NA,378,"Minneapolis-St. Paul-Bloomington, MN-WI","Metropolitan Statistical Area",NA,"Minneapolis-St. Paul, MN-WI","Chisago County","Minnesota","Outlying"
"1105",1105,55006,27065,65,27,NA,NA,NA,NA,NA,NA,NA,NA,NA,NA
"1106",1106,55006,27059,59,27,33460,NA,378,"Minneapolis-St. Paul-Bloomington, MN-WI","Metropolitan Statistical Area",NA,"Minneapolis-St. Paul, MN-WI","Isanti County","Minnesota","Outlying"
"1107",1107,55006,27115,115,27,NA,NA,NA,NA,NA,NA,NA,NA,NA,NA
"1108",1108,55910,27169,169,27,49100,NA,NA,"Winona, MN","Micropolitan Statistical Area",NA,NA,"Winona County","Minnesota","Central"
"1109",1109,55910,27157,157,27,40340,NA,462,"Rochester, MN","Metropolitan Statistical Area",NA,"Rochester-Austin, MN","Wabasha County","Minnesota","Outlying"
"1110",1110,55397,27085,85,27,26780,NA,378,"Hutchinson, MN","Micropolitan Statistical Area",NA,"Minneapolis-St. Paul, MN-WI","McLeod County","Minnesota","Central"
"1111",1111,55397,27019,19,27,33460,NA,378,"Minneapolis-St. Paul-Bloomington, MN-WI","Metropolitan Statistical Area",NA,"Minneapolis-St. Paul, MN-WI","Carver County","Minnesota","Central"
"1112",1112,55109,27163,163,27,33460,NA,378,"Minneapolis-St. Paul-Bloomington, MN-WI","Metropolitan Statistical Area",NA,"Minneapolis-St. Paul, MN-WI","Washington County","Minnesota","Central"
"1113",1113,55109,27123,123,27,33460,NA,378,"Minneapolis-St. Paul-Bloomington, MN-WI","Metropolitan Statistical Area",NA,"Minneapolis-St. Paul, MN-WI","Ramsey County","Minnesota","Central"
"1114",1114,55109,27037,37,27,33460,NA,378,"Minneapolis-St. Paul-Bloomington, MN-WI","Metropolitan Statistical Area",NA,"Minneapolis-St. Paul, MN-WI","Dakota County","Minnesota","Central"
"1115",1115,55037,27065,65,27,NA,NA,NA,NA,NA,NA,NA,NA,NA,NA
"1116",1116,55037,27115,115,27,NA,NA,NA,NA,NA,NA,NA,NA,NA,NA
"1117",1117,55721,27061,61,27,24330,NA,NA,"Grand Rapids, MN","Micropolitan Statistical Area",NA,NA,"Itasca County","Minnesota","Central"
"1118",1118,55945,27157,157,27,40340,NA,462,"Rochester, MN","Metropolitan Statistical Area",NA,"Rochester-Austin, MN","Wabasha County","Minnesota","Outlying"
"1119",1119,56736,27119,119,27,24220,NA,NA,"Grand Forks, ND-MN","Metropolitan Statistical Area",NA,NA,"Polk County","Minnesota","Central"
"1120",1120,56736,27125,125,27,NA,NA,NA,NA,NA,NA,NA,NA,NA,NA
"1121",1121,56756,27135,135,27,NA,NA,NA,NA,NA,NA,NA,NA,NA,NA
"1122",1122,56726,27135,135,27,NA,NA,NA,NA,NA,NA,NA,NA,NA,NA
"1123",1123,56265,27073,73,27,NA,NA,NA,NA,NA,NA,NA,NA,NA,NA
"1124",1124,56265,27173,173,27,NA,NA,NA,NA,NA,NA,NA,NA,NA,NA
"1125",1125,56265,27023,23,27,NA,NA,NA,NA,NA,NA,NA,NA,NA,NA
"1126",1126,56245,27173,173,27,NA,NA,NA,NA,NA,NA,NA,NA,NA,NA
"1127",1127,56260,27023,23,27,NA,NA,NA,NA,NA,NA,NA,NA,NA,NA
"1128",1128,56260,27129,129,27,NA,NA,NA,NA,NA,NA,NA,NA,NA,NA
"1129",1129,56127,27063,63,27,NA,NA,NA,NA,NA,NA,NA,NA,NA,NA
"1130",1130,56127,27091,91,27,21860,NA,NA,"Fairmont, MN","Micropolitan Statistical Area",NA,NA,"Martin County","Minnesota","Central"
"1131",1131,56270,27127,127,27,NA,NA,NA,NA,NA,NA,NA,NA,NA,NA
"1132",1132,56270,27129,129,27,NA,NA,NA,NA,NA,NA,NA,NA,NA,NA
"1133",1133,56551,27111,111,27,22260,NA,NA,"Fergus Falls, MN","Micropolitan Statistical Area",NA,NA,"Otter Tail County","Minnesota","Central"
"1134",1134,56574,27107,107,27,NA,NA,NA,NA,NA,NA,NA,NA,NA,NA
"1135",1135,56574,27027,27,27,22020,NA,244,"Fargo, ND-MN","Metropolitan Statistical Area",NA,"Fargo-Wahpeton, ND-MN","Clay County","Minnesota","Central"
"1136",1136,56762,27119,119,27,24220,NA,NA,"Grand Forks, ND-MN","Metropolitan Statistical Area",NA,NA,"Polk County","Minnesota","Central"
"1137",1137,56762,27089,89,27,NA,NA,NA,NA,NA,NA,NA,NA,NA,NA
"1138",1138,56715,27125,125,27,NA,NA,NA,NA,NA,NA,NA,NA,NA,NA
"1139",1139,56335,27145,145,27,41060,NA,378,"St. Cloud, MN","Metropolitan Statistical Area",NA,"Minneapolis-St. Paul, MN-WI","Stearns County","Minnesota","Central"
"1140",1140,56043,27047,47,27,10660,NA,NA,"Albert Lea, MN","Micropolitan Statistical Area",NA,NA,"Freeborn County","Minnesota","Central"
"1141",1141,55772,27071,71,27,NA,NA,NA,NA,NA,NA,NA,NA,NA,NA
"1142",1142,56631,27061,61,27,24330,NA,NA,"Grand Rapids, MN","Micropolitan Statistical Area",NA,NA,"Itasca County","Minnesota","Central"
"1143",1143,55405,27053,53,27,33460,NA,378,"Minneapolis-St. Paul-Bloomington, MN-WI","Metropolitan Statistical Area",NA,"Minneapolis-St. Paul, MN-WI","Hennepin County","Minnesota","Central"
"1144",1144,55741,27137,137,27,20260,NA,NA,"Duluth, MN-WI","Metropolitan Statistical Area",NA,NA,"St. Louis County","Minnesota","Central"
"1145",1145,55371,27009,9,27,41060,NA,378,"St. Cloud, MN","Metropolitan Statistical Area",NA,"Minneapolis-St. Paul, MN-WI","Benton County","Minnesota","Central"
"1146",1146,55371,27095,95,27,33460,NA,378,"Minneapolis-St. Paul-Bloomington, MN-WI","Metropolitan Statistical Area",NA,"Minneapolis-St. Paul, MN-WI","Mille Lacs County","Minnesota","Outlying"
"1147",1147,55371,27141,141,27,33460,NA,378,"Minneapolis-St. Paul-Bloomington, MN-WI","Metropolitan Statistical Area",NA,"Minneapolis-St. Paul, MN-WI","Sherburne County","Minnesota","Central"
"1148",1148,55371,27059,59,27,33460,NA,378,"Minneapolis-St. Paul-Bloomington, MN-WI","Metropolitan Statistical Area",NA,"Minneapolis-St. Paul, MN-WI","Isanti County","Minnesota","Outlying"
"1149",1149,55359,27053,53,27,33460,NA,378,"Minneapolis-St. Paul-Bloomington, MN-WI","Metropolitan Statistical Area",NA,"Minneapolis-St. Paul, MN-WI","Hennepin County","Minnesota","Central"
"1150",1150,55038,27123,123,27,33460,NA,378,"Minneapolis-St. Paul-Bloomington, MN-WI","Metropolitan Statistical Area",NA,"Minneapolis-St. Paul, MN-WI","Ramsey County","Minnesota","Central"
"1151",1151,55038,27163,163,27,33460,NA,378,"Minneapolis-St. Paul-Bloomington, MN-WI","Metropolitan Statistical Area",NA,"Minneapolis-St. Paul, MN-WI","Washington County","Minnesota","Central"
"1152",1152,55038,27003,3,27,33460,NA,378,"Minneapolis-St. Paul-Bloomington, MN-WI","Metropolitan Statistical Area",NA,"Minneapolis-St. Paul, MN-WI","Anoka County","Minnesota","Central"
"1153",1153,55718,27017,17,27,20260,NA,NA,"Duluth, MN-WI","Metropolitan Statistical Area",NA,NA,"Carlton County","Minnesota","Outlying"
"1154",1154,55604,27031,31,27,NA,NA,NA,NA,NA,NA,NA,NA,NA,NA
"1155",1155,55150,27037,37,27,33460,NA,378,"Minneapolis-St. Paul-Bloomington, MN-WI","Metropolitan Statistical Area",NA,"Minneapolis-St. Paul, MN-WI","Dakota County","Minnesota","Central"
"1156",1156,55943,27169,169,27,49100,NA,NA,"Winona, MN","Micropolitan Statistical Area",NA,NA,"Winona County","Minnesota","Central"
"1157",1157,55943,27055,55,27,29100,NA,NA,"La Crosse-Onalaska, WI-MN","Metropolitan Statistical Area",NA,NA,"Houston County","Minnesota","Central"
"1158",1158,56071,27131,131,27,22060,NA,378,"Faribault-Northfield, MN","Micropolitan Statistical Area",NA,"Minneapolis-St. Paul, MN-WI","Rice County","Minnesota","Central"
"1159",1159,56071,27079,79,27,33460,NA,378,"Minneapolis-St. Paul-Bloomington, MN-WI","Metropolitan Statistical Area",NA,"Minneapolis-St. Paul, MN-WI","Le Sueur County","Minnesota","Outlying"
"1160",1160,56071,27139,139,27,33460,NA,378,"Minneapolis-St. Paul-Bloomington, MN-WI","Metropolitan Statistical Area",NA,"Minneapolis-St. Paul, MN-WI","Scott County","Minnesota","Central"
"1161",1161,56041,27013,13,27,31860,NA,359,"Mankato, MN","Metropolitan Statistical Area",NA,"Mankato-New Ulm, MN","Blue Earth County","Minnesota","Central"
"1162",1162,56041,27015,15,27,35580,NA,359,"New Ulm, MN","Micropolitan Statistical Area",NA,"Mankato-New Ulm, MN","Brown County","Minnesota","Central"
"1163",1163,56041,27165,165,27,NA,NA,NA,NA,NA,NA,NA,NA,NA,NA
"1164",1164,56382,27153,153,27,NA,NA,NA,NA,NA,NA,NA,NA,NA,NA
"1165",1165,56382,27097,97,27,NA,NA,NA,NA,NA,NA,NA,NA,NA,NA
"1166",1166,56375,27145,145,27,41060,NA,378,"St. Cloud, MN","Metropolitan Statistical Area",NA,"Minneapolis-St. Paul, MN-WI","Stearns County","Minnesota","Central"
"1167",1167,56326,27051,51,27,NA,NA,NA,NA,NA,NA,NA,NA,NA,NA
"1168",1168,56326,27041,41,27,10820,NA,NA,"Alexandria, MN","Micropolitan Statistical Area",NA,NA,"Douglas County","Minnesota","Central"
"1169",1169,56326,27111,111,27,22260,NA,NA,"Fergus Falls, MN","Micropolitan Statistical Area",NA,NA,"Otter Tail County","Minnesota","Central"
"1170",1170,56318,27097,97,27,NA,NA,NA,NA,NA,NA,NA,NA,NA,NA
"1171",1171,56318,27153,153,27,NA,NA,NA,NA,NA,NA,NA,NA,NA,NA
"1172",1172,56455,27035,35,27,14660,NA,NA,"Brainerd, MN","Micropolitan Statistical Area",NA,NA,"Crow Wing County","Minnesota","Central"
"1173",1173,56442,27035,35,27,14660,NA,NA,"Brainerd, MN","Micropolitan Statistical Area",NA,NA,"Crow Wing County","Minnesota","Central"
"1174",1174,56481,27153,153,27,NA,NA,NA,NA,NA,NA,NA,NA,NA,NA
"1175",1175,56481,27159,159,27,NA,NA,NA,NA,NA,NA,NA,NA,NA,NA
"1176",1176,56481,27021,21,27,14660,NA,NA,"Brainerd, MN","Micropolitan Statistical Area",NA,NA,"Cass County","Minnesota","Outlying"
"1177",1177,56572,27167,167,27,47420,NA,244,"Wahpeton, ND-MN","Micropolitan Statistical Area",NA,"Fargo-Wahpeton, ND-MN","Wilkin County","Minnesota","Outlying"
"1178",1178,56572,27027,27,27,22020,NA,244,"Fargo, ND-MN","Metropolitan Statistical Area",NA,"Fargo-Wahpeton, ND-MN","Clay County","Minnesota","Central"
"1179",1179,56572,27005,5,27,NA,NA,NA,NA,NA,NA,NA,NA,NA,NA
"1180",1180,56572,27111,111,27,22260,NA,NA,"Fergus Falls, MN","Micropolitan Statistical Area",NA,NA,"Otter Tail County","Minnesota","Central"
"1181",1181,55922,27045,45,27,40340,NA,462,"Rochester, MN","Metropolitan Statistical Area",NA,"Rochester-Austin, MN","Fillmore County","Minnesota","Outlying"
"1182",1182,56098,27091,91,27,21860,NA,NA,"Fairmont, MN","Micropolitan Statistical Area",NA,NA,"Martin County","Minnesota","Central"
"1183",1183,56098,27043,43,27,NA,NA,NA,NA,NA,NA,NA,NA,NA,NA
"1184",1184,55366,27143,143,27,NA,NA,NA,NA,NA,NA,NA,NA,NA,NA
"1185",1185,55760,27001,1,27,NA,NA,NA,NA,NA,NA,NA,NA,NA,NA
"1186",1186,55912,27099,99,27,12380,NA,462,"Austin, MN","Micropolitan Statistical Area",NA,"Rochester-Austin, MN","Mower County","Minnesota","Central"
"1187",1187,55912,27047,47,27,10660,NA,NA,"Albert Lea, MN","Micropolitan Statistical Area",NA,NA,"Freeborn County","Minnesota","Central"
"1188",1188,55936,27099,99,27,12380,NA,462,"Austin, MN","Micropolitan Statistical Area",NA,"Rochester-Austin, MN","Mower County","Minnesota","Central"
"1189",1189,55350,27085,85,27,26780,NA,378,"Hutchinson, MN","Micropolitan Statistical Area",NA,"Minneapolis-St. Paul, MN-WI","McLeod County","Minnesota","Central"
"1190",1190,55350,27093,93,27,NA,NA,NA,NA,NA,NA,NA,NA,NA,NA
"1191",1191,55350,27129,129,27,NA,NA,NA,NA,NA,NA,NA,NA,NA,NA
"1192",1192,55079,27059,59,27,33460,NA,378,"Minneapolis-St. Paul-Bloomington, MN-WI","Metropolitan Statistical Area",NA,"Minneapolis-St. Paul, MN-WI","Isanti County","Minnesota","Outlying"
"1193",1193,55079,27003,3,27,33460,NA,378,"Minneapolis-St. Paul-Bloomington, MN-WI","Metropolitan Statistical Area",NA,"Minneapolis-St. Paul, MN-WI","Anoka County","Minnesota","Central"
"1194",1194,55079,27025,25,27,33460,NA,378,"Minneapolis-St. Paul-Bloomington, MN-WI","Metropolitan Statistical Area",NA,"Minneapolis-St. Paul, MN-WI","Chisago County","Minnesota","Outlying"
"1195",1195,55051,27095,95,27,33460,NA,378,"Minneapolis-St. Paul-Bloomington, MN-WI","Metropolitan Statistical Area",NA,"Minneapolis-St. Paul, MN-WI","Mille Lacs County","Minnesota","Outlying"
"1196",1196,55051,27065,65,27,NA,NA,NA,NA,NA,NA,NA,NA,NA,NA
"1197",1197,55051,27115,115,27,NA,NA,NA,NA,NA,NA,NA,NA,NA,NA
"1198",1198,55018,27049,49,27,39860,NA,378,"Red Wing, MN","Micropolitan Statistical Area",NA,"Minneapolis-St. Paul, MN-WI","Goodhue County","Minnesota","Central"
"1199",1199,55018,27131,131,27,22060,NA,378,"Faribault-Northfield, MN","Micropolitan Statistical Area",NA,"Minneapolis-St. Paul, MN-WI","Rice County","Minnesota","Central"
"1200",1200,55018,27037,37,27,33460,NA,378,"Minneapolis-St. Paul-Bloomington, MN-WI","Metropolitan Statistical Area",NA,"Minneapolis-St. Paul, MN-WI","Dakota County","Minnesota","Central"
"1201",1201,55073,27025,25,27,33460,NA,378,"Minneapolis-St. Paul-Bloomington, MN-WI","Metropolitan Statistical Area",NA,"Minneapolis-St. Paul, MN-WI","Chisago County","Minnesota","Outlying"
"1202",1202,55073,27163,163,27,33460,NA,378,"Minneapolis-St. Paul-Bloomington, MN-WI","Metropolitan Statistical Area",NA,"Minneapolis-St. Paul, MN-WI","Washington County","Minnesota","Central"
"1203",1203,55432,27123,123,27,33460,NA,378,"Minneapolis-St. Paul-Bloomington, MN-WI","Metropolitan Statistical Area",NA,"Minneapolis-St. Paul, MN-WI","Ramsey County","Minnesota","Central"
"1204",1204,55432,27003,3,27,33460,NA,378,"Minneapolis-St. Paul-Bloomington, MN-WI","Metropolitan Statistical Area",NA,"Minneapolis-St. Paul, MN-WI","Anoka County","Minnesota","Central"
"1205",1205,56009,27047,47,27,10660,NA,NA,"Albert Lea, MN","Micropolitan Statistical Area",NA,NA,"Freeborn County","Minnesota","Central"
"1206",1206,56009,27043,43,27,NA,NA,NA,NA,NA,NA,NA,NA,NA,NA
"1207",1207,56057,27079,79,27,33460,NA,378,"Minneapolis-St. Paul-Bloomington, MN-WI","Metropolitan Statistical Area",NA,"Minneapolis-St. Paul, MN-WI","Le Sueur County","Minnesota","Outlying"
"1208",1208,56757,27089,89,27,NA,NA,NA,NA,NA,NA,NA,NA,NA,NA
"1209",1209,56353,27059,59,27,33460,NA,378,"Minneapolis-St. Paul-Bloomington, MN-WI","Metropolitan Statistical Area",NA,"Minneapolis-St. Paul, MN-WI","Isanti County","Minnesota","Outlying"
"1210",1210,56353,27095,95,27,33460,NA,378,"Minneapolis-St. Paul-Bloomington, MN-WI","Metropolitan Statistical Area",NA,"Minneapolis-St. Paul, MN-WI","Mille Lacs County","Minnesota","Outlying"
"1211",1211,56353,27065,65,27,NA,NA,NA,NA,NA,NA,NA,NA,NA,NA
"1212",1212,56353,27097,97,27,NA,NA,NA,NA,NA,NA,NA,NA,NA,NA
"1213",1213,56340,27145,145,27,41060,NA,378,"St. Cloud, MN","Metropolitan Statistical Area",NA,"Minneapolis-St. Paul, MN-WI","Stearns County","Minnesota","Central"
"1214",1214,56340,27097,97,27,NA,NA,NA,NA,NA,NA,NA,NA,NA,NA
"1215",1215,56467,27057,57,27,NA,NA,NA,NA,NA,NA,NA,NA,NA,NA
"1216",1216,56159,27063,63,27,NA,NA,NA,NA,NA,NA,NA,NA,NA,NA
"1217",1217,56159,27033,33,27,NA,NA,NA,NA,NA,NA,NA,NA,NA,NA
"1218",1218,56159,27165,165,27,NA,NA,NA,NA,NA,NA,NA,NA,NA,NA
"1219",1219,56221,27011,11,27,NA,NA,NA,NA,NA,NA,NA,NA,NA,NA
"1220",1220,56221,27149,149,27,NA,NA,NA,NA,NA,NA,NA,NA,NA,NA
"1221",1221,56221,27155,155,27,NA,NA,NA,NA,NA,NA,NA,NA,NA,NA
"1222",1222,56114,27101,101,27,NA,NA,NA,NA,NA,NA,NA,NA,NA,NA
"1223",1223,55386,27053,53,27,33460,NA,378,"Minneapolis-St. Paul-Bloomington, MN-WI","Metropolitan Statistical Area",NA,"Minneapolis-St. Paul, MN-WI","Hennepin County","Minnesota","Central"
"1224",1224,55386,27019,19,27,33460,NA,378,"Minneapolis-St. Paul-Bloomington, MN-WI","Metropolitan Statistical Area",NA,"Minneapolis-St. Paul, MN-WI","Carver County","Minnesota","Central"
"1225",1225,55053,27131,131,27,22060,NA,378,"Faribault-Northfield, MN","Micropolitan Statistical Area",NA,"Minneapolis-St. Paul, MN-WI","Rice County","Minnesota","Central"
"1226",1226,55053,27049,49,27,39860,NA,378,"Red Wing, MN","Micropolitan Statistical Area",NA,"Minneapolis-St. Paul, MN-WI","Goodhue County","Minnesota","Central"
"1227",1227,55065,27037,37,27,33460,NA,378,"Minneapolis-St. Paul-Bloomington, MN-WI","Metropolitan Statistical Area",NA,"Minneapolis-St. Paul, MN-WI","Dakota County","Minnesota","Central"
"1228",1228,55065,27049,49,27,39860,NA,378,"Red Wing, MN","Micropolitan Statistical Area",NA,"Minneapolis-St. Paul, MN-WI","Goodhue County","Minnesota","Central"
"1229",1229,56025,27043,43,27,NA,NA,NA,NA,NA,NA,NA,NA,NA,NA
"1230",1230,56025,27013,13,27,31860,NA,359,"Mankato, MN","Metropolitan Statistical Area",NA,"Mankato-New Ulm, MN","Blue Earth County","Minnesota","Central"
"1231",1231,56292,27173,173,27,NA,NA,NA,NA,NA,NA,NA,NA,NA,NA
"1232",1232,56292,27127,127,27,NA,NA,NA,NA,NA,NA,NA,NA,NA,NA
"1233",1233,56292,27083,83,27,32140,NA,NA,"Marshall, MN","Micropolitan Statistical Area",NA,NA,"Lyon County","Minnesota","Central"
"1234",1234,56748,27113,113,27,NA,NA,NA,NA,NA,NA,NA,NA,NA,NA
"1235",1235,56748,27125,125,27,NA,NA,NA,NA,NA,NA,NA,NA,NA,NA
"1236",1236,56647,27007,7,27,13420,NA,NA,"Bemidji, MN","Micropolitan Statistical Area",NA,NA,"Beltrami County","Minnesota","Central"
"1237",1237,56111,27063,63,27,NA,NA,NA,NA,NA,NA,NA,NA,NA,NA
"1238",1238,56111,27091,91,27,21860,NA,NA,"Fairmont, MN","Micropolitan Statistical Area",NA,NA,"Martin County","Minnesota","Central"
"1239",1239,56393,27145,145,27,41060,NA,378,"St. Cloud, MN","Metropolitan Statistical Area",NA,"Minneapolis-St. Paul, MN-WI","Stearns County","Minnesota","Central"
"1240",1240,56538,27111,111,27,22260,NA,NA,"Fergus Falls, MN","Micropolitan Statistical Area",NA,NA,"Otter Tail County","Minnesota","Central"
"1241",1241,56541,27107,107,27,NA,NA,NA,NA,NA,NA,NA,NA,NA,NA
"1242",1242,55419,27053,53,27,33460,NA,378,"Minneapolis-St. Paul-Bloomington, MN-WI","Metropolitan Statistical Area",NA,"Minneapolis-St. Paul, MN-WI","Hennepin County","Minnesota","Central"
"1243",1243,55771,27137,137,27,20260,NA,NA,"Duluth, MN-WI","Metropolitan Statistical Area",NA,NA,"St. Louis County","Minnesota","Central"
"1244",1244,55771,27061,61,27,24330,NA,NA,"Grand Rapids, MN","Micropolitan Statistical Area",NA,NA,"Itasca County","Minnesota","Central"
"1245",1245,55771,27071,71,27,NA,NA,NA,NA,NA,NA,NA,NA,NA,NA
"1246",1246,55920,27109,109,27,40340,NA,462,"Rochester, MN","Metropolitan Statistical Area",NA,"Rochester-Austin, MN","Olmsted County","Minnesota","Central"
"1247",1247,55920,27039,39,27,40340,NA,462,"Rochester, MN","Metropolitan Statistical Area",NA,"Rochester-Austin, MN","Dodge County","Minnesota","Outlying"
"1248",1248,55795,27115,115,27,NA,NA,NA,NA,NA,NA,NA,NA,NA,NA
"1249",1249,55337,27037,37,27,33460,NA,378,"Minneapolis-St. Paul-Bloomington, MN-WI","Metropolitan Statistical Area",NA,"Minneapolis-St. Paul, MN-WI","Dakota County","Minnesota","Central"
"1250",1250,55337,27139,139,27,33460,NA,378,"Minneapolis-St. Paul-Bloomington, MN-WI","Metropolitan Statistical Area",NA,"Minneapolis-St. Paul, MN-WI","Scott County","Minnesota","Central"
"1251",1251,55333,27015,15,27,35580,NA,359,"New Ulm, MN","Micropolitan Statistical Area",NA,"Mankato-New Ulm, MN","Brown County","Minnesota","Central"
"1252",1252,55333,27127,127,27,NA,NA,NA,NA,NA,NA,NA,NA,NA,NA
"1253",1253,55333,27129,129,27,NA,NA,NA,NA,NA,NA,NA,NA,NA,NA
"1254",1254,55363,27171,171,27,33460,NA,378,"Minneapolis-St. Paul-Bloomington, MN-WI","Metropolitan Statistical Area",NA,"Minneapolis-St. Paul, MN-WI","Wright County","Minnesota","Central"
"1255",1255,55363,27019,19,27,33460,NA,378,"Minneapolis-St. Paul-Bloomington, MN-WI","Metropolitan Statistical Area",NA,"Minneapolis-St. Paul, MN-WI","Carver County","Minnesota","Central"
"1256",1256,55052,27131,131,27,22060,NA,378,"Faribault-Northfield, MN","Micropolitan Statistical Area",NA,"Minneapolis-St. Paul, MN-WI","Rice County","Minnesota","Central"
"1257",1257,55052,27147,147,27,36940,NA,378,"Owatonna, MN","Micropolitan Statistical Area",NA,"Minneapolis-St. Paul, MN-WI","Steele County","Minnesota","Central"
"1258",1258,55052,27161,161,27,NA,NA,NA,NA,NA,NA,NA,NA,NA,NA
"1259",1259,55063,27115,115,27,NA,NA,NA,NA,NA,NA,NA,NA,NA,NA
"1260",1260,55707,27017,17,27,20260,NA,NA,"Duluth, MN-WI","Metropolitan Statistical Area",NA,NA,"Carlton County","Minnesota","Outlying"
"1261",1261,56044,27079,79,27,33460,NA,378,"Minneapolis-St. Paul-Bloomington, MN-WI","Metropolitan Statistical Area",NA,"Minneapolis-St. Paul, MN-WI","Le Sueur County","Minnesota","Outlying"
"1262",1262,56044,27143,143,27,NA,NA,NA,NA,NA,NA,NA,NA,NA,NA
"1263",1263,56044,27139,139,27,33460,NA,378,"Minneapolis-St. Paul-Bloomington, MN-WI","Metropolitan Statistical Area",NA,"Minneapolis-St. Paul, MN-WI","Scott County","Minnesota","Central"
"1264",1264,55954,27045,45,27,40340,NA,462,"Rochester, MN","Metropolitan Statistical Area",NA,"Rochester-Austin, MN","Fillmore County","Minnesota","Outlying"
"1265",1265,55954,27055,55,27,29100,NA,NA,"La Crosse-Onalaska, WI-MN","Metropolitan Statistical Area",NA,NA,"Houston County","Minnesota","Central"
"1266",1266,56733,27069,69,27,NA,NA,NA,NA,NA,NA,NA,NA,NA,NA
"1267",1267,56237,27127,127,27,NA,NA,NA,NA,NA,NA,NA,NA,NA,NA
"1268",1268,56237,27173,173,27,NA,NA,NA,NA,NA,NA,NA,NA,NA,NA
"1269",1269,56142,27173,173,27,NA,NA,NA,NA,NA,NA,NA,NA,NA,NA
"1270",1270,56142,27081,81,27,NA,NA,NA,NA,NA,NA,NA,NA,NA,NA
"1271",1271,56307,27097,97,27,NA,NA,NA,NA,NA,NA,NA,NA,NA,NA
"1272",1272,56307,27145,145,27,41060,NA,378,"St. Cloud, MN","Metropolitan Statistical Area",NA,"Minneapolis-St. Paul, MN-WI","Stearns County","Minnesota","Central"
"1273",1273,55781,27061,61,27,24330,NA,NA,"Grand Rapids, MN","Micropolitan Statistical Area",NA,NA,"Itasca County","Minnesota","Central"
"1274",1274,55781,27137,137,27,20260,NA,NA,"Duluth, MN-WI","Metropolitan Statistical Area",NA,NA,"St. Louis County","Minnesota","Central"
"1275",1275,55905,27109,109,27,40340,NA,462,"Rochester, MN","Metropolitan Statistical Area",NA,"Rochester-Austin, MN","Olmsted County","Minnesota","Central"
"1276",1276,56744,27119,119,27,24220,NA,NA,"Grand Forks, ND-MN","Metropolitan Statistical Area",NA,NA,"Polk County","Minnesota","Central"
"1277",1277,56744,27089,89,27,NA,NA,NA,NA,NA,NA,NA,NA,NA,NA
"1278",1278,56673,27135,135,27,NA,NA,NA,NA,NA,NA,NA,NA,NA,NA
"1279",1279,56673,27077,77,27,NA,NA,NA,NA,NA,NA,NA,NA,NA,NA
"1280",1280,56146,27133,133,27,NA,NA,NA,NA,NA,NA,NA,NA,NA,NA
"1281",1281,55750,27137,137,27,20260,NA,NA,"Duluth, MN-WI","Metropolitan Statistical Area",NA,NA,"St. Louis County","Minnesota","Central"
"1282",1282,56010,27013,13,27,31860,NA,359,"Mankato, MN","Metropolitan Statistical Area",NA,"Mankato-New Ulm, MN","Blue Earth County","Minnesota","Central"
"1283",1283,56010,27043,43,27,NA,NA,NA,NA,NA,NA,NA,NA,NA,NA
"1284",1284,55440,27053,53,27,33460,NA,378,"Minneapolis-St. Paul-Bloomington, MN-WI","Metropolitan Statistical Area",NA,"Minneapolis-St. Paul, MN-WI","Hennepin County","Minnesota","Central"
"1285",1285,56671,27007,7,27,13420,NA,NA,"Bemidji, MN","Micropolitan Statistical Area",NA,NA,"Beltrami County","Minnesota","Central"
"1286",1286,56395,27145,145,27,41060,NA,378,"St. Cloud, MN","Metropolitan Statistical Area",NA,"Minneapolis-St. Paul, MN-WI","Stearns County","Minnesota","Central"
"1287",1287,55001,27163,163,27,33460,NA,378,"Minneapolis-St. Paul-Bloomington, MN-WI","Metropolitan Statistical Area",NA,"Minneapolis-St. Paul, MN-WI","Washington County","Minnesota","Central"
"1288",1288,55084,27025,25,27,33460,NA,378,"Minneapolis-St. Paul-Bloomington, MN-WI","Metropolitan Statistical Area",NA,"Minneapolis-St. Paul, MN-WI","Chisago County","Minnesota","Outlying"
"1289",1289,55810,27017,17,27,20260,NA,NA,"Duluth, MN-WI","Metropolitan Statistical Area",NA,NA,"Carlton County","Minnesota","Outlying"
"1290",1290,55810,27137,137,27,20260,NA,NA,"Duluth, MN-WI","Metropolitan Statistical Area",NA,NA,"St. Louis County","Minnesota","Central"
"1291",1291,55934,27109,109,27,40340,NA,462,"Rochester, MN","Metropolitan Statistical Area",NA,"Rochester-Austin, MN","Olmsted County","Minnesota","Central"
"1292",1292,55931,27055,55,27,29100,NA,NA,"La Crosse-Onalaska, WI-MN","Metropolitan Statistical Area",NA,NA,"Houston County","Minnesota","Central"
"1293",1293,55368,27019,19,27,33460,NA,378,"Minneapolis-St. Paul-Bloomington, MN-WI","Metropolitan Statistical Area",NA,"Minneapolis-St. Paul, MN-WI","Carver County","Minnesota","Central"
"1294",1294,55368,27085,85,27,26780,NA,378,"Hutchinson, MN","Micropolitan Statistical Area",NA,"Minneapolis-St. Paul, MN-WI","McLeod County","Minnesota","Central"
"1295",1295,55076,27037,37,27,33460,NA,378,"Minneapolis-St. Paul-Bloomington, MN-WI","Metropolitan Statistical Area",NA,"Minneapolis-St. Paul, MN-WI","Dakota County","Minnesota","Central"
"1296",1296,55616,27137,137,27,20260,NA,NA,"Duluth, MN-WI","Metropolitan Statistical Area",NA,NA,"St. Louis County","Minnesota","Central"
"1297",1297,55616,27075,75,27,20260,NA,NA,"Duluth, MN-WI","Metropolitan Statistical Area",NA,NA,"Lake County","Minnesota","Outlying"
"1298",1298,55720,27137,137,27,20260,NA,NA,"Duluth, MN-WI","Metropolitan Statistical Area",NA,NA,"St. Louis County","Minnesota","Central"
"1299",1299,55720,27017,17,27,20260,NA,NA,"Duluth, MN-WI","Metropolitan Statistical Area",NA,NA,"Carlton County","Minnesota","Outlying"
"1300",1300,55306,27037,37,27,33460,NA,378,"Minneapolis-St. Paul-Bloomington, MN-WI","Metropolitan Statistical Area",NA,"Minneapolis-St. Paul, MN-WI","Dakota County","Minnesota","Central"
"1301",1301,55956,27157,157,27,40340,NA,462,"Rochester, MN","Metropolitan Statistical Area",NA,"Rochester-Austin, MN","Wabasha County","Minnesota","Outlying"
"1302",1302,55956,27109,109,27,40340,NA,462,"Rochester, MN","Metropolitan Statistical Area",NA,"Rochester-Austin, MN","Olmsted County","Minnesota","Central"
"1303",1303,55956,27049,49,27,39860,NA,378,"Red Wing, MN","Micropolitan Statistical Area",NA,"Minneapolis-St. Paul, MN-WI","Goodhue County","Minnesota","Central"
"1304",1304,56722,27119,119,27,24220,NA,NA,"Grand Forks, ND-MN","Metropolitan Statistical Area",NA,NA,"Polk County","Minnesota","Central"
"1305",1305,56361,27041,41,27,10820,NA,NA,"Alexandria, MN","Micropolitan Statistical Area",NA,NA,"Douglas County","Minnesota","Central"
"1306",1306,56361,27111,111,27,22260,NA,NA,"Fergus Falls, MN","Micropolitan Statistical Area",NA,NA,"Otter Tail County","Minnesota","Central"
"1307",1307,56283,27129,129,27,NA,NA,NA,NA,NA,NA,NA,NA,NA,NA
"1308",1308,56283,27127,127,27,NA,NA,NA,NA,NA,NA,NA,NA,NA,NA
"1309",1309,56143,27063,63,27,NA,NA,NA,NA,NA,NA,NA,NA,NA,NA
"1310",1310,56141,27101,101,27,NA,NA,NA,NA,NA,NA,NA,NA,NA,NA
"1311",1311,56141,27105,105,27,49380,NA,NA,"Worthington, MN","Micropolitan Statistical Area",NA,NA,"Nobles County","Minnesota","Central"
"1312",1312,56557,27087,87,27,NA,NA,NA,NA,NA,NA,NA,NA,NA,NA
"1313",1313,56557,27107,107,27,NA,NA,NA,NA,NA,NA,NA,NA,NA,NA
"1314",1314,56557,27029,29,27,NA,NA,NA,NA,NA,NA,NA,NA,NA,NA
"1315",1315,56475,27097,97,27,NA,NA,NA,NA,NA,NA,NA,NA,NA,NA
"1316",1316,56475,27153,153,27,NA,NA,NA,NA,NA,NA,NA,NA,NA,NA
"1317",1317,56630,27061,61,27,24330,NA,NA,"Grand Rapids, MN","Micropolitan Statistical Area",NA,NA,"Itasca County","Minnesota","Central"
"1318",1318,56630,27007,7,27,13420,NA,NA,"Bemidji, MN","Micropolitan Statistical Area",NA,NA,"Beltrami County","Minnesota","Central"
"1319",1319,56636,27021,21,27,14660,NA,NA,"Brainerd, MN","Micropolitan Statistical Area",NA,NA,"Cass County","Minnesota","Outlying"
"1320",1320,56636,27061,61,27,24330,NA,NA,"Grand Rapids, MN","Micropolitan Statistical Area",NA,NA,"Itasca County","Minnesota","Central"
"1321",1321,56676,27007,7,27,13420,NA,NA,"Bemidji, MN","Micropolitan Statistical Area",NA,NA,"Beltrami County","Minnesota","Central"
"1322",1322,56676,27029,29,27,NA,NA,NA,NA,NA,NA,NA,NA,NA,NA
"1323",1323,55373,27053,53,27,33460,NA,378,"Minneapolis-St. Paul-Bloomington, MN-WI","Metropolitan Statistical Area",NA,"Minneapolis-St. Paul, MN-WI","Hennepin County","Minnesota","Central"
"1324",1324,55373,27171,171,27,33460,NA,378,"Minneapolis-St. Paul-Bloomington, MN-WI","Metropolitan Statistical Area",NA,"Minneapolis-St. Paul, MN-WI","Wright County","Minnesota","Central"
"1325",1325,55087,27131,131,27,22060,NA,378,"Faribault-Northfield, MN","Micropolitan Statistical Area",NA,"Minneapolis-St. Paul, MN-WI","Rice County","Minnesota","Central"
"1326",1326,55603,27075,75,27,20260,NA,NA,"Duluth, MN-WI","Metropolitan Statistical Area",NA,NA,"Lake County","Minnesota","Outlying"
"1327",1327,55710,27137,137,27,20260,NA,NA,"Duluth, MN-WI","Metropolitan Statistical Area",NA,NA,"St. Louis County","Minnesota","Central"
"1328",1328,56759,27089,89,27,NA,NA,NA,NA,NA,NA,NA,NA,NA,NA
"1329",1329,56759,27135,135,27,NA,NA,NA,NA,NA,NA,NA,NA,NA,NA
"1330",1330,56138,27133,133,27,NA,NA,NA,NA,NA,NA,NA,NA,NA,NA
"1331",1331,56132,27101,101,27,NA,NA,NA,NA,NA,NA,NA,NA,NA,NA
"1332",1332,56132,27083,83,27,32140,NA,NA,"Marshall, MN","Micropolitan Statistical Area",NA,NA,"Lyon County","Minnesota","Central"
"1333",1333,56173,27133,133,27,NA,NA,NA,NA,NA,NA,NA,NA,NA,NA
"1334",1334,56325,27145,145,27,41060,NA,378,"St. Cloud, MN","Metropolitan Statistical Area",NA,"Minneapolis-St. Paul, MN-WI","Stearns County","Minnesota","Central"
"1335",1335,56321,27145,145,27,41060,NA,378,"St. Cloud, MN","Metropolitan Statistical Area",NA,"Minneapolis-St. Paul, MN-WI","Stearns County","Minnesota","Central"
"1336",1336,55385,27129,129,27,NA,NA,NA,NA,NA,NA,NA,NA,NA,NA
"1337",1337,55385,27085,85,27,26780,NA,378,"Hutchinson, MN","Micropolitan Statistical Area",NA,"Minneapolis-St. Paul, MN-WI","McLeod County","Minnesota","Central"
"1338",1338,55385,27143,143,27,NA,NA,NA,NA,NA,NA,NA,NA,NA,NA
"1339",1339,55106,27123,123,27,33460,NA,378,"Minneapolis-St. Paul-Bloomington, MN-WI","Metropolitan Statistical Area",NA,"Minneapolis-St. Paul, MN-WI","Ramsey County","Minnesota","Central"
"1340",1340,55474,27053,53,27,33460,NA,378,"Minneapolis-St. Paul-Bloomington, MN-WI","Metropolitan Statistical Area",NA,"Minneapolis-St. Paul, MN-WI","Hennepin County","Minnesota","Central"
"1341",1341,55612,27031,31,27,NA,NA,NA,NA,NA,NA,NA,NA,NA,NA
"1342",1342,55332,27103,103,27,31860,NA,359,"Mankato, MN","Metropolitan Statistical Area",NA,"Mankato-New Ulm, MN","Nicollet County","Minnesota","Central"
"1343",1343,55332,27129,129,27,NA,NA,NA,NA,NA,NA,NA,NA,NA,NA
"1344",1344,55332,27143,143,27,NA,NA,NA,NA,NA,NA,NA,NA,NA,NA
"1345",1345,56367,27009,9,27,41060,NA,378,"St. Cloud, MN","Metropolitan Statistical Area",NA,"Minneapolis-St. Paul, MN-WI","Benton County","Minnesota","Central"
"1346",1346,56367,27145,145,27,41060,NA,378,"St. Cloud, MN","Metropolitan Statistical Area",NA,"Minneapolis-St. Paul, MN-WI","Stearns County","Minnesota","Central"
"1347",1347,56367,27097,97,27,NA,NA,NA,NA,NA,NA,NA,NA,NA,NA
"1348",1348,56458,27057,57,27,NA,NA,NA,NA,NA,NA,NA,NA,NA,NA
"1349",1349,56201,27067,67,27,48820,NA,NA,"Willmar, MN","Micropolitan Statistical Area",NA,NA,"Kandiyohi County","Minnesota","Central"
"1350",1350,56284,27067,67,27,48820,NA,NA,"Willmar, MN","Micropolitan Statistical Area",NA,NA,"Kandiyohi County","Minnesota","Central"
"1351",1351,56284,27129,129,27,NA,NA,NA,NA,NA,NA,NA,NA,NA,NA
"1352",1352,56284,27127,127,27,NA,NA,NA,NA,NA,NA,NA,NA,NA,NA
"1353",1353,56301,27145,145,27,41060,NA,378,"St. Cloud, MN","Metropolitan Statistical Area",NA,"Minneapolis-St. Paul, MN-WI","Stearns County","Minnesota","Central"
"1354",1354,56147,27133,133,27,NA,NA,NA,NA,NA,NA,NA,NA,NA,NA
"1355",1355,56147,27105,105,27,49380,NA,NA,"Worthington, MN","Micropolitan Statistical Area",NA,NA,"Nobles County","Minnesota","Central"
"1356",1356,56472,27021,21,27,14660,NA,NA,"Brainerd, MN","Micropolitan Statistical Area",NA,NA,"Cass County","Minnesota","Outlying"
"1357",1357,56472,27035,35,27,14660,NA,NA,"Brainerd, MN","Micropolitan Statistical Area",NA,NA,"Crow Wing County","Minnesota","Central"
"1358",1358,56536,27027,27,27,22020,NA,244,"Fargo, ND-MN","Metropolitan Statistical Area",NA,"Fargo-Wahpeton, ND-MN","Clay County","Minnesota","Central"
"1359",1359,56521,27005,5,27,NA,NA,NA,NA,NA,NA,NA,NA,NA,NA
"1360",1360,56257,27073,73,27,NA,NA,NA,NA,NA,NA,NA,NA,NA,NA
"1361",1361,56297,27173,173,27,NA,NA,NA,NA,NA,NA,NA,NA,NA,NA
"1362",1362,56297,27127,127,27,NA,NA,NA,NA,NA,NA,NA,NA,NA,NA
"1363",1363,56297,27083,83,27,32140,NA,NA,"Marshall, MN","Micropolitan Statistical Area",NA,NA,"Lyon County","Minnesota","Central"
"1364",1364,56653,27071,71,27,NA,NA,NA,NA,NA,NA,NA,NA,NA,NA
"1365",1365,55918,27099,99,27,12380,NA,462,"Austin, MN","Micropolitan Statistical Area",NA,"Rochester-Austin, MN","Mower County","Minnesota","Central"
"1366",1366,56389,27153,153,27,NA,NA,NA,NA,NA,NA,NA,NA,NA,NA
"1367",1367,55904,27109,109,27,40340,NA,462,"Rochester, MN","Metropolitan Statistical Area",NA,"Rochester-Austin, MN","Olmsted County","Minnesota","Central"
"1368",1368,55352,27139,139,27,33460,NA,378,"Minneapolis-St. Paul-Bloomington, MN-WI","Metropolitan Statistical Area",NA,"Minneapolis-St. Paul, MN-WI","Scott County","Minnesota","Central"
"1369",1369,55120,27037,37,27,33460,NA,378,"Minneapolis-St. Paul-Bloomington, MN-WI","Metropolitan Statistical Area",NA,"Minneapolis-St. Paul, MN-WI","Dakota County","Minnesota","Central"
"1370",1370,55024,27037,37,27,33460,NA,378,"Minneapolis-St. Paul-Bloomington, MN-WI","Metropolitan Statistical Area",NA,"Minneapolis-St. Paul, MN-WI","Dakota County","Minnesota","Central"
"1371",1371,55069,27115,115,27,NA,NA,NA,NA,NA,NA,NA,NA,NA,NA
"1372",1372,55069,27025,25,27,33460,NA,378,"Minneapolis-St. Paul-Bloomington, MN-WI","Metropolitan Statistical Area",NA,"Minneapolis-St. Paul, MN-WI","Chisago County","Minnesota","Outlying"
"1373",1373,55129,27163,163,27,33460,NA,378,"Minneapolis-St. Paul-Bloomington, MN-WI","Metropolitan Statistical Area",NA,"Minneapolis-St. Paul, MN-WI","Washington County","Minnesota","Central"
"1374",1374,55305,27053,53,27,33460,NA,378,"Minneapolis-St. Paul-Bloomington, MN-WI","Metropolitan Statistical Area",NA,"Minneapolis-St. Paul, MN-WI","Hennepin County","Minnesota","Central"
"1375",1375,56058,27103,103,27,31860,NA,359,"Mankato, MN","Metropolitan Statistical Area",NA,"Mankato-New Ulm, MN","Nicollet County","Minnesota","Central"
"1376",1376,56058,27143,143,27,NA,NA,NA,NA,NA,NA,NA,NA,NA,NA
"1377",1377,56058,27079,79,27,33460,NA,378,"Minneapolis-St. Paul-Bloomington, MN-WI","Metropolitan Statistical Area",NA,"Minneapolis-St. Paul, MN-WI","Le Sueur County","Minnesota","Outlying"
"1378",1378,56037,27013,13,27,31860,NA,359,"Mankato, MN","Metropolitan Statistical Area",NA,"Mankato-New Ulm, MN","Blue Earth County","Minnesota","Central"
"1379",1379,56713,27089,89,27,NA,NA,NA,NA,NA,NA,NA,NA,NA,NA
"1380",1380,56737,27089,89,27,NA,NA,NA,NA,NA,NA,NA,NA,NA,NA
"1381",1381,56349,27041,41,27,10820,NA,NA,"Alexandria, MN","Micropolitan Statistical Area",NA,NA,"Douglas County","Minnesota","Central"
"1382",1382,56349,27121,121,27,NA,NA,NA,NA,NA,NA,NA,NA,NA,NA
"1383",1383,56339,27041,41,27,10820,NA,NA,"Alexandria, MN","Micropolitan Statistical Area",NA,NA,"Douglas County","Minnesota","Central"
"1384",1384,56339,27051,51,27,NA,NA,NA,NA,NA,NA,NA,NA,NA,NA
"1385",1385,56352,27145,145,27,41060,NA,378,"St. Cloud, MN","Metropolitan Statistical Area",NA,"Minneapolis-St. Paul, MN-WI","Stearns County","Minnesota","Central"
"1386",1386,56165,27105,105,27,49380,NA,NA,"Worthington, MN","Micropolitan Statistical Area",NA,NA,"Nobles County","Minnesota","Central"
"1387",1387,56264,27083,83,27,32140,NA,NA,"Marshall, MN","Micropolitan Statistical Area",NA,NA,"Lyon County","Minnesota","Central"
"1388",1388,56264,27173,173,27,NA,NA,NA,NA,NA,NA,NA,NA,NA,NA
"1389",1389,56264,27081,81,27,NA,NA,NA,NA,NA,NA,NA,NA,NA,NA
"1390",1390,56097,27043,43,27,NA,NA,NA,NA,NA,NA,NA,NA,NA,NA
"1391",1391,56097,27161,161,27,NA,NA,NA,NA,NA,NA,NA,NA,NA,NA
"1392",1392,56097,27047,47,27,10660,NA,NA,"Albert Lea, MN","Micropolitan Statistical Area",NA,NA,"Freeborn County","Minnesota","Central"
"1393",1393,56515,27111,111,27,22260,NA,NA,"Fergus Falls, MN","Micropolitan Statistical Area",NA,NA,"Otter Tail County","Minnesota","Central"
"1394",1394,56633,27057,57,27,NA,NA,NA,NA,NA,NA,NA,NA,NA,NA
"1395",1395,56633,27007,7,27,13420,NA,NA,"Bemidji, MN","Micropolitan Statistical Area",NA,NA,"Beltrami County","Minnesota","Central"
"1396",1396,56633,27021,21,27,14660,NA,NA,"Brainerd, MN","Micropolitan Statistical Area",NA,NA,"Cass County","Minnesota","Outlying"
"1397",1397,56662,27021,21,27,14660,NA,NA,"Brainerd, MN","Micropolitan Statistical Area",NA,NA,"Cass County","Minnesota","Outlying"
"1398",1398,56662,27035,35,27,14660,NA,NA,"Brainerd, MN","Micropolitan Statistical Area",NA,NA,"Crow Wing County","Minnesota","Central"
"1399",1399,55968,27157,157,27,40340,NA,462,"Rochester, MN","Metropolitan Statistical Area",NA,"Rochester-Austin, MN","Wabasha County","Minnesota","Outlying"
"1400",1400,56023,27043,43,27,NA,NA,NA,NA,NA,NA,NA,NA,NA,NA
"1401",1401,56169,27083,83,27,32140,NA,NA,"Marshall, MN","Micropolitan Statistical Area",NA,NA,"Lyon County","Minnesota","Central"
"1402",1402,56218,27173,173,27,NA,NA,NA,NA,NA,NA,NA,NA,NA,NA
"1403",1403,56218,27073,73,27,NA,NA,NA,NA,NA,NA,NA,NA,NA,NA
"1404",1404,56285,27023,23,27,NA,NA,NA,NA,NA,NA,NA,NA,NA,NA
"1405",1405,56285,27129,129,27,NA,NA,NA,NA,NA,NA,NA,NA,NA,NA
"1406",1406,55793,27061,61,27,24330,NA,NA,"Grand Rapids, MN","Micropolitan Statistical Area",NA,NA,"Itasca County","Minnesota","Central"
"1407",1407,56211,27155,155,27,NA,NA,NA,NA,NA,NA,NA,NA,NA,NA
"1408",1408,56211,27011,11,27,NA,NA,NA,NA,NA,NA,NA,NA,NA,NA
"1409",1409,56568,27119,119,27,24220,NA,NA,"Grand Forks, ND-MN","Metropolitan Statistical Area",NA,NA,"Polk County","Minnesota","Central"
"1410",1410,56568,27107,107,27,NA,NA,NA,NA,NA,NA,NA,NA,NA,NA
"1411",1411,56369,27145,145,27,41060,NA,378,"St. Cloud, MN","Metropolitan Statistical Area",NA,"Minneapolis-St. Paul, MN-WI","Stearns County","Minnesota","Central"
"1412",1412,55950,27099,99,27,12380,NA,462,"Austin, MN","Micropolitan Statistical Area",NA,"Rochester-Austin, MN","Mower County","Minnesota","Central"
"1413",1413,55731,27137,137,27,20260,NA,NA,"Duluth, MN-WI","Metropolitan Statistical Area",NA,NA,"St. Louis County","Minnesota","Central"
"1414",1414,55731,27075,75,27,20260,NA,NA,"Duluth, MN-WI","Metropolitan Statistical Area",NA,NA,"Lake County","Minnesota","Outlying"
"1415",1415,55335,27103,103,27,31860,NA,359,"Mankato, MN","Metropolitan Statistical Area",NA,"Mankato-New Ulm, MN","Nicollet County","Minnesota","Central"
"1416",1416,55335,27085,85,27,26780,NA,378,"Hutchinson, MN","Micropolitan Statistical Area",NA,"Minneapolis-St. Paul, MN-WI","McLeod County","Minnesota","Central"
"1417",1417,55335,27143,143,27,NA,NA,NA,NA,NA,NA,NA,NA,NA,NA
"1418",1418,55042,27163,163,27,33460,NA,378,"Minneapolis-St. Paul-Bloomington, MN-WI","Metropolitan Statistical Area",NA,"Minneapolis-St. Paul, MN-WI","Washington County","Minnesota","Central"
"1419",1419,55016,27163,163,27,33460,NA,378,"Minneapolis-St. Paul-Bloomington, MN-WI","Metropolitan Statistical Area",NA,"Minneapolis-St. Paul, MN-WI","Washington County","Minnesota","Central"
"1420",1420,55011,27003,3,27,33460,NA,378,"Minneapolis-St. Paul-Bloomington, MN-WI","Metropolitan Statistical Area",NA,"Minneapolis-St. Paul, MN-WI","Anoka County","Minnesota","Central"
"1421",1421,55436,27053,53,27,33460,NA,378,"Minneapolis-St. Paul-Bloomington, MN-WI","Metropolitan Statistical Area",NA,"Minneapolis-St. Paul, MN-WI","Hennepin County","Minnesota","Central"
"1422",1422,55437,27053,53,27,33460,NA,378,"Minneapolis-St. Paul-Bloomington, MN-WI","Metropolitan Statistical Area",NA,"Minneapolis-St. Paul, MN-WI","Hennepin County","Minnesota","Central"
"1423",1423,55442,27053,53,27,33460,NA,378,"Minneapolis-St. Paul-Bloomington, MN-WI","Metropolitan Statistical Area",NA,"Minneapolis-St. Paul, MN-WI","Hennepin County","Minnesota","Central"
"1424",1424,55443,27053,53,27,33460,NA,378,"Minneapolis-St. Paul-Bloomington, MN-WI","Metropolitan Statistical Area",NA,"Minneapolis-St. Paul, MN-WI","Hennepin County","Minnesota","Central"
"1425",1425,55444,27053,53,27,33460,NA,378,"Minneapolis-St. Paul-Bloomington, MN-WI","Metropolitan Statistical Area",NA,"Minneapolis-St. Paul, MN-WI","Hennepin County","Minnesota","Central"
"1426",1426,55976,27109,109,27,40340,NA,462,"Rochester, MN","Metropolitan Statistical Area",NA,"Rochester-Austin, MN","Olmsted County","Minnesota","Central"
"1427",1427,55976,27099,99,27,12380,NA,462,"Austin, MN","Micropolitan Statistical Area",NA,"Rochester-Austin, MN","Mower County","Minnesota","Central"
"1428",1428,55976,27045,45,27,40340,NA,462,"Rochester, MN","Metropolitan Statistical Area",NA,"Rochester-Austin, MN","Fillmore County","Minnesota","Outlying"
"1429",1429,56758,27089,89,27,NA,NA,NA,NA,NA,NA,NA,NA,NA,NA
"1430",1430,56727,27007,7,27,13420,NA,NA,"Bemidji, MN","Micropolitan Statistical Area",NA,NA,"Beltrami County","Minnesota","Central"
"1431",1431,56727,27089,89,27,NA,NA,NA,NA,NA,NA,NA,NA,NA,NA
"1432",1432,56364,27035,35,27,14660,NA,NA,"Brainerd, MN","Micropolitan Statistical Area",NA,NA,"Crow Wing County","Minnesota","Central"
"1433",1433,56364,27097,97,27,NA,NA,NA,NA,NA,NA,NA,NA,NA,NA
"1434",1434,56401,27021,21,27,14660,NA,NA,"Brainerd, MN","Micropolitan Statistical Area",NA,NA,"Cass County","Minnesota","Outlying"
"1435",1435,56401,27035,35,27,14660,NA,NA,"Brainerd, MN","Micropolitan Statistical Area",NA,NA,"Crow Wing County","Minnesota","Central"
"1436",1436,56308,27041,41,27,10820,NA,NA,"Alexandria, MN","Micropolitan Statistical Area",NA,NA,"Douglas County","Minnesota","Central"
"1437",1437,56308,27121,121,27,NA,NA,NA,NA,NA,NA,NA,NA,NA,NA
"1438",1438,56240,27011,11,27,NA,NA,NA,NA,NA,NA,NA,NA,NA,NA
"1439",1439,56240,27155,155,27,NA,NA,NA,NA,NA,NA,NA,NA,NA,NA
"1440",1440,56116,27133,133,27,NA,NA,NA,NA,NA,NA,NA,NA,NA,NA
"1441",1441,56243,27093,93,27,NA,NA,NA,NA,NA,NA,NA,NA,NA,NA
"1442",1442,56243,27067,67,27,48820,NA,NA,"Willmar, MN","Micropolitan Statistical Area",NA,NA,"Kandiyohi County","Minnesota","Central"
"1443",1443,56280,27081,81,27,NA,NA,NA,NA,NA,NA,NA,NA,NA,NA
"1444",1444,56280,27173,173,27,NA,NA,NA,NA,NA,NA,NA,NA,NA,NA
"1445",1445,56549,27027,27,27,22020,NA,244,"Fargo, ND-MN","Metropolitan Statistical Area",NA,"Fargo-Wahpeton, ND-MN","Clay County","Minnesota","Central"
"1446",1446,56576,27111,111,27,22260,NA,NA,"Fergus Falls, MN","Micropolitan Statistical Area",NA,NA,"Otter Tail County","Minnesota","Central"
"1447",1447,56586,27111,111,27,22260,NA,NA,"Fergus Falls, MN","Micropolitan Statistical Area",NA,NA,"Otter Tail County","Minnesota","Central"
"1448",1448,56646,27029,29,27,NA,NA,NA,NA,NA,NA,NA,NA,NA,NA
"1449",1449,56646,27119,119,27,24220,NA,NA,"Grand Forks, ND-MN","Metropolitan Statistical Area",NA,NA,"Polk County","Minnesota","Central"
"1450",1450,56469,27001,1,27,NA,NA,NA,NA,NA,NA,NA,NA,NA,NA
"1451",1451,55088,27131,131,27,22060,NA,378,"Faribault-Northfield, MN","Micropolitan Statistical Area",NA,"Minneapolis-St. Paul, MN-WI","Rice County","Minnesota","Central"
"1452",1452,55088,27139,139,27,33460,NA,378,"Minneapolis-St. Paul-Bloomington, MN-WI","Metropolitan Statistical Area",NA,"Minneapolis-St. Paul, MN-WI","Scott County","Minnesota","Central"
"1453",1453,55049,27147,147,27,36940,NA,378,"Owatonna, MN","Micropolitan Statistical Area",NA,"Minneapolis-St. Paul, MN-WI","Steele County","Minnesota","Central"
"1454",1454,55049,27131,131,27,22060,NA,378,"Faribault-Northfield, MN","Micropolitan Statistical Area",NA,"Minneapolis-St. Paul, MN-WI","Rice County","Minnesota","Central"
"1455",1455,55702,27137,137,27,20260,NA,NA,"Duluth, MN-WI","Metropolitan Statistical Area",NA,NA,"St. Louis County","Minnesota","Central"
"1456",1456,56354,27041,41,27,10820,NA,NA,"Alexandria, MN","Micropolitan Statistical Area",NA,NA,"Douglas County","Minnesota","Central"
"1457",1457,56354,27111,111,27,22260,NA,NA,"Fergus Falls, MN","Micropolitan Statistical Area",NA,NA,"Otter Tail County","Minnesota","Central"
"1458",1458,56088,27013,13,27,31860,NA,359,"Mankato, MN","Metropolitan Statistical Area",NA,"Mankato-New Ulm, MN","Blue Earth County","Minnesota","Central"
"1459",1459,56088,27091,91,27,21860,NA,NA,"Fairmont, MN","Micropolitan Statistical Area",NA,NA,"Martin County","Minnesota","Central"
"1460",1460,56088,27165,165,27,NA,NA,NA,NA,NA,NA,NA,NA,NA,NA
"1461",1461,56144,27117,117,27,NA,NA,NA,NA,NA,NA,NA,NA,NA,NA
"1462",1462,56144,27133,133,27,NA,NA,NA,NA,NA,NA,NA,NA,NA,NA
"1463",1463,55933,27099,99,27,12380,NA,462,"Austin, MN","Micropolitan Statistical Area",NA,"Rochester-Austin, MN","Mower County","Minnesota","Central"
"1464",1464,55704,27115,115,27,NA,NA,NA,NA,NA,NA,NA,NA,NA,NA
"1465",1465,56151,27101,101,27,NA,NA,NA,NA,NA,NA,NA,NA,NA,NA
"1466",1466,55607,27075,75,27,20260,NA,NA,"Duluth, MN-WI","Metropolitan Statistical Area",NA,NA,"Lake County","Minnesota","Outlying"
"1467",1467,56619,27007,7,27,13420,NA,NA,"Bemidji, MN","Micropolitan Statistical Area",NA,NA,"Beltrami County","Minnesota","Central"
"1468",1468,56711,27077,77,27,NA,NA,NA,NA,NA,NA,NA,NA,NA,NA
"1469",1469,56287,27127,127,27,NA,NA,NA,NA,NA,NA,NA,NA,NA,NA
"1470",1470,55323,27053,53,27,33460,NA,378,"Minneapolis-St. Paul-Bloomington, MN-WI","Metropolitan Statistical Area",NA,"Minneapolis-St. Paul, MN-WI","Hennepin County","Minnesota","Central"
"1471",1471,56741,27077,77,27,NA,NA,NA,NA,NA,NA,NA,NA,NA,NA
